"Record Sequence Number","EQID","Earthquake Name","YEAR","MODY","HRMN","Station Name","Station Sequence Number","Station ID  No.","Earthquake Magnitude","Magnitude Type","Magnitude Uncertainty: Kagan Model","Magnitude Uncertainty: Statistical","Magnitude Sample Size","Magnitude Uncertainty: Study Class","Mo (dyne.cm)","Strike (deg)","Dip (deg)","Rake Angle (deg)","Mechanism Based on Rake Angle","P-plunge (deg)","P-trend (deg)","T-plunge (deg)","T-trend (deg)","Hypocenter Latitude (deg)","Hypocenter Longitude (deg)","Hypocenter Depth (km)","Coseismic Surface Rupture: 1=Yes; 0=No;    -999=Unknown","Coseismic Surface Rupture (Including Inferred)","Basis for Inference of Surface Rupture","Finite Rupture Model: 1=Yes;  0=No","Depth to Top Of Fault Rupture Model","Fault Rupture Length for Calculation of Ry (km)","Fault Rupture Width (km)","Fault Rupture Area (km^2)","Avg Fault Disp (cm)","Rise Time (s)","Avg Slip Velocity (cm/s)","Static Stress Drop (bars)","Preferred Rupture Velocity (km/s)","Average Vr/Vs","Percent of Moment Release in the Top 5 Km of Crust","Existence of Shallow Asperity: 0=No; 1=Yes","Depth to Top of Shallowest Asperity (km)","Earthquake in Extensional Regime: 1=Yes; 0=No","Fault Name","Slip Rate (mm/Yr)","EpiD (km)","HypD (km)","Joyner-Boore Dist. (km)","Campbell R Dist. (km)","RmsD (km)","ClstD (km)","Rx","FW/HW Indicator","Source to Site Azimuth (deg)","X","Theta.D (deg)","SSGA (Strike Slip)","Y","Phi.D (deg)","SSGA (Dip Slip)","s","d","ctildepr","Unused Column","D","Rfn.Hyp","Rfp.Hyp","Unused Column","Unused Column","Unused Column","T","GMX's C1","GMX's C2","GMX's C3","Campbell's GEOCODE","Bray and Rodriguez-Marek SGS","Depth","Preferred NEHRP Based on Vs30","Vs30 (m/s) selected for analysis","Column Not Used","Measured/Inferred Class","Sigma of Vs30 (in natural log Units)","NEHRP Classification from CGS's Site Condition Map","Geological Unit","Geology","Owner","Station Latitude","Station Longitude","STORIES","INSTLOC","Depth to Basement Rock","Site Visited","NGA Type","Age","Grain Size","Depositional History","Northern CA/Southern CA - H11 Z1 (m)","Northern CA/Southern CA - H11 Z1.5 (m)","Northern CA/Southern CA - H11 Z2.5 (m)","Northern CA/Southern CA - S4 Z1 (m)","Northern CA/Southern CA - S4 Z1.5 (m)","Northern CA/Southern CA - S4 Z2.5 (m)","Depth to Franciscan Rock (km)","Basin","h (m)","hnorm (m)","Rsbe (m)","Rcebe (m)","Rebe (m)","Rsbe1 (m)","File Name (Horizontal 1)","File Name (Horizontal 2)","File Name (Vertical)","H1 azimth (degrees)","H2 azimith (degrees)","Type of Recording","Instrument Model","PEA Processing Flag","Type of Filter","npass","nroll","HP-H1 (Hz)","HP-H2 (Hz)","LP-H1 (Hz)","LP-H2 (Hz)","Factor","Lowest Usable Freq - H1 (Hz)","Lowest Usable Freq - H2 (H2)","Lowest Usable Freq - Ave. Component (Hz)","PGA (g)","PGV (cm/sec)","PGD (cm)","T0.010S","T0.020S","T0.022S","T0.025S","T0.029S","T0.030S","T0.032S","T0.035S","T0.036S","T0.040S","T0.042S","T0.044S","T0.045S","T0.046S","T0.048S","T0.050S","T0.055S","T0.060S","T0.065S","T0.067S","T0.070S","T0.075S","T0.080S","T0.085S","T0.090S","T0.095S","T0.100S","T0.110S","T0.120S","T0.130S","T0.133S","T0.140S","T0.150S","T0.160S","T0.170S","T0.180S","T0.190S","T0.200S","T0.220S","T0.240S","T0.250S","T0.260S","T0.280S","T0.290S","T0.300S","T0.320S","T0.340S","T0.350S","T0.360S","T0.380S","T0.400S","T0.420S","T0.440S","T0.450S","T0.460S","T0.480S","T0.500S","T0.550S","T0.600S","T0.650S","T0.667S","T0.700S","T0.750S","T0.800S","T0.850S","T0.900S","T0.950S","T1.000S","T1.100S","T1.200S","T1.300S","T1.400S","T1.500S","T1.600S","T1.700S","T1.800S","T1.900S","T2.000S","T2.200S","T2.400S","T2.500S","T2.600S","T2.800S","T3.000S","T3.200S","T3.400S","T3.500S","T3.600S","T3.800S","T4.000S","T4.200S","T4.400S","T4.600S","T4.800S","T5.000S","T5.500S","T6.000S","T6.500S","T7.000S","T7.500S","T8.000S","T8.500S","T9.000S","T9.500S","T10.000S","T11.000S","T12.000S","T13.000S","T14.000S","T15.000S","T20.000S","Ave Strike (deg)","TYPE(CRjb = 0)","CRjb","TYPE (CRjb = 2)","CRjb","TYPE (CRjb = 5)","CRjb","TYPE (CRjb = 10)","CRjb","TYPE (CRjb = 20)","CRjb","TYPE (CRjb = 40)","CRjb","U","IDPv4","XCI","XCI1","Damping (%)","RotD percentile","Instrument Nat. Freq.","Instrument Damping","Instrument Type","Quality_Flag","Spectra Quality Flag","Late S-trigger","Late P-trigger","Idirectivity","Tp","Ry 2"
3239,174,"Chi-Chi, Taiwan-05",1999,922,14,"TTN022",1114,-999,6.2,"Mw",0.081,-999,-999,0.2,2.2387e25,165,70,100,2,24.4,247.3,63.7,91.1,23.81,121.08,10,-999,0,"M ~ 6",1,7.74,17.5,19.,332.4,18.8,0.7,26.9,9.,2.6,-999,-999,0,15.,0,-999,-999,80.42,81.04,72.58,-999,82.88,73.45,8.46,"nu",7,0.43,5.4,-999,0.13,57.3,-999,7.51,-999.,3.48,-999,7.88,-0.13,-0.08,-999,-999,-999,8.46,"I","H","D","C","D",-999,"C",398.81,502.6,"3b_4a_4b_4c",0.33,"C",-999,-999,"CWB",23.0973,121.2105,-999,-999,-999,-999,-999,-999,-999,-999,-999,-999,-999,-999,-999,-999,-999,-999,-999,-999,-999,-999,-999,-999,"CHICHI.05\TTN022N.AT2","CHICHI.05\TTN022E.AT2","CHICHI.05\TTN022V.AT2",0,90,"D","A900A","PEA","A",1,2.5,0.056,0.064,32.,32.,1.25,0.07,0.08,0.08,0.058549,5.3385,1.2215,0.058586,0.058758,0.058844,0.059009,0.059087,0.05919,0.059226,0.059069,0.059109,0.059296,0.059464,0.059604,0.059722,0.059944,0.06031,0.060607,0.061687,0.062408,0.062596,0.062594,0.062297,0.065983,0.066096,0.065777,0.06571,0.071631,0.070579,0.075697,0.087413,0.10456,0.10954,0.11539,0.12028,0.15549,0.14471,0.14618,0.15387,0.14611,0.14046,0.14964,0.1715,0.18748,0.16589,0.15732,0.16475,0.14255,0.16863,0.19359,0.21186,0.21262,0.2202,0.25295,0.25549,0.21951,0.20872,0.19679,0.18742,0.15213,0.14647,0.10113,0.097979,0.10314,0.10319,0.099487,0.091893,0.084684,0.076789,0.069828,0.066873,0.061508,0.051433,0.046453,0.043233,0.037286,0.032456,0.028005,0.026002,0.026683,0.026558,0.019182,0.016684,0.015918,0.013804,0.012103,0.0098587,0.0083267,0.007497,0.0069445,0.0056544,0.0048712,0.0044665,0.0042308,0.0037819,0.0033744,0.0035567,0.0036568,0.0028446,0.002149,0.0014738,0.0012597,0.0010925,0.00093874,0.00078983,0.0006812,0.00060569,0.0004799,0.00041117,0.00034565,0.00029264,0.00025116,0.00013423,165.,"C1",0,"C1",0,"C2 - 0137",4.99,"C2 - 0137",4.99,"C2 - 0137",4.99,"C2 - 0137",4.99,90.05035,0.403,0.0885,-0.0447,5,50,-999,-999,-999,-999,0,-999,"D",0,-999,81.30035
5037,278,"Chuetsu-oki",2007,716,1013,"GIF024",2462,"GIF024",6.8,"Mw",-999,-999,-999,-999,1.7783e26,34,36,90,2,9,304,81,124,37.5382,138.6174,9,1,1,-999,1,3.12,32.,24.,768.2,-999,-999,-999,-999,-999,-999,-999,-999,-999,-999,-999,-999,272.25,272.4,244.8,-999,261.94,245.41,54.28,"nu",167,0.81,9.8,-999,0.58,47.,-999,26.,-999.,2.98,-999,29.53,0,0,-999,-999,-999,54,-999,-999,"A",-999,-999,-999,"C",614.06,-999,1,0.27,-999,-999,-999,"KNET",35.3009,137.387,-999,-999,-999,-999,-999,-999,-999,-999,20,-999,60,20,-999,60,-999,-999,-999,-999,-999,-999,-999,-999,"CHUETSU\GIF024NS.AT2","CHUETSU\GIF024EW.AT2","CHUETSU\GIF024UD.AT2",0,90,"D","K-NET95","PEA","A",1,2.5,0.09,0.09,30.,30.,1.25,0.113,0.113,0.113,0.0030455,0.42994,0.45024,0.003064,0.003048,0.0030508,0.0030562,0.0030633,0.0030658,0.0030766,0.0030778,0.0030747,0.0030749,0.0030833,0.0030926,0.0030991,0.0031039,0.0031131,0.0031123,0.0031288,0.0031812,0.0031837,0.0032269,0.003238,0.0032707,0.0033703,0.0034693,0.0035615,0.0036593,0.0037243,0.0037265,0.0038736,0.0040601,0.0040421,0.0041259,0.0045603,0.0047801,0.005329,0.0056347,0.0066592,0.0073786,0.0087074,0.0096469,0.0090658,0.0085027,0.0082588,0.008245,0.008021,0.0068002,0.007929,0.0084089,0.0078134,0.0060012,0.005516,0.0064872,0.0071144,0.0071759,0.0071517,0.0070947,0.0076935,0.0082232,0.0095623,0.0083043,0.007383,0.0057186,0.0052589,0.0044542,0.0038425,0.0045519,0.0050143,0.0054905,0.0059913,0.00636,0.0056666,0.0047966,0.0039241,0.0031296,0.0024222,0.0018313,0.0017011,0.0015784,0.0013808,0.0012754,0.0012291,0.0013667,0.0011475,0.0010392,0.00096779,0.00093164,0.00090565,0.00086341,0.00080823,0.00090467,0.00089537,0.00083558,0.00077035,0.00069327,0.00072976,0.00080433,0.0007342,0.00085891,0.0010291,0.0010692,0.00107,0.00098916,0.00084563,0.00071244,0.00061343,0.00044402,0.00029555,0.00022052,0.00017452,0.00013761,0.000055538,34.,"C1",0,"C1",0,"C1",0,"C1",0,"C1",0,"C1",0,-242.30553,0.652,0.1885,0.1183,5,50,-999,-999,-999,-999,0,-999,-999,0,-999,-258.30553
3756,125,"Landers",1992,628,1158,"Morongo Valley Hall (GEOS #58)",1650,-999,7.28,"Mw",0.081,0.05,15,0.1,9.3325e26,336,90,180,0,0.,21.,0.,291.,34.2,-116.436,7,1,1,-999,1,0,71.8,15.,1077.,242.5,2.9,83.6,64.5,2.8,0.8,53,1,0.,0,"Landers fault (S. Johnson Valley)",0.6,94.63,94.89,40.67,-999,61.38,40.67,35.97,"na",62,0.92,31.4,0.78,0.47,79.,0.09,65.81,-999.,2,-999,66,-0.6595,0.2206,-999,-999,-999,25.862473,"A","H","C",-999,-999,-999,"C",368.2,-999,"2a_3a_4b_4c",0.4,-999,-999,-999,"CIT",35.043,-116.572,-999,-999,-999,-999,-999,-999,-999,-999,60,-999,260,-999,-999,-999,-999,-999,-999,-999,-999,-999,-999,-999,"LANDERS\MVP000.AT2","LANDERS\MVP090.AT2","LANDERS\MVP-UP.AT2",0,90,-999,-999,"PEA","A",1,2.5,0.04,0.03,40.,40.,1.25,0.05,0.038,0.05,0.16259,18.662,8.6125,0.16292,0.16435,0.16652,0.16717,0.17507,0.17658,0.17751,0.18119,0.18104,0.17986,0.17911,0.17603,0.17554,0.17588,0.17823,0.18179,0.18259,0.18688,0.1864,0.1917,0.19156,0.19997,0.21204,0.20626,0.21307,0.22066,0.22318,0.25556,0.27036,0.29653,0.31618,0.3583,0.39501,0.34957,0.32903,0.35824,0.35172,0.34945,0.32839,0.32866,0.3269,0.368,0.3637,0.38501,0.3695,0.37146,0.43882,0.469,0.46818,0.53309,0.53505,0.49547,0.45466,0.42356,0.39751,0.4112,0.43351,0.60286,0.69325,0.59316,0.54275,0.44936,0.30154,0.26657,0.28708,0.28062,0.25061,0.23714,0.23728,0.24989,0.22218,0.22608,0.20015,0.18657,0.17497,0.16806,0.1418,0.10759,0.071079,0.066864,0.062921,0.058479,0.049657,0.042363,0.034768,0.02833,0.027123,0.025799,0.0256,0.025742,0.02519,0.020421,0.017912,0.016358,0.016023,0.015612,0.014887,0.01226,0.010263,0.0086284,0.0071738,0.0065209,0.00572,0.0054255,0.0051096,0.0044265,0.0035941,0.0033379,0.0026886,0.0024268,0.0012936,314.8,"C1",0,"C1",0,"C1",0,"C1",0,"C1",0,"C1",0,92.370494,2.68,0.5376,0.4472,5,50,-999,-999,-999,-999,0,-999,"D",0,-999,56.470494
8750,1001,40204628,2007,1031,304,"Columbia College, Columbia, CA, USA",100539,"CMB",5.45,"Mw",-999.,-999,-999,-999,1.6788e24,323,87,-180,0,2.1,188.,2.1,278.,37.4317,-121.7767,7.486,-999,-999,-999,0,4.2552,5.7,5.6,31.8,-999.,-999.,-999.,-999.,-999.,-999.,-999,-999,-999.,-999,-999,-999.,139.63,139.83,139.05,139.38,-999.,139.38,138.39,-999,-999.,-999.,-999.,-999.,-999.,-999.,-999.,-999,-999,-999,-999,-999,-999,-999,-999,-999,-999,-999,"F",-999,"A",-999,-999.,-999,"C",760.,-999,"2a_4b",0.34,-999,-999,-999,-999,38.0346,-120.3865,-999,-999.,-999,-999,-999,-999.,-999.,-999,-999,-999,-999,-999,-999,-999,-999,-999,-999.,-999.,-999.,-999.,-999.,-999.,"40204628B\BKCMBHLN.AT2","40204628B\BKCMBHLE.AT2","40204628B\BKCMBHLZ.AT2",0,90.,"D","HLN -999 -999","PEA","A",1.,2.5,0.2,0.21,0,0.,1.25,0.25,0.2625,0.2625,0.0015362,0.14958,0.043642,0.0015492,0.0015397,0.001541,0.0015437,0.0015486,0.0015485,0.0015532,0.0015634,0.0015665,0.0015773,0.0015877,0.001586,0.0015896,0.0015965,0.0016318,0.0016432,0.0017465,0.0018811,0.0019079,0.001777,0.0016708,0.0016356,0.0016862,0.0017462,0.0017581,0.0018095,0.0019439,0.0020039,0.0020753,0.0021194,0.002158,0.0022109,0.0022867,0.0024303,0.0026208,0.002589,0.0024542,0.0023405,0.0025892,0.0027744,0.0031036,0.0034056,0.0037085,0.0040882,0.0044561,0.0047589,0.0049546,0.0047734,0.0043314,0.0039905,0.0039021,0.0044533,0.0045713,0.0048505,0.0051511,0.0054912,0.0054838,0.0041915,0.0035707,0.00283,0.0024386,0.0021689,0.0018577,0.0018611,0.0018823,0.0020002,0.0020452,0.0020116,0.0016595,0.0016435,0.0014217,0.0012968,0.0011444,0.0010431,0.0009964,0.00091737,0.0008664,0.00078548,0.00065348,0.00055314,0.00050928,0.00046707,0.00038804,0.00033251,0.00029348,0.00032065,0.00031563,0.00030667,0.00028267,0.0002541,0.00022706,0.00019828,0.00017583,0.00014986,0.00012364,0.000082968,0.000064993,0.000053869,0.000045177,0.000038312,0.000032875,0.000028522,0.000024984,0.00002207,0.000019644,0.000015877,0.000013124,0.000011048,9.4387e-6,8.1633e-6,4.499e-6,-999,"C1",0,"C1",0,"C1",0,"C1",0,"C1",0,"C1",0,-999,-999,-999,-999,5,50,80.6,0.66,"a",0,0,-999,-999,-999,-999,-17.2611911306
11531,1028,10275733,2007,902,1729,"Bellflower - Flora Vista & Woodruff",100240,14829,4.73,"ML",-999.,-999,-999,-999,1.3964e23,310,68,170,0,8.7,175.2,22.3,268.8,33.7328,-117.4921,10.018,-999,-999,-999,0,8.5752,2.8,2.3,6.5,-999.,-999.,-999.,-999.,-999.,-999.,-999,-999,-999.,-999,-999,-999.,60.21,61.04,58.91,59.53,-999.,59.53,-23.58,-999,-999.,-999.,-999.,-999.,-999.,-999.,-999.,-999,-999,-999,-999,-999,-999,-999,-999,-999,-999,-999,"A,B",-999,-999,-999,-999.,-999,"D",261.2,-999,"2a_4b",0.34,-999,-999,-999,-999,33.883,-118.117,-999,-999.,-999,-999,-999,-999.,-999.,-999,1380,-999,4480,840,-999,5520,-999,-999,-999.,-999.,-999.,-999.,-999.,-999.,"10275733B\14829360.AT2","10275733B\14829090.AT2","10275733B\14829-UP.AT2",0,90.,"D",-999.,"PEA","A",1.,2.5,0.28,0.2,37,38.,1.25,0.35,0.25,0.35,0.0079202,0.29643,0.02694,0.0079369,0.0080337,0.0080807,0.0081182,0.0081817,0.0082187,0.0082763,0.0084196,0.0084514,0.0086057,0.0086489,0.0087157,0.0088224,0.0088962,0.00901,0.0091487,0.0092445,0.010076,0.010865,0.011104,0.011516,0.012154,0.013448,0.015611,0.016425,0.016242,0.014995,0.012287,0.0128,0.016209,0.017041,0.0181,0.02281,0.025625,0.02594,0.024611,0.021905,0.020503,0.018991,0.01665,0.015715,0.014571,0.012869,0.012523,0.011953,0.010594,0.0097765,0.0096586,0.010097,0.010629,0.010668,0.010456,0.0099534,0.0096056,0.0092916,0.0087434,0.0080352,0.006746,0.0059583,0.005137,0.0048439,0.0043143,0.0037914,0.0032163,0.0027861,0.0024635,0.0024116,0.0022409,0.0016897,0.0013439,0.0011856,0.00099257,0.00082589,0.00071572,0.00068885,0.0006509,0.00051758,0.00042842,0.00033762,0.00036398,0.00035043,0.00032172,0.00025064,0.00021173,0.00018387,0.00015314,0.00013209,0.00011563,0.00010426,0.000088479,0.000073214,0.000066026,0.000062173,0.000060674,0.000054341,0.000041786,0.000031834,0.000026912,0.000022864,0.000019644,0.000017176,0.000015232,0.000013615,0.000012221,0.000011008,9.0482e-6,7.5843e-6,6.4661e-6,5.5827e-6,4.8658e-6,2.7145e-6,-999,"C1",0,"C1",0,"C1",0,"C1",0,"C1",0,"C1",0,-999,-999,-999,-999,5,50,95.2,0.68,"a",0,0,-999,-999,-999,-999,55.0322660047
10255,1016,9983429,2004,214,1243,"Osito Audit: Castaic Lake Dam",100275,"OSI",4.34,"ML",-999.,-999,-999,-999,3.6308e22,106,56,160,0,11.2,333.4,36.6,71.8,35.0174,-119.1492,9.557,-999,-999,-999,0,8.5504,1.9,1.5,2.8,-999.,-999.,-999.,-999.,-999.,-999.,-999,-999,-999.,-999,-999,-999.,59.28,60.05,58.7,59.51,-999.,59.51,32.95,-999,-999.,-999.,-999.,-999.,-999.,-999.,-999.,-999,-999,-999,-999,-999,-999,-999,-999,-999,-999,-999,"A,B",-999,-999,-999,-999.,-999,"C",416.5,-999,"2a_4b",0.34,-999,-999,-999,-999,34.6145,-118.7235,-999,-999.,-999,-999,-999,-999.,-999.,-999,140,-999,640,320,-999,320,-999,-999,-999.,-999.,-999.,-999.,-999.,-999.,"9983429\CIOSIHHN.AT2","9983429\CIOSIHHE.AT2","9983429\CIOSIHHZ.AT2",0,90.,"D","HHN STS-1 Q330HR","PEA","A",1.,2.5,0.04,0.02,32,29.,1.25,0.05,0.025,0.05,0.00038162,0.018836,0.0058884,0.00038804,0.00038513,0.0003855,0.00038755,0.00039105,0.00039212,0.0003947,0.00040346,0.00040637,0.00041419,0.00041772,0.00042599,0.00043072,0.00043344,0.00044279,0.00046786,0.00047147,0.00051733,0.00057721,0.00057733,0.0006348,0.00074164,0.00093708,0.0010546,0.0011889,0.00099757,0.0010141,0.0011095,0.0011031,0.0010701,0.0010223,0.0010209,0.0012648,0.0012791,0.0011092,0.00090424,0.00078056,0.00066998,0.00070906,0.00055508,0.00056855,0.00055699,0.00055119,0.00064593,0.00072858,0.00057174,0.00052901,0.00056651,0.00062854,0.00068899,0.00063214,0.00057211,0.00060869,0.00062854,0.00061562,0.00053684,0.00049633,0.00055433,0.00042019,0.00040182,0.00042096,0.00043597,0.00038678,0.00032734,0.00026974,0.00025424,0.00026124,0.00025968,0.00017193,0.00014289,0.00015685,0.00014878,0.00011077,0.00010086,0.00010406,0.000094685,0.000090495,0.000091087,0.000077508,0.000064516,0.000061142,0.000062361,0.000054348,0.00004342,0.000039695,0.000035476,0.000030866,0.000026336,0.00002464,0.00002086,0.000018761,0.00001916,0.000019087,0.000017207,0.000017385,0.000017283,0.000017131,0.000016531,0.000013265,9.6657e-6,7.0713e-6,5.7382e-6,4.7624e-6,4.0055e-6,3.8469e-6,3.5981e-6,3.209e-6,2.6946e-6,2.1373e-6,1.6357e-6,8.3911e-7,-999,"C1",0,"C1",0,"C1",0,"C1",0,"C1",0,"C1",0,-999,-999,-999,-999,5,50,0.0027778,0.707,"v",0,0,-999,-999,-999,-999,49.9840074962
13091,1061,30192424,1998,820,2349,"Strawberry Peak",3084,"sbpx",4.11,-999,-999.,-999,-999,-999,1.6406e22,245,44,68,2,3.1,170.4,74.6,69.2,34.373,-117.6258,8.33,-999,-999,-999,0,7.5936,1.6,1.6,2.5,-999.,-999.,-999.,-999.,-999.,-999.,-999,-999,-999.,-999,-999,-999.,39.23,40.1,38.2,38.95,-999.,38.95,-28.59,-999,-999.,-999.,-999.,-999.,-999.,-999.,-999.,-999,-999,-999,-999,-999,-999,-999,-999,-999,-999,-999,"F",-999,"A",-999,-999.,-999,"C",393.,-999,0,0.1,-999,-999,-999,"SCSN",34.232,-117.235,-999,-999.,-999,-999,-999,-999.,-999.,-999,40,-999,200,-999,-999,-999,-999,-999,-999.,-999.,-999.,-999.,-999.,-999.,"9064561\CSBPXHHN.AT2","9064561\CSBPXHHE.AT2","9064561\CSBPXHHZ.AT2",0,90.,"D","HHN CMG-3T Q330","PEA","A",1.,2.5,0.21,0.22,0,0.,1.25,0.2625,0.275,0.275,0.0016895,0.047057,0.0024255,0.00172,0.0018124,0.0018405,0.0019274,0.0020028,0.0020144,0.0021693,0.0023607,0.0025895,0.0029672,0.0032542,0.0035884,0.0036579,0.00367,0.0034296,0.0032513,0.0036187,0.0034063,0.0044276,0.0046275,0.0049174,0.0048373,0.0056453,0.0067826,0.0078674,0.0084449,0.0072355,0.0049018,0.0039342,0.0038476,0.0036729,0.0035169,0.0040454,0.0038576,0.0037001,0.0039748,0.0037716,0.0037672,0.0037141,0.0037006,0.0033431,0.002927,0.0021664,0.0019462,0.0018651,0.001664,0.0014723,0.0014,0.0014429,0.0015883,0.0014973,0.0013642,0.0011623,0.0011095,0.00099609,0.0010384,0.0011209,0.0007214,0.00056118,0.0005181,0.00049504,0.00048173,0.0004348,0.00034689,0.00029763,0.00028751,0.00024734,0.00021846,0.00012831,0.00010136,0.00009366,0.000078432,0.000089026,0.000079777,0.00006659,0.000059617,0.000052617,0.00005125,0.000037445,0.000029018,0.000025005,0.000022514,0.000019325,0.000017775,0.000016166,0.000013084,0.000012339,0.00001166,9.9298e-6,8.1311e-6,7.1876e-6,6.3542e-6,5.6614e-6,5.0946e-6,4.613e-6,3.6194e-6,2.9805e-6,2.5076e-6,2.1342e-6,1.8434e-6,1.6086e-6,1.4154e-6,1.2575e-6,1.1235e-6,1.0096e-6,8.2983e-7,6.936e-7,5.8872e-7,5.0626e-7,4.4018e-7,2.4642e-7,-999,"C1",0,"C1",0,"C1",0,"C1",0,"C1",0,"C1",0,-999,-999,-999,-999,5,50,0.0335368,0.707,"v",0,0,-999,-999,-999,-999,-25.825119333
