"Record Sequence Number","EQID","Earthquake Name","YEAR","MODY","HRMN","Station Name","Station Sequence Number","Station ID  No.","Earthquake Magnitude","Magnitude Type","Magnitude Uncertainty: Kagan Model","Magnitude Uncertainty: Statistical","Magnitude Sample Size","Magnitude Uncertainty: Study Class","Mo (dyne.cm)","Strike (deg)","Dip (deg)","Rake Angle (deg)","Mechanism Based on Rake Angle","P-plunge (deg)","P-trend (deg)","T-plunge (deg)","T-trend (deg)","Hypocenter Latitude (deg)","Hypocenter Longitude (deg)","Hypocenter Depth (km)","Coseismic Surface Rupture: 1=Yes; 0=No;    -999=Unknown","Coseismic Surface Rupture (Including Inferred)","Basis for Inference of Surface Rupture","Finite Rupture Model: 1=Yes;  0=No","Depth to Top Of Fault Rupture Model","Fault Rupture Length for Calculation of Ry (km)","Fault Rupture Width (km)","Fault Rupture Area (km^2)","Avg Fault Disp (cm)","Rise Time (s)","Avg Slip Velocity (cm/s)","Static Stress Drop (bars)","Preferred Rupture Velocity (km/s)","Average Vr/Vs","Percent of Moment Release in the Top 5 Km of Crust","Existence of Shallow Asperity: 0=No; 1=Yes","Depth to Top of Shallowest Asperity (km)","Earthquake in Extensional Regime: 1=Yes; 0=No","Fault Name","Slip Rate (mm/Yr)","EpiD (km)","HypD (km)","Joyner-Boore Dist. (km)","Campbell R Dist. (km)","RmsD (km)","ClstD (km)","Rx","FW/HW Indicator","Source to Site Azimuth (deg)","X","Theta.D (deg)","SSGA (Strike Slip)","Y","Phi.D (deg)","SSGA (Dip Slip)","s","d","ctildepr","Unused Column","D","Rfn.Hyp","Rfp.Hyp","Unused Column","Unused Column","Unused Column","T","GMX's C1","GMX's C2","GMX's C3","Campbell's GEOCODE","Bray and Rodriguez-Marek SGS","Depth","Preferred NEHRP Based on Vs30","Vs30 (m/s) selected for analysis","Column Not Used","Measured/Inferred Class","Sigma of Vs30 (in natural log Units)","NEHRP Classification from CGS's Site Condition Map","Geological Unit","Geology","Owner","Station Latitude","Station Longitude","STORIES","INSTLOC","Depth to Basement Rock","Site Visited","NGA Type","Age","Grain Size","Depositional History","Northern CA/Southern CA - H11 Z1 (m)","Northern CA/Southern CA - H11 Z1.5 (m)","Northern CA/Southern CA - H11 Z2.5 (m)","Northern CA/Southern CA - S4 Z1 (m)","Northern CA/Southern CA - S4 Z1.5 (m)","Northern CA/Southern CA - S4 Z2.5 (m)","Depth to Franciscan Rock (km)","Basin","h (m)","hnorm (m)","Rsbe (m)","Rcebe (m)","Rebe (m)","Rsbe1 (m)","File Name (Horizontal 1)","File Name (Horizontal 2)","File Name (Vertical)","H1 azimth (degrees)","H2 azimith (degrees)","Type of Recording","Instrument Model","PEA Processing Flag","Type of Filter","npass","nroll","HP-H1 (Hz)","HP-H2 (Hz)","LP-H1 (Hz)","LP-H2 (Hz)","Factor","Lowest Usable Freq - H1 (Hz)","Lowest Usable Freq - H2 (H2)","Lowest Usable Freq - Ave. Component (Hz)","PGA (g)","PGV (cm/sec)","PGD (cm)","T0.010S","T0.020S","T0.022S","T0.025S","T0.029S","T0.030S","T0.032S","T0.035S","T0.036S","T0.040S","T0.042S","T0.044S","T0.045S","T0.046S","T0.048S","T0.050S","T0.055S","T0.060S","T0.065S","T0.067S","T0.070S","T0.075S","T0.080S","T0.085S","T0.090S","T0.095S","T0.100S","T0.110S","T0.120S","T0.130S","T0.133S","T0.140S","T0.150S","T0.160S","T0.170S","T0.180S","T0.190S","T0.200S","T0.220S","T0.240S","T0.250S","T0.260S","T0.280S","T0.290S","T0.300S","T0.320S","T0.340S","T0.350S","T0.360S","T0.380S","T0.400S","T0.420S","T0.440S","T0.450S","T0.460S","T0.480S","T0.500S","T0.550S","T0.600S","T0.650S","T0.667S","T0.700S","T0.750S","T0.800S","T0.850S","T0.900S","T0.950S","T1.000S","T1.100S","T1.200S","T1.300S","T1.400S","T1.500S","T1.600S","T1.700S","T1.800S","T1.900S","T2.000S","T2.200S","T2.400S","T2.500S","T2.600S","T2.800S","T3.000S","T3.200S","T3.400S","T3.500S","T3.600S","T3.800S","T4.000S","T4.200S","T4.400S","T4.600S","T4.800S","T5.000S","T5.500S","T6.000S","T6.500S","T7.000S","T7.500S","T8.000S","T8.500S","T9.000S","T9.500S","T10.000S","T11.000S","T12.000S","T13.000S","T14.000S","T15.000S","T20.000S","Ave Strike (deg)","TYPE(CRjb = 0)","CRjb","TYPE (CRjb = 2)","CRjb","TYPE (CRjb = 5)","CRjb","TYPE (CRjb = 10)","CRjb","TYPE (CRjb = 20)","CRjb","TYPE (CRjb = 40)","CRjb","U","IDPv4","XCI","XCI1","Damping (%)","RotD percentile","Instrument Nat. Freq.","Instrument Damping","Instrument Type","Quality_Flag","Spectra Quality Flag","Late S-trigger","Late P-trigger","Idirectivity","Tp","Ry 2"
20538,1098,21414391,2004,1025,1955,"Mount Umunhum",100072,"JUM",3.68,"Mw",-999,-999,-999,-999,3715352290971730000000,301,87,165,0,8.38,347.34,12.7,255.44,36.9659,-121.5943,6.068,-999,-999,-999,0,5.5621,1.1,0.7,0.7,-999,-999,-999,-999,-999,-999,-999,-999,-999,-999,-999,-999,34.67,35.19,34.2,34.65,-999,34.65,4.82,-999,-999,-999,-999,-999,-999,-999,-999,-999,-999,-999,-999,-999,-999,-999,-999,-999,-999,-999,"I",-999,-999,-999,-999,-999,"C",760,-999,"2a_4b",0.34,-999,-999,-999,-999,37.1607,-121.899,-999,-999,-999,-999,-999,-999,-999,-999,8,159,733,8,159,733,-999,-999,-999,-999,-999,-999,-999,-999,"51151992/JUMHNN.AT2","51151992/JUMHNE.AT2",-999,0,90,"D",-999,"PEA","A",1,2.5,0.292,0.341,33.204,30.724,1.25,0.364,0.426,0.426,0.004783,0.14684,0.010923,0.0048563,0.0047898,0.0048301,0.004894,0.0050108,0.0050435,0.0051326,0.0052469,0.0053368,0.00583,0.0059861,0.0059476,0.0061416,0.0062869,0.006574,0.006977,0.0082271,0.0085516,0.010274,0.011406,0.012899,0.014721,0.015136,0.014995,0.01428,0.012812,0.01229,0.012968,0.017658,0.015538,0.016353,0.014779,0.013309,0.013778,0.013222,0.011473,0.012342,0.010609,0.01008,0.010134,0.011013,0.012233,0.01293,0.012918,0.012337,0.0096361,0.007421,0.0066359,0.0058386,0.004821,0.004738,0.005233,0.0050596,0.0048288,0.0046913,0.004501,0.0041503,0.0028557,0.002291,0.001789,0.0016592,0.0014602,0.0013088,0.0012225,0.0010641,0.00089876,0.00077673,0.00067564,0.00060853,0.00046787,0.00036769,0.00034814,0.0002985,0.00024171,0.00019749,0.00018967,0.00017219,0.00014952,0.00010423,0.000081669,0.000073377,0.000069773,0.000060153,0.000054998,0.000046341,0.000038538,0.00003518,0.000032373,0.000028368,0.000025858,0.000024186,0.000022428,0.000020555,0.000018775,0.000017213,0.000014046,0.000011752,9.9692e-6,8.5311e-6,7.3699e-6,6.4366e-6,5.6869e-6,5.0681e-6,4.5538e-6,4.1178e-6,3.4132e-6,2.8674e-6,2.4355e-6,2.0898e-6,1.8107e-6,1.0032e-6,-999,"C1",0,"C1",0,"C1",0,"C1",0,"C1",0,"C1f - 1248",37.34,-999,-999,-999,-999,5,50,49.9901,0.7071,"a",-999,0,-999,-999,-999,-999,34.1498172176
615,113,"Whittier Narrows-01",1987,1001,1442,"Downey - Co Maint Bldg",288,14368,5.99,"Mw",0.081,0.052,11,0.1,1.0839e25,280,30,150,3,25.8,147.1,52.1,275.6,34.0493,-118.081,14.6,0,0,-999,1,14.5,10.,6.,60.,50.5,0.3,168.2,56.8,2.6,0.8,0,0,14.1,0,"Puente Hills Blind Thrust",0.7,16.04,21.69,14.95,-999,24.33,20.82,-14.94,"fw",-88.42,0.5,70.3,0.17,0.03,14.,0.03,4.99,-999.,0.93,-999,4.99,0.19,-0.26,-999,-999,-999,-14.94,"A","H","D","A","D","D","D",271.9,-999,1,0.25,"D","Qal, deep, LA basin","Holocene medium alluvium","CDMG",33.924,-118.167,1,"GROUND LEVEL",9.5,-999,2,"Holocene","Coarse","Alluvial Fan",1300,-999,4400,880,-999,6000,-999,-999,-999,-999,-999,-999,-999,-999,"WHITTIER.A\A-DWN180.AT2","WHITTIER.A\A-DWN270.AT2","WHITTIER.A\A-DWN-UP.AT2",180,270,"A",-999,"PEA","A",1,2.5,0.2,0.2,30.,30.,1.25,0.25,0.25,0.25,0.18366,23.498,4.0549,0.18394,0.18391,0.18468,0.18477,0.18529,0.18562,0.19051,0.19178,0.19229,0.1946,0.19389,0.19393,0.19824,0.20407,0.20996,0.20599,0.20251,0.2304,0.25998,0.27765,0.3049,0.30751,0.29726,0.29937,0.30712,0.30574,0.32488,0.34755,0.34681,0.32778,0.29402,0.28966,0.33002,0.29852,0.34416,0.3855,0.38352,0.38582,0.41949,0.398,0.42678,0.433,0.37007,0.37335,0.39072,0.37366,0.41875,0.42316,0.40902,0.36528,0.34688,0.35773,0.37216,0.38829,0.40879,0.42401,0.41215,0.38164,0.4538,0.53875,0.55328,0.55871,0.52021,0.46931,0.4303,0.38938,0.35061,0.3147,0.24851,0.18665,0.14431,0.11104,0.088141,0.070525,0.057335,0.048868,0.042141,0.037429,0.030031,0.025903,0.024646,0.023896,0.022613,0.022723,0.021574,0.019096,0.01745,0.016296,0.01399,0.012376,0.011812,0.01118,0.010505,0.0098183,0.0091411,0.0075778,0.0062654,0.005206,0.0043634,0.0036948,0.0031617,0.0027334,0.0023858,0.0021007,0.0018643,0.0014992,0.001234,0.001035,0.00088171,0.00076089,0.00041748,280,"C1",0,"C1",0,"C1",0,"C1",0,"C1",0,"C1",0,10.410822,0.0409,0.0077,-0.0285,5,50,-999,-999,-999,-999,0,-999,"?",0,-999,5.410822
1060,127,"Northridge-01",1994,117,1231,"Rancho Cucamonga - Deer Can",311,23598,6.69,"Mw",0.081,0.034,14,0.1,1.2162e26,122,40,103,2,5.7,22.8,79.9,146.7,34.2057,-118.5539,17.5,0,0,"M<6",1,5,18.,24.,432.1,78.6,1.15,68.4,33.,2.9,0.8,0,0,9.4,0,"Northridge Blind Thrust",1.5,89.83,91.52,79.83,-999,92.38,79.99,-29.5,"nu",-21.69,0.22,29.7,-999,0.81,18.5,-999,3.87,-999.,1.49,-999,19.88,0.32,0.02,-999,-999,-999,-29.5,"I","G","A","D","B","S","C",509.1,-999,"2a_3a_4b_4c",0.25,"B","Kgr","Granitic rock","CDMG",34.169,-117.579,0,"GROUND LEVEL",0.,"yes",4,"Mesozoic",-999,-999,60,-999,280,20,-999,320,-999,-999,-999,-999,-999,-999,-999,-999,"NORTHR\CUC090.AT2","NORTHR\CUC180.AT2","NORTHR\CUC-UP.AT2",90,180,"D",-999,"#","O",-999,-999,0.3,0.3,46.,46.,1.,0.3,0.3,0.3,0.066105,4.5028,0.66533,0.067022,0.066569,0.066432,0.066987,0.067387,0.06757,0.067786,0.068093,0.068101,0.068373,0.067828,0.067231,0.067276,0.067585,0.06826,0.068252,0.070677,0.072487,0.073578,0.073328,0.073793,0.071874,0.073296,0.081739,0.087188,0.091795,0.10371,0.10901,0.12304,0.12892,0.13161,0.1404,0.15366,0.19564,0.22049,0.21509,0.22374,0.23729,0.18827,0.17536,0.18786,0.20483,0.19283,0.18682,0.18548,0.16115,0.13277,0.13837,0.14809,0.14882,0.14363,0.14414,0.11161,0.10725,0.10627,0.099984,0.093455,0.10064,0.12068,0.098955,0.089714,0.072347,0.065463,0.060572,0.053731,0.049072,0.047729,0.044121,0.042571,0.039224,0.031223,0.025976,0.021485,0.019693,0.019944,0.01706,0.014578,0.012185,0.009637,0.0078416,0.0074157,0.0071635,0.0066226,0.0062607,0.0054841,0.0047211,0.0043106,0.0040426,0.0033407,0.002636,0.0021671,0.0018035,0.0015821,0.001423,0.0012997,0.0010621,0.00087633,0.00072339,0.0006017,0.00050861,0.00043736,0.00038183,0.00033722,0.00030069,0.00027043,0.00022343,0.00018868,0.00016149,0.00013971,0.00012178,0.000067788,122.,"C1",0,"C1",0,"C1",0,"C1",0,"C1",0,"C1",0,92.182862,0.399,0.1543,-0.0296,5,50,-999,-999,-999,-999,0,-999,"? PT",0,-999,83.182862
3490,175,"Chi-Chi, Taiwan-06",1999,925,2352,"TCU103",1062,-999,6.3,"Mw",0.081,-999,-999,0.2,3.1623e25,5,30,100,2,15.3,267.7,73.9,68.8,23.87,121.01,16,-999,0,"M ~ 6",1,10,29.,20.,580.,15.2,0.3,50.8,5.5,3.2,-999,-999,0,13.,0,-999,-999,57.8,59.98,40.35,-999,58.05,41.58,-24.45,"nu",-37.3,0.48,37.1,-999,0.6,5.4,-999,14.01,-999.,3.96,-999,18.45,0.45,-0.2,-999,-999,-999,-24.45,"L","Q","D","C","D",-999,"C",494.1,-999,0,0.2,"C",-999,-999,"CWB",24.3098,120.7072,-999,-999,-999,-999,-999,-999,-999,-999,-999,-999,-999,-999,-999,-999,-999,-999,-999,-999,-999,-999,-999,-999,"CHICHI.06\TCU103N.AT2","CHICHI.06\TCU103E.AT2","CHICHI.06\TCU103V.AT2",0,90,"D","A900","PEA","A",1,2.5,0.024,0.016,32.,32.,1.25,0.03,0.02,0.03,0.041528,7.8048,2.3924,0.041544,0.041637,0.041725,0.041812,0.041831,0.041923,0.042117,0.041855,0.042092,0.042307,0.042251,0.042713,0.042645,0.042694,0.043371,0.043702,0.043942,0.043867,0.0436,0.043438,0.043802,0.045077,0.046447,0.047376,0.047725,0.047812,0.05049,0.050303,0.051942,0.053127,0.053921,0.055082,0.057166,0.061919,0.067252,0.079725,0.076742,0.077806,0.062426,0.070979,0.080354,0.080787,0.076364,0.067946,0.072648,0.080137,0.091502,0.10783,0.10953,0.12037,0.12336,0.11415,0.096882,0.1004,0.11192,0.1219,0.11358,0.084174,0.074753,0.067112,0.068862,0.07692,0.092058,0.10352,0.11611,0.12946,0.12438,0.11611,0.095533,0.086827,0.079319,0.074298,0.069779,0.062708,0.05374,0.04704,0.040297,0.03674,0.034617,0.029666,0.02737,0.025496,0.020633,0.015388,0.012639,0.010638,0.0097449,0.0088778,0.0077138,0.0066864,0.0057298,0.0048763,0.0043487,0.0039608,0.0038643,0.0038711,0.0030009,0.0026456,0.0023953,0.0021224,0.0018643,0.0016485,0.0015307,0.0014555,0.0014486,0.001272,0.0011529,0.00095611,0.00083559,0.00071329,0.00034606,5.,"C2 - 0137",0,"C2 - 0137",0,"C2 - 0137",0,"C2 - 0137",0,"C2 - 0137",0,"C2 - 0137",0,61.100645,1.3,0.2569,0.1068,5,50,-999,-999,-999,-999,0,-999,"D",0,-999,46.600645
14919,1100,21549979,2006,1129,2120,"Monarch Peak",100345,"PMPB",3.7,"Mw",-999.,-999,-999,-999,3.9811e21,133,67,176,0,13.4,356.5,18.8,91.2,36.8466,-121.4607,1.331,-999,-999,-999,0,0.8984,0.9,0.5,0.5,-999.,-999.,-999.,-999.,-999.,-999.,-999,-999,-999.,-999,-999,-999.,91.57,91.58,91.25,91.22,-999.,91.26,10.99,-999,-999.,-999.,-999.,-999.,-999.,-999.,-999.,-999,-999,-999,-999,-999,-999,-999,-999,-999,-999,-999,"I,F",-999,"A",-999,-999.,-999,"D",308.,-999,0,0.1,-999,-999,-999,-999,36.2159,-120.8013,-999,-999.,-999,-999,-999,-999.,-999.,-999,40,-999,260,-999,-999,-999,-999,-999,-999.,-999.,-999.,-999.,-999.,-999.,"40191319\NPMPBHHN.AT2","40191319\NPMPBHHE.AT2","40191319\NPMPBHHZ.AT2",0,90.,"D","HHN -999 -999","PEA","A",1.,2.5,0.04,0.05,0,0.,1.25,0.05,0.0625,0.0625,0.000071698,0.0093261,0.0041963,0.000072339,0.000071776,0.000071912,0.000072376,0.000072379,0.000072576,0.000072516,0.000072258,0.000072283,0.000072319,0.000072246,0.000072,0.000071887,0.000071899,0.000072128,0.000072263,0.000072519,0.00007315,0.000073444,0.000073549,0.00007383,0.000074045,0.000074393,0.000075167,0.000077085,0.000077066,0.000077013,0.000079608,0.000093878,0.000090765,0.000091924,0.00010551,0.00012412,0.00012496,0.0001307,0.00016029,0.00016827,0.00018799,0.00019373,0.00017515,0.00015376,0.0001638,0.0001983,0.00020582,0.00021047,0.00019052,0.00016779,0.00017816,0.00018644,0.00019256,0.00019963,0.00015913,0.00014995,0.00015324,0.00016126,0.00017179,0.00016784,0.0002096,0.00023186,0.0002128,0.00022899,0.00023076,0.00020911,0.0001978,0.00017267,0.0001601,0.00015472,0.00011911,0.00010169,0.000097691,0.000099576,0.000092623,0.000083517,0.000087304,0.000088477,0.000087669,0.000078187,0.000068695,0.000075915,0.000070175,0.000067442,0.000063106,0.00005328,0.000050201,0.000051851,0.000057169,0.000056274,0.00005473,0.000049537,0.000047631,0.000046451,0.000041329,0.000035288,0.000031602,0.000027533,0.000019924,0.000013303,8.3868e-6,6.1003e-6,4.4962e-6,3.8903e-6,2.9771e-6,2.5993e-6,2.3979e-6,2.0725e-6,1.5948e-6,1.3507e-6,1.1225e-6,9.2784e-7,7.9711e-7,4.2906e-7,-999,"C1",0,"C1",0,"C1",0,"C1",0,"C1",0,"C2 - 1021",27.43,-999,-999,-999,-999,5,50,0.008281,0.706347,"v",0,0,-999,-999,-999,-999,90.9276197998
11012,1021,21522424,2006,615,1224,"San Francisco; Fire Station 43 Moscow St; 2-story; ground level",100023,1818,4.3,"Mw",-999.,-999,-999,-999,3.1623e22,358,78,-155,0,26.1,222.5,8.4,128.4,37.0995,-121.4909,3.361,-999,-999,-999,0,2.585,1.6,1.,1.6,-999.,-999.,-999.,-999.,-999.,-999.,-999,-999,-999.,-999,-999,-999.,107.78,107.83,107.08,107.19,-999.,107.12,-80.14,-999,-999.,-999.,-999.,-999.,-999.,-999.,-999.,-999,-999,-999,-999,-999,-999,-999,-999,-999,-999,-999,"A,B",-999,-999,-999,-999.,-999,"C",407.6,-999,"2a_4b",0.34,-999,-999,-999,-999,37.7163,-122.4312,-999,-999.,-999,-999,-999,-999.,-999.,-999,0,279,881,0,279,881.1,-999,-999,-999.,-999.,-999.,-999.,-999.,-999.,"51171759\N1818HNN.AT2","51171759\N1818HNE.AT2","51171759\N1818HNZ.AT2",0,90.,"D","HNN -999 K2","PEA","A",1.,2.5,0.44,0.44,0,0.,1.25,0.55,0.55,0.55,0.0043728,0.14599,0.007537,0.004471,0.0044451,0.0044569,0.0044707,0.0045179,0.0045365,0.0045691,0.0046537,0.0046751,0.0047233,0.0047958,0.0049138,0.0049859,0.0050754,0.0051939,0.0051689,0.0050612,0.0050979,0.0059225,0.0061268,0.0062147,0.0068116,0.0070475,0.007612,0.0078475,0.0083015,0.0084491,0.010758,0.014967,0.011704,0.01105,0.011265,0.011693,0.014175,0.016131,0.013118,0.012456,0.014225,0.015014,0.015544,0.012924,0.01115,0.012897,0.013186,0.012383,0.0097091,0.006815,0.0061255,0.005725,0.0054537,0.004678,0.0041767,0.0043386,0.0042578,0.0042302,0.0039463,0.0036264,0.0026536,0.0019492,0.0016542,0.0015881,0.0012855,0.00094262,0.000732,0.00066355,0.00060888,0.00051368,0.00049108,0.00041395,0.0003174,0.00027125,0.00024698,0.00020188,0.00016011,0.00012754,0.00011192,0.000091111,0.000083228,0.000074149,0.00006223,0.000054209,0.000047182,0.000040114,0.000034591,0.000030424,0.00002743,0.000025965,0.000024505,0.00002176,0.000019489,0.000017666,0.000016142,0.00001476,0.000013502,0.000012392,0.000010229,8.5928e-6,7.3038e-6,6.2854e-6,5.4645e-6,4.7951e-6,4.2445e-6,3.7835e-6,3.3928e-6,3.0596e-6,2.5265e-6,2.122e-6,1.807e-6,1.5572e-6,1.3561e-6,7.6183e-7,-999,"C1",0,"C1",0,"C1",0,"C1",0,"C1",0,"C1",0,-999,-999,-999,-999,5,50,223.9759,0.69709,"a",0,0,-999,-999,-999,-999,71.631037031
14555,1091,9655209,2001,523,1910,"Otay Lakes Park",3076,"olp",3.78,"ML",-999.,-999,-999,-999,5.2481e21,295,59,157,0,7.3,164.,36.9,259.5,34.0294,-116.7534,14.93,-999,-999,-999,0,14.4968,1.2,0.8,1.,-999.,-999.,-999.,-999.,-999.,-999.,-999,-999,-999.,-999,-999,-999.,158.5,159.2,158.61,159.27,-999.,159.27,-150.07,-999,-999.,-999.,-999.,-999.,-999.,-999.,-999.,-999,-999,-999,-999,-999,-999,-999,-999,-999,-999,-999,"F",-999,"A",-999,-999.,-999,"C",489.,-999,0,0.1,-999,-999,-999,"SCSN",32.608,-116.93,-999,-999.,-999,-999,-999,-999.,-999.,-999,40,-999,200,-999,-999,-999,-999,-999,-999.,-999.,-999.,-999.,-999.,-999.,"9655209\CIOLPHLN.AT2","9655209\CIOLPHLE.AT2","9655209\CIOLPHLZ.AT2",0,90.,"D","HLN FBA ES-T-4G Q330-S","PEA","A",1.,2.5,0.48,0.52,0,0.,1.25,0.6,0.65,0.65,0.00036539,0.0074343,0.00030321,0.00037374,0.00037648,0.00038057,0.00038728,0.00039883,0.00040802,0.00041906,0.00044242,0.00046825,0.00054519,0.00058116,0.00056042,0.00057506,0.00060339,0.00060399,0.00062432,0.0007375,0.0008285,0.0010601,0.001143,0.0011693,0.0012535,0.0011693,0.0012414,0.0011226,0.0010711,0.00090665,0.00091833,0.00081818,0.00074625,0.0007635,0.0007155,0.00077944,0.00081043,0.00084254,0.00089237,0.00085984,0.00072667,0.00056692,0.0005894,0.0005538,0.00051186,0.00038309,0.00036588,0.00035022,0.00031234,0.00027579,0.00023937,0.00021054,0.0001669,0.00015126,0.00013031,0.00012569,0.00012296,0.00011954,0.00011566,0.00011142,0.000087814,0.00007064,0.000059323,0.000054937,0.000047113,0.000036752,0.000028435,0.000023591,0.00002138,0.000018153,0.000016574,0.000012929,0.000011112,9.5867e-6,8.3197e-6,7.0276e-6,5.956e-6,4.9884e-6,4.3783e-6,3.8097e-6,3.3325e-6,2.6967e-6,2.2428e-6,2.0545e-6,1.8746e-6,1.6191e-6,1.4083e-6,1.2341e-6,1.0836e-6,1.0203e-6,9.6106e-7,8.5555e-7,7.6489e-7,6.9084e-7,6.3082e-7,5.778e-7,5.3145e-7,4.9018e-7,4.0591e-7,3.4141e-7,2.9107e-7,2.5086e-7,2.1873e-7,1.9216e-7,1.702e-7,1.5185e-7,1.3636e-7,1.2311e-7,1.0176e-7,8.5493e-8,7.2826e-8,6.2802e-8,5.4719e-8,3.0769e-8,-999,"C1",0,"C1",0,"C1",0,"C1",0,"C1",0,"C1",0,-999,-999,-999,-999,5,50,200,0.707,"a",0,0,-999,-999,-999,-999,-51.2555048971
