"Record Sequence Number","EQID","Earthquake Name","YEAR","MODY","HRMN","Station Name","Station Sequence Number","Station ID  No.","Earthquake Magnitude","Magnitude Type","Magnitude Uncertainty: Kagan Model","Magnitude Uncertainty: Statistical","Magnitude Sample Size","Magnitude Uncertainty: Study Class","Mo (dyne.cm)","Strike (deg)","Dip (deg)","Rake Angle (deg)","Mechanism Based on Rake Angle","P-plunge (deg)","P-trend (deg)","T-plunge (deg)","T-trend (deg)","Hypocenter Latitude (deg)","Hypocenter Longitude (deg)","Hypocenter Depth (km)","Coseismic Surface Rupture: 1=Yes; 0=No;    -999=Unknown","Coseismic Surface Rupture (Including Inferred)","Basis for Inference of Surface Rupture","Finite Rupture Model: 1=Yes;  0=No","Depth to Top Of Fault Rupture Model","Fault Rupture Length for Calculation of Ry (km)","Fault Rupture Width (km)","Fault Rupture Area (km^2)","Avg Fault Disp (cm)","Rise Time (s)","Avg Slip Velocity (cm/s)","Static Stress Drop (bars)","Preferred Rupture Velocity (km/s)","Average Vr/Vs","Percent of Moment Release in the Top 5 Km of Crust","Existence of Shallow Asperity: 0=No; 1=Yes","Depth to Top of Shallowest Asperity (km)","Earthquake in Extensional Regime: 1=Yes; 0=No","Fault Name","Slip Rate (mm/Yr)","EpiD (km)","HypD (km)","Joyner-Boore Dist. (km)","Campbell R Dist. (km)","RmsD (km)","ClstD (km)","Rx","FW/HW Indicator","Source to Site Azimuth (deg)","X","Theta.D (deg)","SSGA (Strike Slip)","Y","Phi.D (deg)","SSGA (Dip Slip)","s","d","ctildepr","Unused Column","D","Rfn.Hyp","Rfp.Hyp","Unused Column","Unused Column","Unused Column","T","GMX's C1","GMX's C2","GMX's C3","Campbell's GEOCODE","Bray and Rodriguez-Marek SGS","Depth","Preferred NEHRP Based on Vs30","Vs30 (m/s) selected for analysis","Column Not Used","Measured/Inferred Class","Sigma of Vs30 (in natural log Units)","NEHRP Classification from CGS's Site Condition Map","Geological Unit","Geology","Owner","Station Latitude","Station Longitude","STORIES","INSTLOC","Depth to Basement Rock","Site Visited","NGA Type","Age","Grain Size","Depositional History","Northern CA/Southern CA - H11 Z1 (m)","Northern CA/Southern CA - H11 Z1.5 (m)","Northern CA/Southern CA - H11 Z2.5 (m)","Northern CA/Southern CA - S4 Z1 (m)","Northern CA/Southern CA - S4 Z1.5 (m)","Northern CA/Southern CA - S4 Z2.5 (m)","Depth to Franciscan Rock (km)","Basin","h (m)","hnorm (m)","Rsbe (m)","Rcebe (m)","Rebe (m)","Rsbe1 (m)","File Name (Horizontal 1)","File Name (Horizontal 2)","File Name (Vertical)","H1 azimth (degrees)","H2 azimith (degrees)","Type of Recording","Instrument Model","PEA Processing Flag","Type of Filter","npass","nroll","HP-H1 (Hz)","HP-H2 (Hz)","LP-H1 (Hz)","LP-H2 (Hz)","Factor","Lowest Usable Freq - H1 (Hz)","Lowest Usable Freq - H2 (H2)","Lowest Usable Freq - Ave. Component (Hz)","PGA (g)","PGV (cm/sec)","PGD (cm)","T0.010S","T0.020S","T0.022S","T0.025S","T0.029S","T0.030S","T0.032S","T0.035S","T0.036S","T0.040S","T0.042S","T0.044S","T0.045S","T0.046S","T0.048S","T0.050S","T0.055S","T0.060S","T0.065S","T0.067S","T0.070S","T0.075S","T0.080S","T0.085S","T0.090S","T0.095S","T0.100S","T0.110S","T0.120S","T0.130S","T0.133S","T0.140S","T0.150S","T0.160S","T0.170S","T0.180S","T0.190S","T0.200S","T0.220S","T0.240S","T0.250S","T0.260S","T0.280S","T0.290S","T0.300S","T0.320S","T0.340S","T0.350S","T0.360S","T0.380S","T0.400S","T0.420S","T0.440S","T0.450S","T0.460S","T0.480S","T0.500S","T0.550S","T0.600S","T0.650S","T0.667S","T0.700S","T0.750S","T0.800S","T0.850S","T0.900S","T0.950S","T1.000S","T1.100S","T1.200S","T1.300S","T1.400S","T1.500S","T1.600S","T1.700S","T1.800S","T1.900S","T2.000S","T2.200S","T2.400S","T2.500S","T2.600S","T2.800S","T3.000S","T3.200S","T3.400S","T3.500S","T3.600S","T3.800S","T4.000S","T4.200S","T4.400S","T4.600S","T4.800S","T5.000S","T5.500S","T6.000S","T6.500S","T7.000S","T7.500S","T8.000S","T8.500S","T9.000S","T9.500S","T10.000S","T11.000S","T12.000S","T13.000S","T14.000S","T15.000S","T20.000S","Ave Strike (deg)","TYPE(CRjb = 0)","CRjb","TYPE (CRjb = 2)","CRjb","TYPE (CRjb = 5)","CRjb","TYPE (CRjb = 10)","CRjb","TYPE (CRjb = 20)","CRjb","TYPE (CRjb = 40)","CRjb","U","IDPv4","XCI","XCI1","Damping (%)","RotD percentile","Instrument Nat. Freq.","Instrument Damping","Instrument Type","Quality_Flag","Spectra Quality Flag","Late S-trigger","Late P-trigger","Idirectivity","Tp","Ry 2"
125,40,"Friuli, Italy-01",1976,506,2000,"Tolmezzo",254,8012,6.5,"Mw",0.144,0.006,3,0.2,6.3096e25,251.8,11.8,80,2,33.4,170.3,56.6,354.7,46.345,13.24,5.1,-999,0,-999,1,2.3,13.,13.7,178.,99.,-999,-999,64.7,-999,-999,-999,-999,-999,0,-999,-999,20.24,20.87,14.97,-999,24.04,15.82,23.54,"nu",65,0.5,30.,-999,0.,38.5,-999,6.5,-999.,2.12,-999,6.5,-0.23,0.32,-999,-999,-999,23.54,"A",-999,"B","C","C",-999,"C",505.23,-999,"3b_4b_4c",0.37,"C",-999,-999,-999,46.382,12.982,-999,-999,-999,-999,-999,-999,-999,-999,-999,-999,-999,-999,-999,-999,-999,-999,-999,-999,-999,-999,-999,-999,"FRIULI.A\A-TMZ000.AT2","FRIULI.A\A-TMZ270.AT2","FRIULI.A\A-TMZ-UP.AT2",0,270,"A",-999,"PEA","A",1,2.5,0.11,0.13,30.,30.,1.25,0.138,0.163,0.163,0.32489,24.783,5.0207,0.32575,0.32835,0.32814,0.33212,0.33158,0.33974,0.34572,0.35905,0.35739,0.35978,0.35988,0.37967,0.38499,0.38707,0.38459,0.37814,0.36789,0.39067,0.38159,0.37982,0.37577,0.42752,0.46498,0.48109,0.46593,0.49769,0.49432,0.50889,0.53523,0.66135,0.71305,0.77723,0.74744,0.8116,0.72134,0.65719,0.63389,0.6343,0.72869,0.80878,0.92081,1.0308,0.99382,0.79092,0.73193,0.77508,0.83113,0.84437,0.85138,0.81534,0.77911,0.73938,0.70995,0.71304,0.71619,0.79571,0.90887,0.75544,0.8845,0.80883,0.75856,0.70006,0.5726,0.44112,0.36523,0.32112,0.2885,0.28822,0.23846,0.20559,0.15785,0.12996,0.12151,0.10177,0.092462,0.083497,0.070543,0.060911,0.051222,0.045151,0.042128,0.038991,0.035159,0.03174,0.028822,0.02623,0.025047,0.023935,0.022035,0.020108,0.019418,0.018335,0.01681,0.015104,0.013436,0.010497,0.0087262,0.0073232,0.0061652,0.0052157,0.0044084,0.0037761,0.0033055,0.0029088,0.002573,0.0020479,0.0016664,0.0013831,0.0011688,0.0010025,0.00053347,251.8,"C1",0,"C1",0,"C1",0,"C1",0,"C1",0,"C1",0,24.019221,0.821,0.0676,-0.2315,5,50,-999,-999,-999,-999,0,-999,"?",0,-999,17.519221
1385,137,"Chi-Chi, Taiwan",1999,920,-999,"KAU064",879,-999,7.62,"Mw",0.081,0.079,9,0.1,3.02e27,20,33,55,3,18.8,300.4,64.4,164.9,23.85,120.82,8,1,1,-999,1,0,88.,34.6,3048.8,238.4,3.3,72.2,34.9,2.8,0.8,39,1,0.,0,-999,-999,132.55,132.79,100.04,-999,143.97,100.51,19.38,"nu",169,0.38,20.9,-999,0.15,1.8,-999,35.04,-999.,2.99,-999,35.29,-0.35,-0.46,-999,-999,-999,-14.47,"I","H","E","A","E",-999,"D",244.84,198.,0,0.1,"D",-999,-999,"CWB",22.7852,120.2385,-999,-999,-999,-999,-999,-999,-999,-999,-999,-999,-999,-999,-999,-999,-999,-999,-999,-999,-999,-999,-999,-999,"CHICHI\KAU064-E.AT2","CHICHI\KAU064-N.AT2","CHICHI\KAU064-V.AT2",90,0,"D","A900A","PEA","A",1,2.5,0.03,0.03,20.,20.,1.25,0.038,0.038,0.038,0.037482,8.1937,9.2484,0.037514,0.037591,0.037627,0.037684,0.037754,0.037764,0.037796,0.037866,0.037897,0.037985,0.038014,0.038065,0.038098,0.038142,0.038197,0.038325,0.038631,0.038691,0.038873,0.039151,0.039659,0.039397,0.040533,0.0412,0.041931,0.042521,0.042833,0.044189,0.051705,0.055083,0.055132,0.056277,0.057135,0.054072,0.051257,0.053348,0.057044,0.059232,0.072266,0.075971,0.079871,0.081068,0.072433,0.072449,0.072145,0.069534,0.069112,0.072583,0.080874,0.08036,0.071424,0.0683,0.069029,0.066402,0.066517,0.063374,0.060718,0.079375,0.074959,0.084111,0.081177,0.073178,0.065436,0.069552,0.082806,0.098255,0.099096,0.10781,0.095674,0.077571,0.080091,0.07454,0.0906,0.10348,0.079896,0.073855,0.067621,0.061376,0.05573,0.039401,0.042347,0.03987,0.02958,0.026228,0.025364,0.024426,0.02528,0.023434,0.021562,0.020433,0.018267,0.020649,0.021323,0.021759,0.022679,0.02126,0.016857,0.017055,0.01738,0.018447,0.018872,0.016124,0.012166,0.0094285,0.0074165,0.0064188,0.0060866,0.0051262,0.0042035,0.0038554,0.0017383,21.64,"C1",0,"C1",0,"C1",0,"C1",0,"C1",0,"C1",0,-87.125563,2.06,0.2519,-0.2803,5,50,-999,-999,-999,-999,0,-999,"D",0,-999,-131.125563
4091,179,"Parkfield-02, CA",2004,928,1715,"Moss Landing - HWY 1 & Dolan RD",1781,47216,6.,"Mw",-999,-999,-999,-999,1.12e25,141,89,-175,0,4.24,6.06,2.82,275.85,35.817,-120.365,8.1,0,0,-999,1,2.5,40.,8.,320.,-999,-999,-999,-999,-999,-999,51,1,2.,0,"San Andreas",-999,167.9,168.1,138.4,-999,156.99,138.45,28.02,"na",168.32,0.75,9.6,0.74,0.7,74.8,0.18,30.,-999.,3.59,-999,30.52,0.9252,0.1426,-999,-999,-999,28.020057,-999,-999,"C",-999,-999,-999,"D",311.68,-999,"3a_4b_4c",0.36,-999,-999,-999,"CDMG",36.807,-121.778,-999,-999,-999,-999,-999,-999,-999,-999,601,1399,1999,601,1399,1999,-999,-999,-999,-999,-999,-999,-999,-999,"PARK2004\47216-14.AT2","PARK2004\47216104.AT2","PARK2004\47216-UP.AT2",14,104,-999,-999,"PEA","A",1,2.5,0.06,0.07,20.,20.,1.25,0.075,0.088,0.088,0.010656,1.9553,0.78279,0.010657,0.010675,0.010681,0.010691,0.010705,0.010715,0.01073,0.010764,0.010778,0.010833,0.010835,0.010871,0.010892,0.01093,0.011012,0.011068,0.011144,0.011224,0.011157,0.011164,0.011086,0.011153,0.011337,0.012268,0.014137,0.01538,0.015766,0.014044,0.015257,0.015012,0.014786,0.015082,0.017952,0.018103,0.019841,0.018725,0.01948,0.022847,0.03289,0.026602,0.025933,0.02597,0.028565,0.029289,0.026208,0.027489,0.025463,0.024963,0.022727,0.024737,0.027796,0.029049,0.027168,0.027471,0.029421,0.03082,0.030749,0.031403,0.033901,0.028619,0.027887,0.02897,0.031699,0.029784,0.028762,0.028835,0.026604,0.026256,0.02425,0.019879,0.023215,0.022778,0.016562,0.01608,0.017351,0.017135,0.016976,0.016588,0.012739,0.011943,0.011263,0.0091776,0.0072717,0.0079196,0.0083596,0.00867,0.0090112,0.0092435,0.010477,0.010399,0.0093419,0.0084898,0.0068876,0.0053693,0.0040834,0.0025926,0.0019954,0.0014964,0.0011487,0.0010621,0.00098107,0.00092786,0.0008223,0.0006959,0.00054829,0.00040217,0.0003624,0.00027678,0.00021687,0.0001869,0.000093538,141.,"C1",0,"C1",0,"C1",0,"C1",0,"C1",0,"C1",0,-135.56406,3.18,0.512,0.2519,5,50,-999,-999,-999,-999,0,-999,-999,0,-999,-155.56406
20427,1137,30226452,2003,1019,1532,"Union City; Fire Station 2 Alvarado Blvd; 1-story; ground level",100380,1802,3.5,"Mw",-999,-999,-999,-999,1995262314968880000000,332,86,-152,0,22.36,199.54,16.37,102.6,37.9128,-122.1427,2.386,-999,-999,-999,0,1.8423,0.8,0.7,0.5,-999,-999,-999,-999,-999,-999,-999,-999,-999,-999,-999,-999,36.03,36.11,35.75,35.79,-999,35.79,-11.35,-999,-999,-999,-999,-999,-999,-999,-999,-999,-999,-999,-999,-999,-999,-999,-999,-999,-999,-999,"A,B",-999,-999,-999,-999,-999,"D",256.15,-999,"2a_4b",0.34,-999,-999,-999,-999,37.5927,-122.0745,-999,-999,-999.,-999,-999,-999,-999,-999,220,271,842,220,271,842,-999,-999,-999,-999,-999,-999,-999,-999,"51132363/1802HNN.AT2","51132363/1802HNE.AT2","51132363/1802HNZ.AT2",0,90,"D",-999,"PEA","A",1,2.5,0.292,0.256,32.54,25.113,1.25,0.364,0.32,0.364,0.00091511,0.033638,0.0032382,0.00092948,0.00092003,0.00092219,0.00092483,0.000932,0.00093481,0.00093982,0.00094153,0.00094377,0.00095734,0.0009682,0.00097136,0.00097088,0.00097205,0.00098004,0.0009862,0.00099395,0.001005,0.001017,0.001049,0.0010773,0.0011046,0.0011478,0.0011501,0.0012351,0.0013202,0.0013742,0.0015627,0.0021235,0.0024854,0.0025616,0.0028477,0.0032072,0.0033181,0.0030426,0.0030715,0.0029893,0.0028477,0.0024864,0.0020572,0.0018864,0.0017695,0.0016281,0.0014604,0.0013179,0.0012134,0.0010662,0.00099442,0.00092515,0.00079597,0.00069259,0.00062182,0.0006324,0.00062942,0.00060232,0.00054573,0.00050979,0.00048175,0.00046822,0.0005444,0.00063045,0.00063623,0.00056374,0.00049307,0.00058687,0.00055637,0.00041212,0.00032147,0.0002175,0.0001679,0.00016149,0.00016205,0.00017127,0.00013712,0.00011882,0.000114,0.000097033,0.000086369,0.000080691,0.000053312,0.000044959,0.000040637,0.000034315,0.00002496,0.000019039,0.000016155,0.000014792,0.000013935,0.000012114,0.000010436,9.2686e-6,8.2508e-6,7.1873e-6,6.1809e-6,5.4076e-6,4.3993e-6,3.7795e-6,3.1952e-6,2.7534e-6,2.416e-6,2.1146e-6,1.8507e-6,1.6278e-6,1.4495e-6,1.2972e-6,1.0592e-6,8.9304e-7,7.5969e-7,6.522e-7,5.651e-7,3.1817e-7,-999,"C1",0,"C1",0,"C1",0,"C1",0,"C1",0,"C1",0,-999,-999,-999,-999,5,50,223.9758,0.6971,"a",-999,0,-999,-999,-999,-999,-34.2467814268
8837,1002,14383980,2008,729,1842,"Rio Hondo",100430,"RIO",5.39,"Mw",-999.,-999,-999,-999,1.3646e24,296,66,146,3,4.2,350.,40.5,256.4,33.9465,-117.7667,14.89,-999,-999,-999,0,12.3781,6.3,4.6,29.,-999.,-999.,-999.,-999.,-999.,-999.,-999,-999,-999.,-999,-999,-999.,26.35,30.27,23.94,27.46,-999.,27.46,8.36,-999,-999.,-999.,-999.,-999.,-999.,-999.,-999.,-999,-999,-999,-999,-999,-999,-999,-999,-999,-999,-999,"A,B",-999,"A",-999,-999.,-999,"C",372.,-999,"2a_4b",0.34,-999,-999,-999,-999,34.1047,-117.9796,-999,-999.,-999,-999,-999,-999.,-999.,-999,240,-999,2380,360,-999,2820,-999,-999,-999.,-999.,-999.,-999.,-999.,-999.,"14383980\CIRIOHNN.AT2","14383980\CIRIOHNE.AT2","14383980\CIRIOHNZ.AT2",0,90.,"D","HNN FBA ES-T-4G Q330-S","PEA","A",1.,2.5,0.2,0.23,0,0.,1.25,0.25,0.2875,0.2875,0.041601,3.0828,0.61442,0.042126,0.041912,0.042019,0.042051,0.04289,0.042973,0.042989,0.043867,0.044089,0.042925,0.044033,0.045136,0.045465,0.045699,0.045592,0.046443,0.047571,0.04737,0.047992,0.050833,0.052403,0.053011,0.053444,0.058495,0.058291,0.057672,0.060303,0.077795,0.095718,0.10086,0.10348,0.10923,0.099281,0.081033,0.083184,0.093519,0.099722,0.11025,0.10883,0.096471,0.090328,0.083518,0.071324,0.06757,0.06438,0.057337,0.056038,0.056535,0.059302,0.061471,0.06063,0.061552,0.061624,0.062958,0.064156,0.065402,0.063337,0.061461,0.075896,0.076314,0.072753,0.070358,0.060389,0.059256,0.057051,0.054302,0.050847,0.045872,0.037535,0.037498,0.036631,0.029048,0.025768,0.027035,0.024155,0.022476,0.018816,0.015656,0.011072,0.0079002,0.0070111,0.0069758,0.0066703,0.0059199,0.0049834,0.004151,0.0038519,0.0036046,0.0030578,0.002525,0.002085,0.0018712,0.0016735,0.0014945,0.0013317,0.0010133,0.00080087,0.00065602,0.00055216,0.00047379,0.00041236,0.00036277,0.00032187,0.00028751,0.00025854,0.00021222,0.0001774,0.00015048,0.00012929,0.00011228,0.000062586,-999,"C1",0,"C1",0,"C1",0,"C1",0,"C1",0,"C1",0,-999,-999,-999,-999,5,50,200,0.707,"a",0,0,-999,-999,-999,-999,25.2183002328
16137,1131,9986489,2004,225,2223,"Victorville",100205,"VTV",3.58,"ML",-999.,-999,-999,-999,2.6303e21,336,45,-179,0,30.6,190.8,29.4,300.3,33.827,-117.0296,15.131,-999,-999,-999,0,14.8175,0.8,0.7,0.6,-999.,-999.,-999.,-999.,-999.,-999.,-999,-999,-999.,-999,-999,-999.,85.95,87.28,85.72,87.04,-999.,87.04,8.42,-999,-999.,-999.,-999.,-999.,-999.,-999.,-999.,-999,-999,-999,-999,-999,-999,-999,-999,-999,-999,-999,"A,B",-999,"A",-999,-999.,-999,"C",374.5,-999,"2a_4b",0.34,-999,-999,-999,-999,34.5607,-117.3296,-999,-999.,-999,-999,-999,-999.,-999.,-999,60,-999,200,-999,-999,-999,-999,-999,-999.,-999.,-999.,-999.,-999.,-999.,"9986489\CIVTVHHN.AT2","9986489\CIVTVHHE.AT2","9986489\CIVTVHHZ.AT2",0,90.,"D","HHN CMG-3T Q4120","PEA","A",1.,2.5,0.62,0.38,0,0.,1.25,0.775,0.475,0.775,0.0011719,0.031306,0.0010585,0.0012302,0.0012395,0.0012198,0.0012298,0.0012467,0.0012485,0.0012792,0.0013669,0.0013865,0.0015504,0.0015507,0.0015662,0.0015745,0.0015752,0.0015779,0.0016125,0.0019243,0.0021398,0.0024707,0.0024758,0.0024583,0.0023365,0.0022249,0.0021163,0.0021991,0.002122,0.0019656,0.0022564,0.0030101,0.0038359,0.0040055,0.0043755,0.0042541,0.0039672,0.0038471,0.0041615,0.0039414,0.0036096,0.0028826,0.0021184,0.0018293,0.0015638,0.0012497,0.0011223,0.00098982,0.00084836,0.00072672,0.00065529,0.00061085,0.00052268,0.00055987,0.00058864,0.00056572,0.00051466,0.00046807,0.00039997,0.00033282,0.00023101,0.00020172,0.00017315,0.00016455,0.00014803,0.00012426,0.00010416,0.000088438,0.000075931,0.000065006,0.000055313,0.000042648,0.000034347,0.000028197,0.000023781,0.000020386,0.00001761,0.000015398,0.000013563,0.000011999,0.000010716,8.6104e-6,7.3228e-6,6.8225e-6,6.3311e-6,5.5055e-6,4.8174e-6,4.2527e-6,3.7624e-6,3.5428e-6,3.347e-6,3.0089e-6,2.7216e-6,2.4692e-6,2.2496e-6,2.0583e-6,1.8873e-6,1.7353e-6,1.4321e-6,1.2025e-6,1.0245e-6,8.8344e-7,7.6946e-7,6.761e-7,5.9875e-7,5.3397e-7,4.7917e-7,4.324e-7,3.5728e-7,3.0016e-7,2.5573e-7,2.2048e-7,1.9205e-7,1.08e-7,-999,"C1",0,"C1",0,"C1",0,"C1",0,"C1",0,"C1f - 1027",33.38,-999,-999,-999,-999,5,50,0.0083279,0.707,"v",0,0,-999,-999,-999,-999,85.5886962433
6264,176,"Tottori, Japan",2000,1006,430,"KOC017",3251,"KOC017",6.61,"Mw",-999,-999,-999,-999,9.2257e25,330,90,0,0,0.,285.,0.,195.,35.275,133.35,12.5,0,0,-999,1,0.5,38.,20.,760.,-999,-999,-999,-999,-999,-999,-999,-999,-999,-999,-999,-999,169.91,170.37,152.25,-999,169.45,152.25,-59.21,"na",-157,0.5,20.4,0.47,0.6,78.1,0.12,19.,-999.,2.25,-999,22.47,-0.72,0.22,-999,-999,-999,-59.211527,-999,-999,"A",-999,-999,-999,"C",586.87,-999,1,0.27,-999,-999,-999,"KNET",33.7691,133.6565,-999,-999,-999,-999,-999,-999,-999,-999,20,-999,40,20,-999,40,-999,-999,-999,-999,-999,-999,-999,-999,"TOTTORI.1\KOC017NS.AT2","TOTTORI.1\KOC017EW.AT2","TOTTORI.1\KOC017UD.AT2",0,90,-999,-999,"PEA","A",1,2.5,0.03,0.03,30.,30.,1.25,0.038,0.038,0.038,0.016214,3.1085,1.6182,0.016389,0.016313,0.016334,0.016371,0.016423,0.016434,0.016498,0.016579,0.016637,0.016839,0.016968,0.017001,0.016952,0.016834,0.01666,0.01722,0.01759,0.017412,0.017087,0.016802,0.017796,0.018595,0.018797,0.019926,0.020555,0.020932,0.020764,0.022106,0.026813,0.028104,0.027596,0.027959,0.026478,0.023587,0.023549,0.023599,0.024619,0.027282,0.028014,0.024704,0.023676,0.022011,0.023613,0.025166,0.026196,0.025854,0.026901,0.02679,0.026528,0.02845,0.027148,0.028812,0.028706,0.02847,0.028804,0.028885,0.028091,0.034286,0.034834,0.035942,0.034848,0.034205,0.032701,0.042384,0.041544,0.037278,0.036492,0.037673,0.035691,0.040407,0.038489,0.027192,0.018917,0.015516,0.012999,0.011443,0.011271,0.01222,0.013515,0.012269,0.010682,0.0089413,0.0060423,0.0048985,0.0041845,0.0035207,0.0038183,0.0040044,0.0042331,0.0045131,0.0042197,0.0034557,0.0032372,0.003335,0.0034431,0.0032445,0.0025494,0.0022913,0.0020996,0.0019426,0.00177,0.0015729,0.0014058,0.0012702,0.0011232,0.00091851,0.00079258,0.00064143,0.00055766,0.00047196,0.00024334,330.,"C1",0,"C1",0,"C1",0,"C1",0,"C1",0,"C1",0,-140.25909,1.96,0.4189,-0.0052,5,50,-999,-999,-999,-999,0,-999,"D",0,-999,-159.25909
