"Record Sequence Number","EQID","Earthquake Name","YEAR","MODY","HRMN","Station Name","Station Sequence Number","Station ID  No.","Earthquake Magnitude","Magnitude Type","Magnitude Uncertainty: Kagan Model","Magnitude Uncertainty: Statistical","Magnitude Sample Size","Magnitude Uncertainty: Study Class","Mo (dyne.cm)","Strike (deg)","Dip (deg)","Rake Angle (deg)","Mechanism Based on Rake Angle","P-plunge (deg)","P-trend (deg)","T-plunge (deg)","T-trend (deg)","Hypocenter Latitude (deg)","Hypocenter Longitude (deg)","Hypocenter Depth (km)","Coseismic Surface Rupture: 1=Yes; 0=No;    -999=Unknown","Coseismic Surface Rupture (Including Inferred)","Basis for Inference of Surface Rupture","Finite Rupture Model: 1=Yes;  0=No","Depth to Top Of Fault Rupture Model","Fault Rupture Length for Calculation of Ry (km)","Fault Rupture Width (km)","Fault Rupture Area (km^2)","Avg Fault Disp (cm)","Rise Time (s)","Avg Slip Velocity (cm/s)","Static Stress Drop (bars)","Preferred Rupture Velocity (km/s)","Average Vr/Vs","Percent of Moment Release in the Top 5 Km of Crust","Existence of Shallow Asperity: 0=No; 1=Yes","Depth to Top of Shallowest Asperity (km)","Earthquake in Extensional Regime: 1=Yes; 0=No","Fault Name","Slip Rate (mm/Yr)","EpiD (km)","HypD (km)","Joyner-Boore Dist. (km)","Campbell R Dist. (km)","RmsD (km)","ClstD (km)","Rx","FW/HW Indicator","Source to Site Azimuth (deg)","X","Theta.D (deg)","SSGA (Strike Slip)","Y","Phi.D (deg)","SSGA (Dip Slip)","s","d","ctildepr","Unused Column","D","Rfn.Hyp","Rfp.Hyp","Unused Column","Unused Column","Unused Column","T","GMX's C1","GMX's C2","GMX's C3","Campbell's GEOCODE","Bray and Rodriguez-Marek SGS","Depth","Preferred NEHRP Based on Vs30","Vs30 (m/s) selected for analysis","Column Not Used","Measured/Inferred Class","Sigma of Vs30 (in natural log Units)","NEHRP Classification from CGS's Site Condition Map","Geological Unit","Geology","Owner","Station Latitude","Station Longitude","STORIES","INSTLOC","Depth to Basement Rock","Site Visited","NGA Type","Age","Grain Size","Depositional History","Northern CA/Southern CA - H11 Z1 (m)","Northern CA/Southern CA - H11 Z1.5 (m)","Northern CA/Southern CA - H11 Z2.5 (m)","Northern CA/Southern CA - S4 Z1 (m)","Northern CA/Southern CA - S4 Z1.5 (m)","Northern CA/Southern CA - S4 Z2.5 (m)","Depth to Franciscan Rock (km)","Basin","h (m)","hnorm (m)","Rsbe (m)","Rcebe (m)","Rebe (m)","Rsbe1 (m)","File Name (Horizontal 1)","File Name (Horizontal 2)","File Name (Vertical)","H1 azimth (degrees)","H2 azimith (degrees)","Type of Recording","Instrument Model","PEA Processing Flag","Type of Filter","npass","nroll","HP-H1 (Hz)","HP-H2 (Hz)","LP-H1 (Hz)","LP-H2 (Hz)","Factor","Lowest Usable Freq - H1 (Hz)","Lowest Usable Freq - H2 (H2)","Lowest Usable Freq - Ave. Component (Hz)","PGA (g)","PGV (cm/sec)","PGD (cm)","T0.010S","T0.020S","T0.022S","T0.025S","T0.029S","T0.030S","T0.032S","T0.035S","T0.036S","T0.040S","T0.042S","T0.044S","T0.045S","T0.046S","T0.048S","T0.050S","T0.055S","T0.060S","T0.065S","T0.067S","T0.070S","T0.075S","T0.080S","T0.085S","T0.090S","T0.095S","T0.100S","T0.110S","T0.120S","T0.130S","T0.133S","T0.140S","T0.150S","T0.160S","T0.170S","T0.180S","T0.190S","T0.200S","T0.220S","T0.240S","T0.250S","T0.260S","T0.280S","T0.290S","T0.300S","T0.320S","T0.340S","T0.350S","T0.360S","T0.380S","T0.400S","T0.420S","T0.440S","T0.450S","T0.460S","T0.480S","T0.500S","T0.550S","T0.600S","T0.650S","T0.667S","T0.700S","T0.750S","T0.800S","T0.850S","T0.900S","T0.950S","T1.000S","T1.100S","T1.200S","T1.300S","T1.400S","T1.500S","T1.600S","T1.700S","T1.800S","T1.900S","T2.000S","T2.200S","T2.400S","T2.500S","T2.600S","T2.800S","T3.000S","T3.200S","T3.400S","T3.500S","T3.600S","T3.800S","T4.000S","T4.200S","T4.400S","T4.600S","T4.800S","T5.000S","T5.500S","T6.000S","T6.500S","T7.000S","T7.500S","T8.000S","T8.500S","T9.000S","T9.500S","T10.000S","T11.000S","T12.000S","T13.000S","T14.000S","T15.000S","T20.000S","Ave Strike (deg)","TYPE(CRjb = 0)","CRjb","TYPE (CRjb = 2)","CRjb","TYPE (CRjb = 5)","CRjb","TYPE (CRjb = 10)","CRjb","TYPE (CRjb = 20)","CRjb","TYPE (CRjb = 40)","CRjb","U","IDPv4","XCI","XCI1","Damping (%)","RotD percentile","Instrument Nat. Freq.","Instrument Damping","Instrument Type","Quality_Flag","Spectra Quality Flag","Late S-trigger","Late P-trigger","Idirectivity","Tp","Ry 2"
13780,1074,10295849,2007,1219,1214,"Granite Mountains Research Center",100287,"GMR",4.06,"ML",-999.,-999,-999,-999,1.3804e22,117,80,165,0,3.3,163.8,17.6,72.8,34.1614,-116.9872,11.361,-999,-999,-999,0,10.6914,1.6,1.5,2.4,-999.,-999.,-999.,-999.,-999.,-999.,-999,-999,-999.,-999,-999,-999.,140.17,140.63,139.63,140.04,-999.,140.04,-117.46,-999,-999.,-999.,-999.,-999.,-999.,-999.,-999.,-999,-999,-999,-999,-999,-999,-999,-999,-999,-999,-999,"A,B",-999,-999,-999,-999.,-999,"B",943.,-999,0,0.1,-999,-999,-999,-999,34.7846,-115.6599,-999,-999.,-999,-999,-999,-999.,-999.,-999,4,-999,220,4,-999,-999,-999,-999,-999.,-999.,-999.,-999.,-999.,-999.,"10295849\CIGMRHLN.AT2","10295849\CIGMRHLE.AT2","10295849\CIGMRHLZ.AT2",0,90.,"D","HLN FBA ES-T-4G Q330","PEA","A",1.,2.5,0.54,0.4,0,0.,1.25,0.675,0.5,0.675,0.00027057,0.0055697,0.00023351,0.00027598,0.00028591,0.00028802,0.00029457,0.00030403,0.00031035,0.00032246,0.00035223,0.00036114,0.0004035,0.00043555,0.00050257,0.00053867,0.00056319,0.0005834,0.00060288,0.00069141,0.00081052,0.00072214,0.00070198,0.00076109,0.00081724,0.00095412,0.0010089,0.0012047,0.0012095,0.0011741,0.0009484,0.0007625,0.00060518,0.00057658,0.00057236,0.0006006,0.00058293,0.00048534,0.00040424,0.00042242,0.0003972,0.00032714,0.00033963,0.000379,0.0003993,0.00040787,0.00036372,0.00028306,0.00021612,0.00021,0.0001938,0.00017011,0.00014264,0.00011262,0.000092108,0.000080531,0.000073131,0.000069061,0.000062979,0.000057682,0.000051292,0.000037848,0.000030049,0.000027361,0.000024355,0.000020999,0.000018259,0.000016945,0.000017034,0.000018037,0.000017461,0.00001797,0.000012889,0.00001135,9.5949e-6,8.8373e-6,7.7825e-6,7.2127e-6,7.155e-6,6.351e-6,5.4886e-6,3.8337e-6,3.0788e-6,2.665e-6,2.322e-6,1.7152e-6,1.4167e-6,1.2058e-6,1.0361e-6,9.6265e-7,8.9731e-7,7.8799e-7,7.105e-7,6.4348e-7,5.7695e-7,5.1821e-7,4.6808e-7,4.2204e-7,3.3005e-7,2.745e-7,2.3126e-7,1.9586e-7,1.6941e-7,1.491e-7,1.3248e-7,1.1818e-7,1.0585e-7,9.5277e-8,7.8474e-8,6.5885e-8,5.6122e-8,4.8365e-8,4.2107e-8,2.3644e-8,-999,"C1",0,"C1",0,"C1",0,"C1",0,"C1",0,"C1",0,-999,-999,-999,-999,5,50,0,0,"a",0,0,-999,-999,-999,-999,75.9208703087
16432,1138,51203888,2008,606,902,"Livermore; Fire Station 6",100009,1786,3.5,"Mw",-999.,-999,-999,-999,1.9953e21,339,84,-162,0,16.9,204.3,8.2,111.8,37.8179,-122.0633,5.084,-999,-999,-999,0,4.5701,0.7,0.7,0.5,-999.,-999.,-999.,-999.,-999.,-999.,-999,-999,-999.,-999,-999,-999.,32.42,32.82,32.05,32.42,-999.,32.42,21.24,-999,-999.,-999.,-999.,-999.,-999.,-999.,-999.,-999,-999,-999,-999,-999,-999,-999,-999,-999,-999,-999,"A,B",-999,"A",-999,-999.,-999,"D",282.8,-999,"2a_4b",0.34,-999,-999,-999,-999,37.68,-121.739,-999,-999.,-999,-999,-999,-999.,-999.,-999,597,1422,3469,596.6,1421.5,3469.1,-999,-999,-999.,-999.,-999.,-999.,-999.,-999.,"51203888\N1786HNN.AT2","51203888\N1786HNE.AT2","51203888\N1786HNZ.AT2",0,90.,"D","HNN -999 K2","PEA","A",1.,2.5,0.2,0.24,17,18.,1.25,0.25,0.3,0.3,0.00037464,0.034081,0.0055396,0.00038075,0.00037516,0.00037569,0.00037675,0.00037857,0.00037916,0.00038015,0.00038164,0.00038253,0.00038415,0.00038502,0.00038619,0.00038756,0.00038905,0.00039156,0.00039466,0.0004035,0.00040884,0.00041356,0.00041373,0.00041739,0.00043318,0.00045672,0.00048065,0.00050014,0.00056092,0.00060208,0.00070329,0.0006674,0.00073877,0.00076654,0.00085689,0.00088732,0.0010432,0.0010976,0.0011508,0.0012113,0.0012683,0.0015117,0.0018188,0.0019159,0.0016503,0.00132,0.0012339,0.0012048,0.0011803,0.0012165,0.0012579,0.0012478,0.0011576,0.00095322,0.00083879,0.00090861,0.00095234,0.00096877,0.00098488,0.00090407,0.0008934,0.00077569,0.00077803,0.00075517,0.0007121,0.00065231,0.00070605,0.00058709,0.00047399,0.00051047,0.00051027,0.00034668,0.00026244,0.00022732,0.00021708,0.0002157,0.00019406,0.00017654,0.00019006,0.00020218,0.00020611,0.00016685,0.00011206,0.000099386,0.000090336,0.000076869,0.000066296,0.000056798,0.000047824,0.000043226,0.000039166,0.000034467,0.000034012,0.000033435,0.000030567,0.000025589,0.000021453,0.000018057,0.000012436,8.7858e-6,6.8604e-6,5.4859e-6,4.5288e-6,3.695e-6,3.2352e-6,2.8758e-6,2.5744e-6,2.3184e-6,1.9055e-6,1.5906e-6,1.3531e-6,1.166e-6,1.0134e-6,5.6395e-7,-999,"C1",0,"C1",0,"C1",0,"C1",0,"C1",0,"C1",0,-999,-999,-999,-999,5,50,223.9759,0.69709,"a",0,0,-999,-999,-999,-999,-24.353973513
19624,1096,21339029,2004,131,211,"Farallon Islands, CA, USA",100056,"FARB",3.58,"Mw",-999,-999,-999,-999,2630267991895390000000,318,84,-144,4,29.16,187.07,19.84,85.46,37.1033,-121.5645,6.483,-999,-999,-999,0,5.7505,0.8,0.8,0.6,-999,-999,-999,-999,-999,-999,-999,-999,-999,-999,-999,-999,143.29,143.44,142.85,142.96,-999,142.96,-47.62,-999,-999,-999,-999,-999,-999,-999,-999,-999,-999,-999,-999,-999,-999,-999,-999,-999,-999,-999,"F",-999,-999,-999,-999,-999,"C",507.06,-999,"2a_4b",0.34,-999,-999,-999,-999,37.6978,-123.0011,-999,-999,-999,-999,-999,-999,-999,-999,198,322,696,198,322,696,-999,-999,-999,-999,-999,-999,-999,-999,"40152518/FARBHHN.AT2","40152518/FARBHHE.AT2","40152518/FARBHHZ.AT2",0,90,"D",-999,"PEA","A",1,2.5,0.04,0.03,50.,48.,1.25,0.05,0.038,0.05,0.000045523,0.0016518,0.001438,0.000046607,0.000047262,0.000048108,0.000049909,0.000052981,0.000053084,0.000057599,0.000054572,0.000050415,0.000051751,0.000051318,0.000050423,0.000050393,0.000051318,0.000054093,0.000059272,0.00005985,0.000067627,0.000072291,0.000077538,0.000079529,0.000093188,0.000095464,0.000098126,0.00010587,0.00010539,0.00010794,0.00013112,0.00013316,0.00015296,0.00014329,0.00013401,0.00014219,0.00013067,0.00013976,0.00015301,0.00011123,0.00010228,0.00010046,0.000095739,0.00009026,0.000076757,0.000078192,0.000076068,0.000074035,0.000073669,0.000073223,0.000069964,0.000068711,0.000068326,0.000059406,0.00005539,0.000052889,0.000052537,0.000049509,0.000053441,0.000057503,0.00005658,0.000052187,0.000042987,0.000042243,0.000040637,0.000034546,0.000029484,0.00002617,0.000023913,0.000020986,0.000016241,0.000012062,8.5993e-6,6.7579e-6,5.2547e-6,4.2066e-6,3.5394e-6,3.0379e-6,3.2607e-6,3.0768e-6,2.8431e-6,2.2503e-6,1.7008e-6,1.7672e-6,1.6578e-6,1.6069e-6,1.7655e-6,1.7794e-6,1.723e-6,1.6575e-6,1.5462e-6,1.1803e-6,1.065e-6,9.1968e-7,7.4908e-7,6.8001e-7,6.8785e-7,7.3407e-7,7.815e-7,8.0774e-7,8.0417e-7,6.8266e-7,7.1812e-7,5.7242e-7,4.2753e-7,2.7972e-7,2.1547e-7,1.9541e-7,1.5978e-7,1.1519e-7,1.0733e-7,8.5719e-8,8.2163e-8,3.9534e-8,-999,"C1",0,"C1",0,"C1",0,"C1",0,"C1",0,"C1",0,-999,-999,-999,-999,5,50,0.01,0.7071,"v",-999,0,-999,-999,-999,-999,134.7470269222
11468,1028,10275733,2007,902,1729,"Santa Clara",100132,"STC",4.73,"ML",-999.,-999,-999,-999,1.3964e23,310,68,170,0,8.7,175.2,22.3,268.8,33.7328,-117.4921,10.018,-999,-999,-999,0,8.5752,2.8,2.3,6.5,-999.,-999.,-999.,-999.,-999.,-999.,-999,-999,-999.,-999,-999,-999.,168.83,169.13,167.48,167.7,-999.,167.7,-49.95,-999,-999.,-999.,-999.,-999.,-999.,-999.,-999.,-999,-999,-999,-999,-999,-999,-999,-999,-999,-999,-999,"A,B",-999,"A",-999,-999.,-999,"C",489.6,-999,"2a_4b",0.34,-999,-999,-999,-999,34.303,-119.1868,-999,-999.,-999,-999,-999,-999.,-999.,-999,940,-999,4540,660,-999,6340,-999,-999,-999.,-999.,-999.,-999.,-999.,-999.,"10275733\CISTCHNN.AT2","10275733\CISTCHNE.AT2","10275733\CISTCHNZ.AT2",0,90.,"D","HNN FBA ES-T-4G Q330-S","PEA","A",1.,2.5,0.06,0.15,0,0.,1.25,0.075,0.1875,0.1875,0.00065723,0.03464,0.0047547,0.00066564,0.00066561,0.0006678,0.00068053,0.00066701,0.0006676,0.00066727,0.00067642,0.00068052,0.00067672,0.00067581,0.00067891,0.00068377,0.00068891,0.00068868,0.00068355,0.00070027,0.00073142,0.00075771,0.00076682,0.000792,0.00079302,0.00086205,0.00088853,0.00099727,0.0011342,0.0011784,0.0011072,0.0012236,0.0012723,0.0012869,0.0014622,0.0014744,0.0015336,0.0017252,0.0018799,0.0020523,0.0021752,0.0023027,0.002753,0.0030526,0.0031914,0.0028466,0.0025124,0.0021793,0.0018526,0.0016144,0.0015519,0.0014388,0.0012208,0.0012541,0.0011982,0.0013029,0.0013916,0.0014232,0.0013807,0.0012709,0.0010718,0.00080468,0.00069483,0.0006749,0.00062117,0.00051914,0.00044751,0.00042755,0.00039352,0.00032185,0.00031208,0.00025601,0.00029911,0.00027625,0.0002593,0.00022893,0.00017637,0.00017175,0.00014107,0.00011176,0.000095122,0.000077648,0.000072513,0.00007241,0.000070319,0.00006686,0.000056083,0.000047414,0.000039161,0.000035816,0.000033844,0.000030103,0.000029405,0.000024224,0.000021276,0.000018964,0.000016709,0.000015608,0.000013622,9.662e-6,6.9016e-6,6.7959e-6,5.9378e-6,4.8137e-6,3.6672e-6,3.4548e-6,3.232e-6,3.0838e-6,2.2886e-6,2.0626e-6,1.6212e-6,1.365e-6,1.205e-6,5.3687e-7,-999,"C1",0,"C1",0,"C1",0,"C1",0,"C1",0,"C1",0,-999,-999,-999,-999,5,50,200,0.707,"a",0,0,-999,-999,-999,-999,160.7377773187
4985,278,"Chuetsu-oki",2007,716,1013,"FKS016",2428,"FKS016",6.8,"Mw",-999,-999,-999,-999,1.7783e26,34,36,90,2,9,304,81,124,37.5382,138.6174,9,1,1,-999,1,3.12,32.,24.,768.2,-999,-999,-999,-999,-999,-999,-999,-999,-999,-999,-999,-999,146.75,147.03,134.22,-999,148.64,135.32,149.07,"nu",77,0.19,73.9,-999,0.58,39.7,-999,6.,-999.,2.07,-999,15.24,0,0,-999,-999,-999,149,-999,-999,"CD",-999,-999,-999,"D",279.58,-999,1,0.11,-999,-999,-999,"KNET",37.1228,140.1914,-999,-999,-999,-999,-999,-999,-999,-999,60,-999,80,60,-999,80,-999,-999,-999,-999,-999,-999,-999,-999,"CHUETSU\FKS016NS.AT2","CHUETSU\FKS016EW.AT2","CHUETSU\FKS016UD.AT2",0,90,"D","K-NET95","PEA","A",1,2.5,0.03,0.03,30.,30.,1.25,0.038,0.038,0.038,0.013229,1.3068,0.68158,0.013454,0.013318,0.013342,0.013392,0.013456,0.013476,0.013521,0.013583,0.013635,0.013784,0.013887,0.014013,0.013953,0.013912,0.014124,0.014206,0.014656,0.015157,0.015684,0.015367,0.015498,0.015678,0.016189,0.017936,0.019748,0.021513,0.022764,0.024746,0.031248,0.042203,0.044618,0.044314,0.036779,0.038008,0.048892,0.052429,0.052763,0.053413,0.038298,0.032324,0.029005,0.024416,0.021584,0.020407,0.020135,0.022076,0.018417,0.018083,0.019418,0.020218,0.01941,0.018205,0.017692,0.017002,0.017818,0.019129,0.018645,0.0153,0.015336,0.015486,0.015571,0.015173,0.013406,0.015117,0.019178,0.020309,0.021817,0.019447,0.015651,0.01792,0.021374,0.01844,0.01507,0.01055,0.0082417,0.0074031,0.0085679,0.0090491,0.0078033,0.0059602,0.0050561,0.0039976,0.003349,0.0028287,0.0024597,0.0026391,0.0028139,0.0027571,0.0024543,0.0021323,0.0017878,0.0016665,0.0015441,0.0014683,0.0014359,0.0014398,0.0013678,0.0012794,0.001324,0.0011757,0.001038,0.00096385,0.00081577,0.00074145,0.00065806,0.00051972,0.00038398,0.00030058,0.00024029,0.00019479,0.0001139,34.,"C1",0,"C1",0,"C1",0,"C1",0,"C1",0,"C1",0,66.736313,0.563,0.0069,-0.1641,5,50,-999,-999,-999,-999,0,-999,-999,0,-999,50.736313
2223,171,"Chi-Chi, Taiwan-02",1999,920,1757,"HWA014",744,-999,5.9,"Mw",0.081,-999,-999,0.2,7.9433e24,35,50,100,2,4.5,117.9,81.1,357.6,23.94,121.01,8,-999,0,"M ~ 6",1,6.47,19.,13.,247.,9.,0.2,44.9,5.,1.5,-999,-999,0,8.,0,-999,-999,60.04,60.57,47.84,-999,57.93,50.58,48.19,"nu",61,0.58,51.4,-999,0.85,59.7,-999,11.,-999.,1.65,-999,15.56,-0.48,0.15,-999,-999,-999,48.19,"I","H","D","A","D",-999,"D",277.28,225.2,"3b_4a_4b_4c",0.33,"D",-999,-999,"CWB",23.9732,121.5993,-999,-999,-999,-999,-999,-999,-999,-999,-999,-999,-999,-999,-999,-999,-999,-999,-999,-999,-999,-999,-999,-999,"CHICHI.02\HWA014N.AT2","CHICHI.02\HWA014E.AT2","CHICHI.02\HWA014V.AT2",0,90,"D","A900","PEA","A",1,2.5,0.3,0.3,30.,30.,1.25,0.375,0.375,0.375,0.034303,4.1417,0.80524,0.034313,0.034414,0.034412,0.034407,0.034699,0.034814,0.034814,0.034801,0.034877,0.035228,0.035277,0.035271,0.035276,0.035229,0.03502,0.034949,0.035573,0.036178,0.035972,0.035812,0.03629,0.036741,0.036903,0.038173,0.039449,0.039787,0.042271,0.04289,0.046794,0.04838,0.048975,0.04878,0.054416,0.061686,0.06593,0.065361,0.061624,0.064334,0.076883,0.093271,0.10313,0.10273,0.11177,0.12859,0.13384,0.12201,0.096359,0.087427,0.080671,0.090578,0.092554,0.099309,0.09287,0.084234,0.081859,0.090127,0.085515,0.06007,0.050156,0.055339,0.058707,0.063431,0.064918,0.074023,0.082338,0.076456,0.062025,0.054178,0.062087,0.063532,0.055393,0.05078,0.048316,0.042663,0.034769,0.027795,0.026346,0.025522,0.018421,0.014479,0.014842,0.01552,0.014746,0.012956,0.009719,0.0079518,0.0072103,0.0063778,0.0052595,0.0040774,0.0032403,0.0026305,0.0022303,0.0019458,0.001724,0.0013223,0.0010637,0.00088445,0.00074661,0.00064294,0.00055672,0.0004845,0.00042644,0.00038059,0.00034201,0.00027849,0.00023203,0.00019808,0.00017081,0.0001477,0.000082402,35,"C2 - 0137",0,"C2 - 0137",0,"C2 - 0137",0,"C2 - 0137",0,"C2 - 0137",0,"C2 - 0137",0,45.493367,0.617,0.0374,-0.0359,5,50,-999,-999,-999,-999,0,-999,"D",0,-999,35.993367
386,77,"Coalinga-02",1983,509,249,"Skunk Hollow",175,1605,5.09,"Mw",0.081,0.084,4,0.2,4.8417e23,136,44,106,2,2.1,34.8,78.8,135.3,36.246,-120.299,12,0,0,-999,0,10.55,4.1,4.6,18.9,-999,-999,-999,-999,-999,-999,-999,-999,-999,0,-999,-999,3.29,12.44,0.32,-999,12.44,10.55,-0.29,"fw",-116.26,0.63,33.01,0.53,0.46,37.51,0.36,-999,-999,-999,-999,-999,-999.,-999.,-999,-999,-999,-999,"A","P","A","C","B","S","C",480.32,-999,"2a_3a_4b_4c",0.33,"C","Tsh",-999,"USGS",36.275,-120.306,-999,-999,-999,-999,-999,"Tertiary",-999,"Marine",60,-999,240,-999,-999,-999,-999,-999,-999,-999,-999,-999,-999,-999,"COALINGA\A-SKH270.AT2","COALINGA\A-SKH360.AT2","COALINGA\A-SKH-UP.AT2",270,0,"A",-999,"PEA","A",1,2.5,0.2,0.3,23.,22.,1.25,0.25,0.375,0.375,0.13126,5.6443,0.41116,0.13175,0.13423,0.13534,0.13641,0.13888,0.13992,0.14306,0.14621,0.1465,0.14657,0.15181,0.16074,0.16479,0.16779,0.17688,0.19636,0.18486,0.19952,0.21107,0.21425,0.22088,0.23697,0.23601,0.21938,0.22195,0.23332,0.25043,0.31495,0.31533,0.28351,0.27609,0.26646,0.28464,0.28181,0.29403,0.29747,0.30809,0.32442,0.31605,0.33443,0.31593,0.2899,0.27861,0.26567,0.25052,0.22097,0.19472,0.1891,0.18432,0.17292,0.15834,0.14403,0.13108,0.12483,0.11864,0.10767,0.097274,0.073492,0.059159,0.05251,0.051872,0.050476,0.046951,0.0432,0.037477,0.031033,0.027233,0.022936,0.017421,0.014223,0.012182,0.011319,0.01033,0.0092553,0.0081428,0.0071636,0.0066424,0.0061104,0.0051233,0.0043164,0.0039611,0.0036356,0.0030719,0.002606,0.0022306,0.0019244,0.0017919,0.0016727,0.0014659,0.0012946,0.0011516,0.0010296,0.00092763,0.00083919,0.00076416,0.00061457,0.00050578,0.00042453,0.00036192,0.00031227,0.00027213,0.00023968,0.00021273,0.00019004,0.00017093,0.00014052,0.00011762,0.000099783,0.000085843,0.000074644,0.000041755,135.97,"C2 - 0076",0,"C2 - 0076",0,"C2 - 0076",0,"C2 - 0076",0,"C2 - 0076",0,"C2 - 0076",0,-999,-999,-999,-999,5,50,-999,-999,-999,-999,0,-999,-999,0,-999,-2.2166854377
