"Record Sequence Number","EQID","Earthquake Name","YEAR","MODY","HRMN","Station Name","Station Sequence Number","Station ID  No.","Earthquake Magnitude","Magnitude Type","Magnitude Uncertainty: Kagan Model","Magnitude Uncertainty: Statistical","Magnitude Sample Size","Magnitude Uncertainty: Study Class","Mo (dyne.cm)","Strike (deg)","Dip (deg)","Rake Angle (deg)","Mechanism Based on Rake Angle","P-plunge (deg)","P-trend (deg)","T-plunge (deg)","T-trend (deg)","Hypocenter Latitude (deg)","Hypocenter Longitude (deg)","Hypocenter Depth (km)","Coseismic Surface Rupture: 1=Yes; 0=No;    -999=Unknown","Coseismic Surface Rupture (Including Inferred)","Basis for Inference of Surface Rupture","Finite Rupture Model: 1=Yes;  0=No","Depth to Top Of Fault Rupture Model","Fault Rupture Length for Calculation of Ry (km)","Fault Rupture Width (km)","Fault Rupture Area (km^2)","Avg Fault Disp (cm)","Rise Time (s)","Avg Slip Velocity (cm/s)","Static Stress Drop (bars)","Preferred Rupture Velocity (km/s)","Average Vr/Vs","Percent of Moment Release in the Top 5 Km of Crust","Existence of Shallow Asperity: 0=No; 1=Yes","Depth to Top of Shallowest Asperity (km)","Earthquake in Extensional Regime: 1=Yes; 0=No","Fault Name","Slip Rate (mm/Yr)","EpiD (km)","HypD (km)","Joyner-Boore Dist. (km)","Campbell R Dist. (km)","RmsD (km)","ClstD (km)","Rx","FW/HW Indicator","Source to Site Azimuth (deg)","X","Theta.D (deg)","SSGA (Strike Slip)","Y","Phi.D (deg)","SSGA (Dip Slip)","s","d","ctildepr","Unused Column","D","Rfn.Hyp","Rfp.Hyp","Unused Column","Unused Column","Unused Column","T","GMX's C1","GMX's C2","GMX's C3","Campbell's GEOCODE","Bray and Rodriguez-Marek SGS","Depth","Preferred NEHRP Based on Vs30","Vs30 (m/s) selected for analysis","Column Not Used","Measured/Inferred Class","Sigma of Vs30 (in natural log Units)","NEHRP Classification from CGS's Site Condition Map","Geological Unit","Geology","Owner","Station Latitude","Station Longitude","STORIES","INSTLOC","Depth to Basement Rock","Site Visited","NGA Type","Age","Grain Size","Depositional History","Northern CA/Southern CA - H11 Z1 (m)","Northern CA/Southern CA - H11 Z1.5 (m)","Northern CA/Southern CA - H11 Z2.5 (m)","Northern CA/Southern CA - S4 Z1 (m)","Northern CA/Southern CA - S4 Z1.5 (m)","Northern CA/Southern CA - S4 Z2.5 (m)","Depth to Franciscan Rock (km)","Basin","h (m)","hnorm (m)","Rsbe (m)","Rcebe (m)","Rebe (m)","Rsbe1 (m)","File Name (Horizontal 1)","File Name (Horizontal 2)","File Name (Vertical)","H1 azimth (degrees)","H2 azimith (degrees)","Type of Recording","Instrument Model","PEA Processing Flag","Type of Filter","npass","nroll","HP-H1 (Hz)","HP-H2 (Hz)","LP-H1 (Hz)","LP-H2 (Hz)","Factor","Lowest Usable Freq - H1 (Hz)","Lowest Usable Freq - H2 (H2)","Lowest Usable Freq - Ave. Component (Hz)","PGA (g)","PGV (cm/sec)","PGD (cm)","T0.010S","T0.020S","T0.022S","T0.025S","T0.029S","T0.030S","T0.032S","T0.035S","T0.036S","T0.040S","T0.042S","T0.044S","T0.045S","T0.046S","T0.048S","T0.050S","T0.055S","T0.060S","T0.065S","T0.067S","T0.070S","T0.075S","T0.080S","T0.085S","T0.090S","T0.095S","T0.100S","T0.110S","T0.120S","T0.130S","T0.133S","T0.140S","T0.150S","T0.160S","T0.170S","T0.180S","T0.190S","T0.200S","T0.220S","T0.240S","T0.250S","T0.260S","T0.280S","T0.290S","T0.300S","T0.320S","T0.340S","T0.350S","T0.360S","T0.380S","T0.400S","T0.420S","T0.440S","T0.450S","T0.460S","T0.480S","T0.500S","T0.550S","T0.600S","T0.650S","T0.667S","T0.700S","T0.750S","T0.800S","T0.850S","T0.900S","T0.950S","T1.000S","T1.100S","T1.200S","T1.300S","T1.400S","T1.500S","T1.600S","T1.700S","T1.800S","T1.900S","T2.000S","T2.200S","T2.400S","T2.500S","T2.600S","T2.800S","T3.000S","T3.200S","T3.400S","T3.500S","T3.600S","T3.800S","T4.000S","T4.200S","T4.400S","T4.600S","T4.800S","T5.000S","T5.500S","T6.000S","T6.500S","T7.000S","T7.500S","T8.000S","T8.500S","T9.000S","T9.500S","T10.000S","T11.000S","T12.000S","T13.000S","T14.000S","T15.000S","T20.000S","Ave Strike (deg)","TYPE(CRjb = 0)","CRjb","TYPE (CRjb = 2)","CRjb","TYPE (CRjb = 5)","CRjb","TYPE (CRjb = 10)","CRjb","TYPE (CRjb = 20)","CRjb","TYPE (CRjb = 40)","CRjb","U","IDPv4","XCI","XCI1","Damping (%)","RotD percentile","Instrument Nat. Freq.","Instrument Damping","Instrument Type","Quality_Flag","Spectra Quality Flag","Late S-trigger","Late P-trigger","Idirectivity","Tp","Ry 2"
13677,1070,51203773,2008,604,229,"Estero Americano",100508,"NEA",3.96,"Mw",-999.,-999,-999,-999,9.7724e21,154,84,171,0,2.1,199.7,10.6,109.3,38.2387,-122.1711,5.49,-999,-999,-999,0,4.7253,1.1,2.2,2.5,-999.,-999.,-999.,-999.,-999.,-999.,-999,-999,-999.,-999,-999,-999.,68.01,68.23,67.47,67.82,-999.,67.82,57.06,-999,-999.,-999.,-999.,-999.,-999.,-999.,-999.,-999,-999,-999,-999,-999,-999,-999,-999,-999,-999,-999,"I",-999,"A",-999,-999.,-999,"C",506.3,-999,"2a_4b",0.34,-999,-999,-999,-999,38.3099,-122.943,-999,-999.,-999,-999,-999,-999.,-999.,-999,0,278,850,0,278.3,849.6,-999,-999,-999.,-999.,-999.,-999.,-999.,-999.,"51203773\NCNEAHNN.AT2","51203773\NCNEAHNE.AT2","51203773\NCNEAHNZ.AT2",0,90.,"D","HNN -999 -999","PEA","A",1.,2.5,0.46,0.48,0,49.,1.25,0.575,0.6,0.6,0.0013842,0.039379,0.0022461,0.0014139,0.0013986,0.0014086,0.0014401,0.0014812,0.0015129,0.0015253,0.0014824,0.0014717,0.0014432,0.0014555,0.0015275,0.0015879,0.0016507,0.0017925,0.0018579,0.0019859,0.0020974,0.0022351,0.0023928,0.0026167,0.0029801,0.0034901,0.0039044,0.0046611,0.0054702,0.0061598,0.0055985,0.0045867,0.0045401,0.0045443,0.0040571,0.0040328,0.0046404,0.0044166,0.0039147,0.0030941,0.002757,0.0024648,0.002171,0.001946,0.0017807,0.0016357,0.0016358,0.0015014,0.0012255,0.0011589,0.0011919,0.001127,0.0010412,0.0011692,0.0010805,0.00088613,0.00078834,0.00076623,0.00073794,0.00069848,0.00058783,0.00058112,0.00049884,0.00045595,0.0003815,0.00030161,0.00026683,0.00024312,0.00021183,0.00018137,0.00018055,0.00015751,0.00014772,0.00012799,0.00013229,0.00013143,0.00011545,0.000092124,0.000068056,0.000049305,0.000038589,0.00002775,0.000022278,0.000019374,0.000016752,0.000013752,0.000011968,0.000010344,9.1205e-6,8.5985e-6,8.1008e-6,7.2033e-6,6.4303e-6,5.7526e-6,5.1564e-6,4.6691e-6,4.2561e-6,3.9018e-6,3.1758e-6,2.6367e-6,2.2282e-6,1.9129e-6,1.6584e-6,1.4497e-6,1.2781e-6,1.1376e-6,1.0198e-6,9.194e-7,7.5761e-7,6.3448e-7,5.3907e-7,4.6399e-7,4.0393e-7,2.2733e-7,-999,"C1",0,"C1",0,"C1",0,"C1",0,"C1",0,"C1",0,-999,-999,-999,-999,5,50,223.9759,0.69709,"a",0,0,-999,-999,-999,-999,-36.7068650975
890,125,"Landers",1992,628,1158,"Santa Fe Springs - E.Joslin",570,90077,7.28,"Mw",0.081,0.05,15,0.1,9.3325e26,336,90,180,0,0.,21.,0.,291.,34.2,-116.436,7,1,1,-999,1,0,71.8,15.,1077.,242.5,2.9,83.6,64.5,2.8,0.8,53,1,0.,0,"Landers fault (S. Johnson Valley)",0.6,154.84,154.99,150.1,-999,155.58,150.1,-149.13,"na",-83.49,0.77,78.1,0.16,0.47,87.3,0.02,65.81,-999.,0.85,-999,66.18,0.23,0.77,-999,-999,-999,-150.58,"A","H","D","A","C","D","D",339.06,-999,1,0.25,"D","Qal, deep, LA basin","Holocene medium alluvium","USC",33.944,-118.087,1,"GROUND LEVEL",-999,-999,5,"Holocene","Coarse","Alluvial Fan",1100,-999,3300,620,-999,4160,-999,"LA",4.4,0.187,-999,-999,-999,-999,"LANDERS\EJS030.AT2","LANDERS\EJS120.AT2","LANDERS\EJS-UP.AT2",30,120,"A",-999,"PEA","A",1,2.5,0.04,0.03,13.,18.,1.,0.04,0.03,0.04,0.056124,12.42,14.791,0.056152,0.056302,0.056313,0.056283,0.056576,0.056664,0.056627,0.056914,0.056944,0.056724,0.056582,0.056306,0.056381,0.056503,0.056845,0.057371,0.057721,0.059221,0.059694,0.060714,0.061121,0.063641,0.068598,0.07096,0.070742,0.070268,0.076725,0.084023,0.093103,0.086277,0.088122,0.094812,0.111,0.1104,0.11872,0.1304,0.12672,0.13237,0.10747,0.11684,0.1291,0.13246,0.11974,0.10926,0.11098,0.12787,0.1193,0.1071,0.097562,0.097022,0.10042,0.10678,0.10624,0.10698,0.11582,0.11834,0.1071,0.10636,0.14532,0.14721,0.15287,0.15523,0.13624,0.11007,0.10356,0.099425,0.10071,0.11549,0.098883,0.083557,0.10091,0.083867,0.068326,0.064442,0.074222,0.079803,0.067068,0.063014,0.056147,0.04092,0.037001,0.038218,0.046904,0.044553,0.043124,0.039045,0.038784,0.038332,0.037064,0.038672,0.034883,0.026428,0.021109,0.019281,0.017592,0.015787,0.014657,0.014613,0.013425,0.014652,0.016189,0.017632,0.019008,0.019584,0.019009,0.015516,0.013148,0.010232,0.0076504,0.0061212,0.0022272,315,"C1",0,"C1",0,"C1",0,"C1",0,"C1",0,"C1",0,45.419456,0.102,0.0449,-0.0117,5,50,-999,-999,-999,-999,0,-999,"?",0,-999,9.519456
15970,1128,9644101,2001,413,1150,"Otay Lakes Park",3076,"olp",3.64,"ML",-999.,-999,-999,-999,3.2359e21,312,71,158,0,1.2,1.,28.7,270.4,33.8726,-117.7125,2.161,-999,-999,-999,0,1.6459,0.8,0.9,0.7,-999.,-999.,-999.,-999.,-999.,-999.,-999,-999,-999.,-999,-999,-999.,158.08,158.1,158.1,158.23,-999.,158.11,-55.12,-999,-999.,-999.,-999.,-999.,-999.,-999.,-999.,-999,-999,-999,-999,-999,-999,-999,-999,-999,-999,-999,"F",-999,"A",-999,-999.,-999,"C",489.,-999,0,0.1,-999,-999,-999,"SCSN",32.608,-116.93,-999,-999.,-999,-999,-999,-999.,-999.,-999,40,-999,200,-999,-999,-999,-999,-999,-999.,-999.,-999.,-999.,-999.,-999.,"9644101\CIOLPHLN.AT2","9644101\CIOLPHLE.AT2","9644101\CIOLPHLZ.AT2",0,90.,"D","HLN FBA ES-T-4G Q330-S","PEA","A",1.,2.5,0.4,0.53,0,0.,1.25,0.5,0.6625,0.6625,0.000070541,0.0021174,0.000089476,0.000072134,0.000071533,0.000071684,0.000071897,0.000072318,0.000072442,0.000073904,0.000074172,0.000073378,0.000075203,0.000075609,0.000077376,0.00007737,0.000077551,0.000078204,0.000084038,0.00010733,0.00011085,0.00012147,0.00013126,0.00013786,0.00013017,0.00014665,0.00013992,0.00015431,0.00017476,0.00017592,0.00017587,0.00014547,0.00014606,0.00013845,0.00013949,0.00017026,0.00018723,0.00021416,0.0002607,0.00027931,0.00029023,0.00019786,0.00022276,0.00022329,0.00020868,0.00021815,0.00018787,0.0001506,0.00011294,0.000078267,0.000067375,0.000068316,0.000061555,0.000047555,0.000037196,0.000031684,0.000028999,0.000027762,0.000027098,0.000026487,0.000023479,0.000019761,0.000017338,0.000016179,0.000015586,0.000013349,0.000010497,8.1743e-6,7.293e-6,6.4136e-6,5.8756e-6,4.6744e-6,5.5414e-6,4.3562e-6,4.1945e-6,4.039e-6,3.3806e-6,2.6974e-6,2.1736e-6,1.9193e-6,1.8376e-6,1.4075e-6,1.0564e-6,9.9486e-7,9.0152e-7,6.4738e-7,5.3924e-7,4.4847e-7,3.7333e-7,3.4736e-7,3.2475e-7,2.8377e-7,2.5037e-7,2.2675e-7,2.0441e-7,1.8404e-7,1.6735e-7,1.5405e-7,1.2651e-7,1.0485e-7,8.8428e-8,7.5464e-8,6.5397e-8,5.7338e-8,5.0838e-8,4.5317e-8,4.0582e-8,3.6576e-8,3.0143e-8,2.5253e-8,2.1519e-8,1.8544e-8,1.6122e-8,9.0586e-9,-999,"C1",0,"C1",0,"C1",0,"C1",0,"C1",0,"C1",0,-999,-999,-999,-999,5,50,200,0.707,"a",0,0,-999,-999,-999,-999,-148.342644519
4920,278,"Chuetsu-oki",2007,716,1013,"AKT020",2363,"AKT020",6.8,"Mw",-999,-999,-999,-999,1.7783e26,34,36,90,2,9,304,81,124,37.5382,138.6174,9,1,1,-999,1,3.12,32.,24.,768.2,-999,-999,-999,-999,-999,-999,-999,-999,-999,-999,-999,-999,216.74,216.92,210.45,-999,226.58,210.48,-3.6,"nu",-1,0.19,3.1,-999,0.42,1.6,-999,6.,-999.,1.43,-999,11.66,0,0,-999,-999,-999,-4,-999,-999,"CD",-999,-999,-999,"D",213.11,-999,1,0.11,-999,-999,-999,"KNET",39.2022,139.9085,-999,-999,-999,-999,-999,-999,-999,-999,300,-999,1940,300,-999,1940,-999,-999,-999,-999,-999,-999,-999,-999,"CHUETSU\AKT020NS.AT2","CHUETSU\AKT020EW.AT2","CHUETSU\AKT020UD.AT2",0,90,"D","K-NET95","PEA","A",1,2.5,0.07,0.06,30.,30.,1.25,0.088,0.075,0.088,0.0076627,0.73468,0.6533,0.0078224,0.0077429,0.0077596,0.007789,0.0078355,0.0078464,0.0078709,0.007924,0.0079392,0.0080346,0.0080539,0.0080705,0.0080993,0.0081223,0.0081748,0.0082312,0.0084491,0.008554,0.0093061,0.0094802,0.009531,0.0097112,0.0095468,0.0098861,0.010356,0.010017,0.010853,0.013094,0.015294,0.017616,0.018269,0.022998,0.024002,0.024766,0.027035,0.023683,0.023445,0.021883,0.020868,0.023803,0.024847,0.023319,0.019804,0.021017,0.020287,0.019519,0.020769,0.022359,0.022438,0.019237,0.015848,0.013948,0.012963,0.012588,0.012829,0.013776,0.013651,0.012629,0.0094262,0.0077,0.0071862,0.0057604,0.0063198,0.0067684,0.0068499,0.0073144,0.0072308,0.0071595,0.0065836,0.0053965,0.0052004,0.0049585,0.0045828,0.004564,0.003863,0.0040336,0.0046663,0.0047378,0.0044554,0.0043236,0.0038468,0.0040491,0.0043725,0.003789,0.003445,0.0030119,0.003185,0.0033157,0.003352,0.0032949,0.003258,0.0031888,0.0025825,0.0023974,0.0021616,0.0014823,0.0011098,0.00094668,0.0010571,0.00095083,0.00071107,0.00054699,0.00046036,0.00040148,0.0004349,0.00048467,0.00035912,0.00022655,0.00017123,0.0001699,0.000099535,34.,"C1",0,"C1",0,"C1",0,"C1",0,"C1",0,"C1",0,242.42219,0.177,0.1047,-0.1066,5,50,-999,-999,-999,-999,0,-999,-999,0,-999,226.42219
21056,1101,51177644,2007,112,1127,"San Bruno Mountain",100260,"JSB",3.7,"Mw",-999,-999,-999,-999,3981071705534980000000,140,51,171,0,21.04,1.56,32.07,105.5,38.3913,-122.616,6.973,-999,-999,-999,0,6.4921,1,0.8,0.8,-999,-999,-999,-999,-999,-999,-999,-999,-999,-999,-999,-999,81.84,82.14,81.56,81.87,-999,81.87,37.49,-999,-999,-999,-999,-999,-999,-999,-999,-999,-999,-999,-999,-999,-999,-999,-999,-999,-999,-999,"I",-999,-999,-999,-999,-999,"C",748.33,-999,"2a_4b",0.34,-999,-999,-999,-999,37.6743,-122.3986,-999,-999,-999.,-999,-999,-999,-999,-999,103,273,877,103,273,877,-999,-999,-999,-999,-999,-999,-999,-999,"51177644/JSBHNN.AT2","51177644/JSBHNE.AT2",-999,0,90,"D",-999,"PEA","A",1,2.5,0.2768408,0.3150781,32.35606,31.52957,1.25,0.346051,0.3938477,0.3938477,0.0011354,0.032805,0.0026663,0.0011684,0.0011614,0.0011671,0.0011861,0.0012205,0.0012309,0.0012711,0.0013188,0.0013211,0.0013264,0.0014031,0.0014792,0.0015476,0.0016249,0.001862,0.0019831,0.0020936,0.0023224,0.0024408,0.0027087,0.0029615,0.0034326,0.003371,0.0033505,0.0040153,0.0037731,0.0030254,0.0029046,0.0027471,0.0019667,0.0019279,0.0020023,0.0020294,0.0021591,0.0021099,0.0022204,0.0024771,0.0028367,0.0031965,0.0025246,0.002337,0.0020335,0.0018025,0.001623,0.0014193,0.0011722,0.001087,0.0011089,0.0011399,0.0010432,0.00095869,0.00079686,0.00081143,0.00086757,0.00092667,0.00094638,0.00093139,0.00067945,0.00045581,0.00030205,0.00027975,0.00023271,0.00019698,0.00017079,0.00014334,0.00013127,0.00011719,0.00010739,0.000091528,0.000078784,0.000066987,0.000058804,0.000047736,0.000042458,0.000038508,0.000036173,0.000036641,0.00003588,0.000031011,0.000020846,0.000018871,0.00001801,0.000014387,0.000013198,0.000011395,8.7277e-6,8.0497e-6,7.7592e-6,7.4199e-6,6.608e-6,5.4176e-6,4.3596e-6,3.6598e-6,3.2434e-6,2.9606e-6,2.3914e-6,1.981e-6,1.7116e-6,1.4855e-6,1.2806e-6,1.1077e-6,9.7726e-7,8.7579e-7,7.8262e-7,7.0838e-7,5.9028e-7,4.955e-7,4.1993e-7,3.6051e-7,3.157e-7,1.7943e-7,-999,"C1",0,"C1",0,"C1",0,"C1",0,"C1",0,"C1",0,-999,-999,-999,-999,5,50,49.9901,0.7071,"a",-999,0,-999,-999,-999,-999,73.0511034777
18435,1202,21423530,2004,1129,154,"Parkfield - Cholame 5W",128,36227,4.17,"Mw",-999.,-999,-999,-999,2.0184e22,323,87,176,0,0.7,8.1,5.,278.1,35.9468,-120.4938,10.375,-999,-999,-999,0,9.5763,1.6,1.,1.6,-999.,-999.,-999.,-999.,-999.,-999.,-999,-999,-999.,-999,-999,-999.,31.51,33.17,30.92,32.37,-999.,32.37,-4.71,-999,-999.,-999.,-999.,-999.,-999.,-999.,-999.,-999,-999,-999,-999,-999,-999,-999,-999,-999,-999,-999,"I","P","B","A","C","S","D",236.6,-999,0,0.1,"D","Qal, thin",-999,"CDMG",35.697,-120.328,0,"GROUND LEVEL",1.1,-999,-999,"Holocene","Coarse","Alluvium",80,-999,4420,-999,-999,1080,-999,-999,-999.,-999.,-999.,-999.,-999.,-999.,"21423530C\36227360.AT2","21423530C\36227090.AT2","21423530C\36227-UP.AT2",0,90.,"D",-999.,"PEA","A",1.,2.5,0.16,0.22,50,61.,1.25,0.2,0.275,0.275,0.0098585,0.49259,0.034858,0.0098838,0.010016,0.010084,0.01012,0.010295,0.01023,0.010077,0.010305,0.010377,0.010418,0.010386,0.010577,0.010765,0.010963,0.011236,0.011419,0.01183,0.012283,0.012988,0.013304,0.013694,0.014209,0.015073,0.016345,0.017436,0.019544,0.021824,0.026156,0.029037,0.031573,0.031979,0.031113,0.028799,0.024803,0.024793,0.024952,0.023622,0.023821,0.023042,0.021239,0.024277,0.026073,0.024292,0.020964,0.022107,0.023694,0.023248,0.024731,0.025575,0.024211,0.022366,0.020594,0.019978,0.021468,0.021738,0.017272,0.014978,0.011782,0.0089165,0.0070561,0.0065121,0.0054801,0.0043923,0.0035304,0.0028711,0.0024809,0.0021708,0.0020199,0.001502,0.0012357,0.001001,0.00087479,0.00073749,0.00068561,0.0006165,0.00054132,0.00047959,0.00041846,0.00033883,0.00025561,0.0002369,0.00022039,0.00020248,0.0001707,0.00015056,0.00013472,0.00012745,0.00012215,0.00011055,0.00010152,0.000090565,0.000079164,0.000070232,0.000064363,0.000060117,0.000049874,0.000040699,0.000034681,0.000030083,0.000026169,0.000022897,0.000020156,0.000017867,0.000015951,0.000014326,0.000011748,9.8362e-6,8.3821e-6,7.2285e-6,6.2978e-6,3.5106e-6,-999,"C1",0,"C1",0,"C1",0,"C1",0,"C1",0,"C1",0,-999,-999,-999,-999,5,50,94.8,0.66,"a",0,0,-999,-999,-999,-999,-31.3152413891
17345,1156,14285852,2007,418,2223,"Palm Springs Desert Museum",3080,"psd",3.56,"ML",-999.,-999,-999,-999,2.4547e21,331,53,-130,4,59.1,178.7,0.4,88.,33.4509,-116.5827,10.563,-999,-999,-999,0,10.0581,0.9,0.7,0.6,-999.,-999.,-999.,-999.,-999.,-999.,-999,-999,-999.,-999,-999,-999.,41.49,42.82,41.25,42.58,-999.,42.58,23.15,-999,-999.,-999.,-999.,-999.,-999.,-999.,-999.,-999,-999,-999,-999,-999,-999,-999,-999,-999,-999,-999,"F",-999,-999,-999,-999.,-999,"C",408.2,-999,"2a_4b_4c",0.25,-999,-999,-999,"SCSN",33.824,-116.55,-999,-999.,-999,-999,-999,-999.,-999.,-999,60,-999,260,120,-999,120,-999,-999,-999.,-999.,-999.,-999.,-999.,-999.,"14285852\CIPSDHHN.AT2","14285852\CIPSDHHE.AT2","14285852\CIPSDHHZ.AT2",0,90.,"D","HHN CMG-3T Q330-S","PEA","A",1.,2.5,0.4,0.31,0,0.,1.25,0.5,0.3875,0.5,0.0012996,0.017537,0.00037388,0.0013283,0.0014468,0.0015151,0.0016877,0.0020509,0.0021575,0.0019437,0.0020353,0.0020817,0.0022766,0.0021495,0.0022414,0.0022829,0.0022677,0.0022914,0.0022254,0.0025911,0.0033969,0.0035509,0.0036008,0.00354,0.0040941,0.0044322,0.0048056,0.0046822,0.0040364,0.0031836,0.0024604,0.0023474,0.0024495,0.002302,0.0019829,0.0017128,0.0014452,0.0011822,0.00098793,0.00083917,0.00075721,0.0006086,0.00044091,0.00040642,0.00040846,0.00042508,0.00043821,0.00043084,0.00038025,0.00032492,0.00029543,0.00027283,0.00024269,0.00020314,0.00017676,0.00015648,0.00015133,0.00014367,0.00012408,0.00011047,0.000087632,0.000067324,0.000054179,0.000050792,0.000044809,0.000037369,0.000031349,0.00002756,0.000024217,0.000020887,0.000017992,0.000014304,0.00001143,9.9704e-6,8.9384e-6,8.0527e-6,7.0949e-6,6.2272e-6,5.4701e-6,4.9502e-6,4.4906e-6,3.6172e-6,2.9289e-6,2.669e-6,2.4382e-6,2.1015e-6,1.8146e-6,1.5735e-6,1.3823e-6,1.3016e-6,1.2279e-6,1.1017e-6,9.9942e-7,9.0889e-7,8.242e-7,7.4892e-7,6.8312e-7,6.2791e-7,5.1852e-7,4.3508e-7,3.6911e-7,3.1708e-7,2.7558e-7,2.4187e-7,2.14e-7,1.907e-7,1.7104e-7,1.5429e-7,1.2744e-7,1.0703e-7,9.1129e-8,7.8529e-8,6.8382e-8,3.8472e-8,-999,"C1",0,"C1",0,"C1",0,"C2 - 1003",7.13,"C2 - 1003",7.13,"C2 - 1003",7.13,-999,-999,-999,-999,5,50,0.0335368,0.707,"v",0,0,-999,-999,-999,-999,34.7015327616
