"Record Sequence Number","EQID","Earthquake Name","YEAR","MODY","HRMN","Station Name","Station Sequence Number","Station ID  No.","Earthquake Magnitude","Magnitude Type","Magnitude Uncertainty: Kagan Model","Magnitude Uncertainty: Statistical","Magnitude Sample Size","Magnitude Uncertainty: Study Class","Mo (dyne.cm)","Strike (deg)","Dip (deg)","Rake Angle (deg)","Mechanism Based on Rake Angle","P-plunge (deg)","P-trend (deg)","T-plunge (deg)","T-trend (deg)","Hypocenter Latitude (deg)","Hypocenter Longitude (deg)","Hypocenter Depth (km)","Coseismic Surface Rupture: 1=Yes; 0=No;    -999=Unknown","Coseismic Surface Rupture (Including Inferred)","Basis for Inference of Surface Rupture","Finite Rupture Model: 1=Yes;  0=No","Depth to Top Of Fault Rupture Model","Fault Rupture Length for Calculation of Ry (km)","Fault Rupture Width (km)","Fault Rupture Area (km^2)","Avg Fault Disp (cm)","Rise Time (s)","Avg Slip Velocity (cm/s)","Static Stress Drop (bars)","Preferred Rupture Velocity (km/s)","Average Vr/Vs","Percent of Moment Release in the Top 5 Km of Crust","Existence of Shallow Asperity: 0=No; 1=Yes","Depth to Top of Shallowest Asperity (km)","Earthquake in Extensional Regime: 1=Yes; 0=No","Fault Name","Slip Rate (mm/Yr)","EpiD (km)","HypD (km)","Joyner-Boore Dist. (km)","Campbell R Dist. (km)","RmsD (km)","ClstD (km)","Rx","FW/HW Indicator","Source to Site Azimuth (deg)","X","Theta.D (deg)","SSGA (Strike Slip)","Y","Phi.D (deg)","SSGA (Dip Slip)","s","d","ctildepr","Unused Column","D","Rfn.Hyp","Rfp.Hyp","Unused Column","Unused Column","Unused Column","T","GMX's C1","GMX's C2","GMX's C3","Campbell's GEOCODE","Bray and Rodriguez-Marek SGS","Depth","Preferred NEHRP Based on Vs30","Vs30 (m/s) selected for analysis","Column Not Used","Measured/Inferred Class","Sigma of Vs30 (in natural log Units)","NEHRP Classification from CGS's Site Condition Map","Geological Unit","Geology","Owner","Station Latitude","Station Longitude","STORIES","INSTLOC","Depth to Basement Rock","Site Visited","NGA Type","Age","Grain Size","Depositional History","Northern CA/Southern CA - H11 Z1 (m)","Northern CA/Southern CA - H11 Z1.5 (m)","Northern CA/Southern CA - H11 Z2.5 (m)","Northern CA/Southern CA - S4 Z1 (m)","Northern CA/Southern CA - S4 Z1.5 (m)","Northern CA/Southern CA - S4 Z2.5 (m)","Depth to Franciscan Rock (km)","Basin","h (m)","hnorm (m)","Rsbe (m)","Rcebe (m)","Rebe (m)","Rsbe1 (m)","File Name (Horizontal 1)","File Name (Horizontal 2)","File Name (Vertical)","H1 azimth (degrees)","H2 azimith (degrees)","Type of Recording","Instrument Model","PEA Processing Flag","Type of Filter","npass","nroll","HP-H1 (Hz)","HP-H2 (Hz)","LP-H1 (Hz)","LP-H2 (Hz)","Factor","Lowest Usable Freq - H1 (Hz)","Lowest Usable Freq - H2 (H2)","Lowest Usable Freq - Ave. Component (Hz)","PGA (g)","PGV (cm/sec)","PGD (cm)","T0.010S","T0.020S","T0.022S","T0.025S","T0.029S","T0.030S","T0.032S","T0.035S","T0.036S","T0.040S","T0.042S","T0.044S","T0.045S","T0.046S","T0.048S","T0.050S","T0.055S","T0.060S","T0.065S","T0.067S","T0.070S","T0.075S","T0.080S","T0.085S","T0.090S","T0.095S","T0.100S","T0.110S","T0.120S","T0.130S","T0.133S","T0.140S","T0.150S","T0.160S","T0.170S","T0.180S","T0.190S","T0.200S","T0.220S","T0.240S","T0.250S","T0.260S","T0.280S","T0.290S","T0.300S","T0.320S","T0.340S","T0.350S","T0.360S","T0.380S","T0.400S","T0.420S","T0.440S","T0.450S","T0.460S","T0.480S","T0.500S","T0.550S","T0.600S","T0.650S","T0.667S","T0.700S","T0.750S","T0.800S","T0.850S","T0.900S","T0.950S","T1.000S","T1.100S","T1.200S","T1.300S","T1.400S","T1.500S","T1.600S","T1.700S","T1.800S","T1.900S","T2.000S","T2.200S","T2.400S","T2.500S","T2.600S","T2.800S","T3.000S","T3.200S","T3.400S","T3.500S","T3.600S","T3.800S","T4.000S","T4.200S","T4.400S","T4.600S","T4.800S","T5.000S","T5.500S","T6.000S","T6.500S","T7.000S","T7.500S","T8.000S","T8.500S","T9.000S","T9.500S","T10.000S","T11.000S","T12.000S","T13.000S","T14.000S","T15.000S","T20.000S","Ave Strike (deg)","TYPE(CRjb = 0)","CRjb","TYPE (CRjb = 2)","CRjb","TYPE (CRjb = 5)","CRjb","TYPE (CRjb = 10)","CRjb","TYPE (CRjb = 20)","CRjb","TYPE (CRjb = 40)","CRjb","U","IDPv4","XCI","XCI1","Damping (%)","RotD percentile","Instrument Nat. Freq.","Instrument Damping","Instrument Type","Quality_Flag","Spectra Quality Flag","Late S-trigger","Late P-trigger","Idirectivity","Tp","Ry 2"
17313,1156,14285852,2007,418,2223,"Belle Mountain Joshua Tree",100091,"BEL",3.56,"ML",-999.,-999,-999,-999,2.4547e21,331,53,-130,4,59.1,178.7,0.4,88.,33.4509,-116.5827,10.563,-999,-999,-999,0,10.0581,0.9,0.7,0.6,-999.,-999.,-999.,-999.,-999.,-999.,-999,-999,-999.,-999,-999,-999.,81.56,82.24,81.49,82.18,-999.,82.18,77.27,-999,-999.,-999.,-999.,-999.,-999.,-999.,-999.,-999,-999,-999,-999,-999,-999,-999,-999,-999,-999,-999,"A,B",-999,"A",-999,-999.,-999,"B",796.,-999,0,0.1,-999,-999,-999,-999,34.0006,-115.9982,-999,-999.,-999,-999,-999,-999.,-999.,-999,20,-999,220,20,-999,20,-999,-999,-999.,-999.,-999.,-999.,-999.,-999.,"14285852\CIBELHHN.AT2","14285852\CIBELHHE.AT2","14285852\CIBELHHZ.AT2",0,90.,"D","HHN STS-2 Q330-S","PEA","A",1.,2.5,0.34,0.35,0,0.,1.25,0.425,0.4375,0.4375,0.00022129,0.0065052,0.00034765,0.00022763,0.0002441,0.00027351,0.00030341,0.00027008,0.0002894,0.00031913,0.00032979,0.00035506,0.00038099,0.00042749,0.00045683,0.00045704,0.00046463,0.00052313,0.00048956,0.00046084,0.00050479,0.00049102,0.00050684,0.00051992,0.00054767,0.00064127,0.00077114,0.00084972,0.00081876,0.00064867,0.00061457,0.00069701,0.00063077,0.00059059,0.0005669,0.00053026,0.00047644,0.00054728,0.00059067,0.00048914,0.00043028,0.00032864,0.00031289,0.00033052,0.00033912,0.00027513,0.00026804,0.00026251,0.00024931,0.00021959,0.00021148,0.00020191,0.00019452,0.00018214,0.00015824,0.00017627,0.00018622,0.00018999,0.00018168,0.00016877,0.00017242,0.00014425,0.000090631,0.000086661,0.000089485,0.000078469,0.000054511,0.000042259,0.00003757,0.000034535,0.0000294,0.000021645,0.000017139,0.000014158,0.000011882,0.000010163,8.9097e-6,7.812e-6,6.5745e-6,5.2955e-6,4.7008e-6,4.0115e-6,3.1921e-6,2.8673e-6,2.6117e-6,2.1525e-6,1.781e-6,1.5135e-6,1.3058e-6,1.2234e-6,1.1562e-6,1.0265e-6,9.0755e-7,8.183e-7,7.4243e-7,6.7658e-7,6.2074e-7,5.7388e-7,4.7801e-7,3.9761e-7,3.3743e-7,2.8965e-7,2.5174e-7,2.2135e-7,1.9597e-7,1.7453e-7,1.5647e-7,1.4108e-7,1.1644e-7,9.7762e-8,8.3262e-8,7.1745e-8,6.2458e-8,3.512e-8,-999,"C1",0,"C1",0,"C1",0,"C2 - 1003",7.13,"C2 - 1003",7.13,"C2 - 1003",7.13,-999,-999,-999,-999,5,50,0.0083333,0.707,"v",0,0,-999,-999,-999,-999,27.0687623576
1470,137,"Chi-Chi, Taiwan",1999,920,-999,"TCU014",1003,-999,7.62,"Mw",0.081,0.079,9,0.1,3.02e27,20,33,55,3,18.8,300.4,64.4,164.9,23.85,120.82,8,1,1,-999,1,0,88.,34.6,3048.8,238.4,3.3,72.2,34.9,2.8,0.8,39,1,0.,0,-999,-999,141.99,142.21,92.26,-999,120.31,92.7,18.13,"nu",11,0.62,26.7,-999,0.2,88.1,-999,56.,-999.,2.73,-999,56.02,0.25,-0.51,-999,-999,-999,22.9,"I","H","D","C","D",-999,"C",496.47,473.3,1,0.3,"C",-999,-999,"CWB",25.0463,121.3075,-999,-999,-999,-999,-999,-999,-999,-999,-999,-999,-999,-999,-999,-999,-999,-999,-999,-999,-999,-999,-999,-999,"CHICHI\TCU014-E.AT2","CHICHI\TCU014-N.AT2","CHICHI\TCU014-V.AT2",90,0,"D","A900","PEA","A",1,2.5,0.02,0.02,20.,25.,1.25,0.025,0.025,0.025,0.066762,19.448,25.794,0.066895,0.067262,0.067378,0.067532,0.06773,0.06782,0.068121,0.06822,0.068149,0.068961,0.069199,0.069133,0.069024,0.068811,0.06853,0.06951,0.070817,0.068806,0.069314,0.070221,0.069724,0.069217,0.071344,0.072217,0.076588,0.079637,0.083623,0.085835,0.084707,0.091057,0.088296,0.086169,0.10116,0.10346,0.11951,0.11931,0.15334,0.16593,0.18702,0.19388,0.2207,0.23371,0.18266,0.17031,0.16149,0.16706,0.18867,0.18465,0.18057,0.17999,0.17408,0.17184,0.16749,0.17142,0.17082,0.16243,0.16144,0.1641,0.17826,0.14816,0.14527,0.14917,0.15893,0.17003,0.16237,0.15985,0.1459,0.11787,0.11258,0.10659,0.10659,0.1237,0.13318,0.12901,0.13112,0.12337,0.11502,0.10543,0.077977,0.085394,0.08308,0.07659,0.052186,0.049206,0.045067,0.04232,0.041878,0.04407,0.043549,0.051404,0.052746,0.05014,0.04929,0.046296,0.041574,0.042093,0.039528,0.0345,0.034624,0.036411,0.037103,0.03594,0.03398,0.032168,0.030761,0.026179,0.021278,0.016875,0.014137,0.012597,0.0052402,36.12,"C1",0,"C1",0,"C1",0,"C1",0,"C1",0,"C1",0,162.592,2.29,0.5466,0.3087,5,50,-999,-999,-999,-999,0,-999,"D",0,-999,118.592
16196,1132,10067405,2004,1216,1137,"State Street",100507,"STS",3.64,"ML",-999.,-999,-999,-999,3.2359e21,142,59,139,3,1.9,199.7,49.6,107.5,33.8455,-118.7007,12.777,-999,-999,-999,0,12.3069,0.9,1.,0.9,-999.,-999.,-999.,-999.,-999.,-999.,-999,-999,-999.,-999,-999,-999.,46.87,48.58,46.3,47.9,-999.,47.9,-32.58,-999,-999.,-999.,-999.,-999.,-999.,-999.,-999.,-999,-999,-999,-999,-999,-999,-999,-999,-999,-999,-999,"A,B",-999,"A",-999,-999.,-999,"D",229.3,-999,"2a_4b",0.34,-999,-999,-999,-999,33.7903,-118.1988,-999,-999.,-999,-999,-999,-999.,-999.,-999,320,-999,3460,480,-999,5100,-999,-999,-999.,-999.,-999.,-999.,-999.,-999.,"10067405\CISTSHHN.AT2","10067405\CISTSHHE.AT2","10067405\CISTSHHZ.AT2",0,90.,"D","HHN CMG-40T Q330-S","PEA","A",1.,2.5,0.34,0.25,0,0.,1.25,0.425,0.3125,0.425,0.0011456,0.031922,0.0022525,0.0011689,0.0011538,0.0011602,0.001176,0.0011941,0.0011913,0.0012037,0.0012362,0.0012465,0.0013126,0.0013535,0.001396,0.0014094,0.0014196,0.0014621,0.0014916,0.0016096,0.0016728,0.0017236,0.0018201,0.0019818,0.0020685,0.0022024,0.0024742,0.0023831,0.0024167,0.0022798,0.0020594,0.0019752,0.0020312,0.0022817,0.0026966,0.0027469,0.0026763,0.0023112,0.002241,0.0024444,0.0025447,0.0020592,0.0019007,0.0018104,0.0019187,0.0018215,0.001726,0.001541,0.0014837,0.0014762,0.0014279,0.0013525,0.0012578,0.0011937,0.0011121,0.00095948,0.0008962,0.00084459,0.00081662,0.0008141,0.00057382,0.00046631,0.00037446,0.00035765,0.00032249,0.00026962,0.00021978,0.00018718,0.00016042,0.00013773,0.00012062,0.000097234,0.000074343,0.000063358,0.000054141,0.000047653,0.000041941,0.000036618,0.000032332,0.000028441,0.0000257,0.000021202,0.000018409,0.000016877,0.000015447,0.000013075,0.000011341,9.8574e-6,8.4385e-6,7.8676e-6,7.4002e-6,6.6329e-6,5.9328e-6,5.3072e-6,4.783e-6,4.3417e-6,3.9637e-6,3.6363e-6,2.9963e-6,2.5338e-6,2.1716e-6,1.873e-6,1.6288e-6,1.4306e-6,1.2672e-6,1.13e-6,1.0135e-6,9.1391e-7,7.5437e-7,6.3354e-7,5.3956e-7,4.6491e-7,4.047e-7,2.275e-7,-999,"C1",0,"C1",0,"C1",0,"C1",0,"C1",0,"C1",0,-999,-999,-999,-999,5,50,0.0335368,0.707,"v",0,0,-999,-999,-999,-999,33.2549224247
11835,1035,9173365,2001,114,226,"Osito Audit: Castaic Lake Dam",100275,"OSI",4.26,"ML",-999.,-999,-999,-999,2.7542e22,126,35,85,2,10.1,39.6,79.5,235.8,34.2844,-118.4129,8.031,-999,-999,-999,0,7.4461,1.7,1.5,2.5,-999.,-999.,-999.,-999.,-999.,-999.,-999,-999,-999.,-999,-999,-999.,46.43,47.12,45.47,46.07,-999.,46.07,-12.2,-999,-999.,-999.,-999.,-999.,-999.,-999.,-999.,-999,-999,-999,-999,-999,-999,-999,-999,-999,-999,-999,"A,B",-999,-999,-999,-999.,-999,"C",416.5,-999,"2a_4b",0.34,-999,-999,-999,-999,34.6145,-118.7235,-999,-999.,-999,-999,-999,-999.,-999.,-999,140,-999,640,320,-999,320,-999,-999,-999.,-999.,-999.,-999.,-999.,-999.,"9613229B\CIOSIHHN.AT2","9613229B\CIOSIHHE.AT2","9613229B\CIOSIHHZ.AT2",0,90.,"D","HHN STS-1 Q330HR","PEA","A",1.,2.5,0.22,0.16,37,37.,1.25,0.275,0.2,0.275,0.0015572,0.059932,0.0056813,0.0015729,0.0015672,0.0015684,0.001573,0.0015804,0.0015825,0.0015866,0.0015931,0.0015958,0.0016074,0.001611,0.0016176,0.0016216,0.0016264,0.0016362,0.0016467,0.0016808,0.0017203,0.0017517,0.0017725,0.0018039,0.0018426,0.0018575,0.0019253,0.0019649,0.0021726,0.0025078,0.0028476,0.0029056,0.0029076,0.0029823,0.0032507,0.0039099,0.0046852,0.0050389,0.0053524,0.0051932,0.0046725,0.0039199,0.0031675,0.0027323,0.0023294,0.0018792,0.0017723,0.0016874,0.0016912,0.0018108,0.0018589,0.001859,0.0021704,0.0024578,0.002776,0.0025968,0.0025792,0.0026597,0.0025854,0.0022206,0.001792,0.0014491,0.0011072,0.0010399,0.00098298,0.00076954,0.00068086,0.00066063,0.00059778,0.0005217,0.0004694,0.00047054,0.00035447,0.00031352,0.00030239,0.00025809,0.0002159,0.00016426,0.00013887,0.0001184,0.000096179,0.000063413,0.000051687,0.000049121,0.000045272,0.000036868,0.000030636,0.000027748,0.000025494,0.000023752,0.000021674,0.000019604,0.000018871,0.000017289,0.000015651,0.000014062,0.000013359,0.000012657,0.000010137,7.6724e-6,5.874e-6,4.9007e-6,4.1222e-6,3.6136e-6,3.2092e-6,2.8639e-6,2.5684e-6,2.3152e-6,1.9096e-6,1.6025e-6,1.3641e-6,1.175e-6,1.0227e-6,5.7411e-7,-999,"C1",0,"C1",0,"C1",0,"C1",0,"C1",0,"C1",0,-999,-999,-999,-999,5,50,0.0027778,0.707,"v",0,0,-999,-999,-999,-999,-44.3865022663
12873,1056,14073800,2004,714,53,"Thermal Airport",100084,"THX",4.02,"ML",-999.,-999,-999,-999,1.2023e22,314,54,174,0,20.8,175.2,28.4,277.1,33.7129,-116.0516,12.808,-999,-999,-999,0,12.1541,1.4,1.3,1.8,-999.,-999.,-999.,-999.,-999.,-999.,-999,-999,-999.,-999,-999,-999.,13.54,18.64,13.03,17.82,-999.,17.82,-13,-999,-999.,-999.,-999.,-999.,-999.,-999.,-999.,-999,-999,-999,-999,-999,-999,-999,-999,-999,-999,-999,"F",-999,"A",-999,-999.,-999,"D",217.8,-999,"2a_4b",0.34,-999,-999,-999,-999,33.635,-116.164,-999,-999.,-999,-999,-999,-999.,-999.,-999,1020,-999,2320,2880,-999,2880,-999,-999,-999.,-999.,-999.,-999.,-999.,-999.,"14073800\CITHXHHN.AT2","14073800\CITHXHHE.AT2","14073800\CITHXHHZ.AT2",0,90.,"D","HHN CMG-40T Q4120","PEA","A",1.,2.5,0.11,0.17,39,39.,1.25,0.1375,0.2125,0.2125,0.013072,0.40132,0.029469,0.013387,0.013524,0.013652,0.013707,0.014491,0.014528,0.015981,0.018831,0.019725,0.02397,0.027415,0.031521,0.032466,0.033386,0.037712,0.038967,0.035468,0.034736,0.033386,0.031818,0.031235,0.036741,0.039126,0.040636,0.032926,0.026983,0.027442,0.026326,0.024463,0.025989,0.026129,0.026422,0.027812,0.026212,0.024466,0.021211,0.017819,0.016967,0.015519,0.014656,0.01403,0.013589,0.012536,0.012399,0.012703,0.012527,0.012504,0.012446,0.012235,0.01165,0.010795,0.010188,0.009524,0.0090849,0.0086116,0.0078833,0.0072159,0.0056698,0.0047465,0.0040798,0.0039072,0.0035842,0.0031078,0.0026651,0.0022843,0.0019628,0.0016983,0.001479,0.0011361,0.00087854,0.00071731,0.00059597,0.00051583,0.00050481,0.00047871,0.00037181,0.00032498,0.00029479,0.00024637,0.0002098,0.00019457,0.00018107,0.00015809,0.00013913,0.00012341,0.0001101,0.00010416,0.000098659,0.000088935,0.000080661,0.000073485,0.000067151,0.000061517,0.000056507,0.000052061,0.000042983,0.00003606,0.000030617,0.00002625,0.000022706,0.000019808,0.000017423,0.000015443,0.000013784,0.000012382,0.000010156,8.484e-6,7.1963e-6,6.1829e-6,5.3707e-6,2.9979e-6,-999,"C1",0,"C1",0,"C1",0,"C1",0,"C1",0,"C1",0,-999,-999,-999,-999,5,50,0.0335368,0.707,"v",0,0,-999,-999,-999,-999,1.2928409226
17063,1150,9089885,1999,530,1215,"Vincent Substation",100283,"VCS",3.43,"ML",-999.,-999,-999,-999,1.5668e21,127,44,126,3,6.4,12.3,65.,116.2,34.0052,-118.2218,6.093,-999,-999,-999,0,5.8098,0.7,0.6,0.4,-999.,-999.,-999.,-999.,-999.,-999.,-999,-999,-999.,-999,-999,-999.,53.92,54.27,53.67,53.99,-999.,53.99,-47.96,-999,-999.,-999.,-999.,-999.,-999.,-999.,-999.,-999,-999,-999,-999,-999,-999,-999,-999,-999,-999,-999,"A,B",-999,"A",-999,-999.,-999,"C",405.,-999,0,0.1,-999,-999,-999,-999,34.4836,-118.1178,-999,-999.,-999,-999,-999,-999.,-999.,-999,60,-999,220,-999,-999,-999,-999,-999,-999.,-999.,-999.,-999.,-999.,-999.,"9089885\CIVCSHHN.AT2","9089885\CIVCSHHE.AT2","9089885\CIVCSHHZ.AT2",0,90.,"D","HHN STS-2 Q330-S","PEA","A",1.,2.5,0.07,0.25,0,0.,1.25,0.0875,0.3125,0.3125,0.00017687,0.0038778,0.0002947,0.00018027,0.00018038,0.00018223,0.00018562,0.00019006,0.00019123,0.00019362,0.00020999,0.00021084,0.00024167,0.00027016,0.00030125,0.00030522,0.00030952,0.0003207,0.00034127,0.00035158,0.00044736,0.00055673,0.00061012,0.00063545,0.00052925,0.00050088,0.00041842,0.0003585,0.00038668,0.00036384,0.00046892,0.00055657,0.00053789,0.00052221,0.00050798,0.00047852,0.00046256,0.00043341,0.00040046,0.00041042,0.00043004,0.00026407,0.00030688,0.00028714,0.00030203,0.00025653,0.00023652,0.0002634,0.00023501,0.00020584,0.00019783,0.00018946,0.00016772,0.00015185,0.00012623,0.00011076,0.00010861,0.00010442,0.000089138,0.000077246,0.000068678,0.000056485,0.000047993,0.000046888,0.000043056,0.000042278,0.000032818,0.000030615,0.000028446,0.000026111,0.000024891,0.000016919,0.000014965,0.000015187,0.000012823,0.000010622,9.3982e-6,6.9531e-6,5.9292e-6,4.6312e-6,4.1719e-6,3.1876e-6,2.337e-6,2.2624e-6,2.2671e-6,1.8746e-6,1.5736e-6,1.3882e-6,1.364e-6,1.3266e-6,1.2774e-6,1.1613e-6,1.0627e-6,9.7644e-7,9.579e-7,9.5458e-7,9.8692e-7,9.8931e-7,8.1147e-7,6.957e-7,5.3342e-7,4.3067e-7,3.1675e-7,2.3986e-7,1.8898e-7,1.5679e-7,1.4108e-7,1.2854e-7,1.0977e-7,9.4455e-8,7.8094e-8,6.7387e-8,6.0692e-8,3.0927e-8,-999,"C1",0,"C1",0,"C1",0,"C1",0,"C1",0,"C1",0,-999,-999,-999,-999,5,50,0.0083279,0.707,"v",0,0,-999,-999,-999,-999,-24.2200388566
3757,125,"Landers",1992,628,1158,"North Palm Springs Fire Sta #36",1241,5295,7.28,"Mw",0.081,0.05,15,0.1,9.3325e26,336,90,180,0,0.,21.,0.,291.,34.2,-116.436,7,1,1,-999,1,0,71.8,15.,1077.,242.5,2.9,83.6,64.5,2.8,0.8,53,1,0.,0,"Landers fault (S. Johnson Valley)",0.6,32.32,33.07,26.95,-999,52.73,26.95,-12.34,"na",-152.75,0.08,22.5,0.08,0.47,80.7,0.08,5.91,-999.,2,-999,9,0.6943,-0.1293,-999,-999,-999,-20.855458,"A","Q","C","A","D","D","C",367.84,-999,"2a_3a_4b_4c",0.33962921,"D","Qal, coarse",-999,"USGS",33.9247,-116.5479,1,"GROUND LEVEL",1.,-999,-999,"Holocene",-999,"Alluvium",60,-999,320,820,-999,820,-999,-999,-999,-999,-999,-999,-999,-999,"LANDERS\NPF090.AT2","LANDERS\NPF180.AT2","LANDERS\NPF-UP.AT2",90,180,-999,-999,"PEA","A",1,2.5,0.09,0.09,30.,30.,1.25,0.113,0.113,0.113,0.13359,12.796,5.7127,0.13374,0.13587,0.13566,0.13695,0.13805,0.13847,0.14132,0.14425,0.14285,0.14338,0.14351,0.14151,0.14343,0.14422,0.14458,0.14802,0.16362,0.17,0.18136,0.19121,0.20613,0.20554,0.21755,0.2483,0.25676,0.28961,0.27422,0.27074,0.2623,0.27788,0.28723,0.30575,0.30853,0.34065,0.36095,0.34601,0.33242,0.3228,0.3384,0.36193,0.35421,0.31805,0.29833,0.30338,0.29531,0.29584,0.30717,0.30083,0.28738,0.2395,0.27238,0.21923,0.22369,0.21703,0.2123,0.23753,0.2203,0.24084,0.23124,0.21733,0.21339,0.20388,0.17243,0.16859,0.17377,0.17456,0.1819,0.19261,0.17208,0.1642,0.16396,0.16414,0.183,0.15397,0.1264,0.14507,0.15679,0.14833,0.10135,0.074782,0.069314,0.064966,0.058841,0.045756,0.042825,0.046163,0.047553,0.04922,0.047374,0.040697,0.035311,0.033662,0.028373,0.024496,0.022257,0.017904,0.016031,0.015604,0.013128,0.0097418,0.0090889,0.0083926,0.0073071,0.0060924,0.0052052,0.0035947,0.0029285,0.0024697,0.0020281,0.0017092,0.00081122,357.46,"C1",0,"C1",0,"C1",0,"C1",0,"C1",0,"C1",0,-18.757272,0.767,0.2347,-0.2645,5,50,-999,-999,-999,-999,0,-999,"?",0,-999,-54.657272
