"Record Sequence Number","EQID","Earthquake Name","YEAR","MODY","HRMN","Station Name","Station Sequence Number","Station ID  No.","Earthquake Magnitude","Magnitude Type","Magnitude Uncertainty: Kagan Model","Magnitude Uncertainty: Statistical","Magnitude Sample Size","Magnitude Uncertainty: Study Class","Mo (dyne.cm)","Strike (deg)","Dip (deg)","Rake Angle (deg)","Mechanism Based on Rake Angle","P-plunge (deg)","P-trend (deg)","T-plunge (deg)","T-trend (deg)","Hypocenter Latitude (deg)","Hypocenter Longitude (deg)","Hypocenter Depth (km)","Coseismic Surface Rupture: 1=Yes; 0=No;    -999=Unknown","Coseismic Surface Rupture (Including Inferred)","Basis for Inference of Surface Rupture","Finite Rupture Model: 1=Yes;  0=No","Depth to Top Of Fault Rupture Model","Fault Rupture Length for Calculation of Ry (km)","Fault Rupture Width (km)","Fault Rupture Area (km^2)","Avg Fault Disp (cm)","Rise Time (s)","Avg Slip Velocity (cm/s)","Static Stress Drop (bars)","Preferred Rupture Velocity (km/s)","Average Vr/Vs","Percent of Moment Release in the Top 5 Km of Crust","Existence of Shallow Asperity: 0=No; 1=Yes","Depth to Top of Shallowest Asperity (km)","Earthquake in Extensional Regime: 1=Yes; 0=No","Fault Name","Slip Rate (mm/Yr)","EpiD (km)","HypD (km)","Joyner-Boore Dist. (km)","Campbell R Dist. (km)","RmsD (km)","ClstD (km)","Rx","FW/HW Indicator","Source to Site Azimuth (deg)","X","Theta.D (deg)","SSGA (Strike Slip)","Y","Phi.D (deg)","SSGA (Dip Slip)","s","d","ctildepr","Unused Column","D","Rfn.Hyp","Rfp.Hyp","Unused Column","Unused Column","Unused Column","T","GMX's C1","GMX's C2","GMX's C3","Campbell's GEOCODE","Bray and Rodriguez-Marek SGS","Depth","Preferred NEHRP Based on Vs30","Vs30 (m/s) selected for analysis","Column Not Used","Measured/Inferred Class","Sigma of Vs30 (in natural log Units)","NEHRP Classification from CGS's Site Condition Map","Geological Unit","Geology","Owner","Station Latitude","Station Longitude","STORIES","INSTLOC","Depth to Basement Rock","Site Visited","NGA Type","Age","Grain Size","Depositional History","Northern CA/Southern CA - H11 Z1 (m)","Northern CA/Southern CA - H11 Z1.5 (m)","Northern CA/Southern CA - H11 Z2.5 (m)","Northern CA/Southern CA - S4 Z1 (m)","Northern CA/Southern CA - S4 Z1.5 (m)","Northern CA/Southern CA - S4 Z2.5 (m)","Depth to Franciscan Rock (km)","Basin","h (m)","hnorm (m)","Rsbe (m)","Rcebe (m)","Rebe (m)","Rsbe1 (m)","File Name (Horizontal 1)","File Name (Horizontal 2)","File Name (Vertical)","H1 azimth (degrees)","H2 azimith (degrees)","Type of Recording","Instrument Model","PEA Processing Flag","Type of Filter","npass","nroll","HP-H1 (Hz)","HP-H2 (Hz)","LP-H1 (Hz)","LP-H2 (Hz)","Factor","Lowest Usable Freq - H1 (Hz)","Lowest Usable Freq - H2 (H2)","Lowest Usable Freq - Ave. Component (Hz)","PGA (g)","PGV (cm/sec)","PGD (cm)","T0.010S","T0.020S","T0.022S","T0.025S","T0.029S","T0.030S","T0.032S","T0.035S","T0.036S","T0.040S","T0.042S","T0.044S","T0.045S","T0.046S","T0.048S","T0.050S","T0.055S","T0.060S","T0.065S","T0.067S","T0.070S","T0.075S","T0.080S","T0.085S","T0.090S","T0.095S","T0.100S","T0.110S","T0.120S","T0.130S","T0.133S","T0.140S","T0.150S","T0.160S","T0.170S","T0.180S","T0.190S","T0.200S","T0.220S","T0.240S","T0.250S","T0.260S","T0.280S","T0.290S","T0.300S","T0.320S","T0.340S","T0.350S","T0.360S","T0.380S","T0.400S","T0.420S","T0.440S","T0.450S","T0.460S","T0.480S","T0.500S","T0.550S","T0.600S","T0.650S","T0.667S","T0.700S","T0.750S","T0.800S","T0.850S","T0.900S","T0.950S","T1.000S","T1.100S","T1.200S","T1.300S","T1.400S","T1.500S","T1.600S","T1.700S","T1.800S","T1.900S","T2.000S","T2.200S","T2.400S","T2.500S","T2.600S","T2.800S","T3.000S","T3.200S","T3.400S","T3.500S","T3.600S","T3.800S","T4.000S","T4.200S","T4.400S","T4.600S","T4.800S","T5.000S","T5.500S","T6.000S","T6.500S","T7.000S","T7.500S","T8.000S","T8.500S","T9.000S","T9.500S","T10.000S","T11.000S","T12.000S","T13.000S","T14.000S","T15.000S","T20.000S","Ave Strike (deg)","TYPE(CRjb = 0)","CRjb","TYPE (CRjb = 2)","CRjb","TYPE (CRjb = 5)","CRjb","TYPE (CRjb = 10)","CRjb","TYPE (CRjb = 20)","CRjb","TYPE (CRjb = 40)","CRjb","U","IDPv4","XCI","XCI1","Damping (%)","RotD percentile","Instrument Nat. Freq.","Instrument Damping","Instrument Type","Quality_Flag","Spectra Quality Flag","Late S-trigger","Late P-trigger","Idirectivity","Tp","Ry 2"
4111,179,"Parkfield-02, CA",2004,928,1715,"Parkfield - Fault Zone 7",386,36431,6.,"Mw",-999,-999,-999,-999,1.12e25,141,89,-175,0,4.24,6.06,2.82,275.85,35.817,-120.365,8.1,0,0,-999,1,2.5,40.,8.,320.,-999,-999,-999,-999,-999,-999,51,1,2.,0,"San Andreas",-999,6.96,10.68,0.95,-999,9.41,2.67,-0.95,"na",-90,0.17,8.7,0.17,0.7,6.4,0.7,6.88,-999.,2.88,-999,8.87,0.571,0.0552,-999,-999,-999,-0.95058772,"I","Q","C","B","D","S","D",297.46,-999,0,0.1,"C","Qoa",-999,"CDMG",35.871,-120.404,0,"GROUND LEVEL",-999,-999,-999,"Pleistocene","Aggregate","Non-marine",80,-999,6520,-999,-999,-999,-999,-999,-999,-999,-999,-999,-999,-999,"PARK2004\Z07090.AT2","PARK2004\Z07360.AT2","PARK2004\Z07-UP.AT2",90,0,-999,-999,"PEA","A",1,2.5,0.06,0.05,40.,40.,1.25,0.075,0.063,0.075,0.2391,20.007,5.3738,0.24109,0.25142,0.25311,0.26203,0.2677,0.26136,0.27952,0.29583,0.28977,0.30013,0.30885,0.3136,0.32329,0.32384,0.33507,0.34337,0.35881,0.44179,0.5023,0.49513,0.48133,0.5209,0.53359,0.57544,0.55169,0.62114,0.67081,0.65441,0.62396,0.6739,0.66335,0.66468,0.63132,0.59606,0.57277,0.58564,0.50458,0.4932,0.57608,0.54788,0.55158,0.54818,0.5841,0.58497,0.54006,0.4701,0.45193,0.48273,0.54428,0.59922,0.64788,0.54999,0.57315,0.58074,0.55408,0.55482,0.66349,0.65167,0.43187,0.37195,0.37145,0.3715,0.37197,0.33939,0.31199,0.3017,0.28604,0.27047,0.24308,0.21412,0.18294,0.1518,0.13935,0.14286,0.12581,0.10756,0.086604,0.077587,0.063565,0.053794,0.048564,0.043712,0.034984,0.029533,0.024548,0.021446,0.020453,0.019553,0.01758,0.016085,0.014659,0.0129,0.0113,0.010167,0.0093456,0.0080537,0.0069185,0.0056935,0.0050411,0.0044117,0.003964,0.0036639,0.0032649,0.0027331,0.0024016,0.0019389,0.0015768,0.0013345,0.0011391,0.00097711,0.00054425,141.,"C1",0,"C1",0,"C1",0,"C1",0,"C1",0,"C1",0,23.116334,1.11,0.1639,-0.189,5,50,-999,-999,-999,-999,0,-999,"?",0,-999,3.116334
9339,1007,14155260,2005,616,2053,"Green Verdugo Microwave Site",100099,"DEC",4.88,"ML",-999.,-999,-999,-999,2.3442e23,298,64,148,3,1.5,351.1,40.3,259.8,34.0655,-117.0011,17.501,-999,-999,-999,0,15.7889,2.8,2.5,7.1,-999.,-999.,-999.,-999.,-999.,-999.,-999,-999,-999.,-999,-999,-999.,124.65,125.87,123.13,124.14,-999.,124.14,-37.53,-999,-999.,-999.,-999.,-999.,-999.,-999.,-999.,-999,-999,-999,-999,-999,-999,-999,-999,-999,-999,-999,"A,B",-999,"A",-999,-999.,-999,"C",434.3,-999,"2a_4b",0.34,-999,-999,-999,-999,34.2535,-118.3338,-999,-999.,-999,-999,-999,-999.,-999.,-999,880,-999,1080,320,-999,320,-999,-999,-999.,-999.,-999.,-999.,-999.,-999.,"14155260\CIDECHHN.AT2","14155260\CIDECHHE.AT2","14155260\CIDECHHZ.AT2",0,90.,"D","HHN STS-2 Q330-S","PEA","A",1.,2.5,0.07,0.11,0,0.,1.25,0.0875,0.1375,0.1375,0.0074378,0.42333,0.039755,0.0075315,0.0074749,0.0074885,0.0075122,0.007537,0.0075521,0.0075949,0.0076281,0.0076545,0.0077022,0.0077583,0.007819,0.0078439,0.0078872,0.0079434,0.0079559,0.0082551,0.0081172,0.008327,0.0085114,0.0088237,0.010851,0.012201,0.01225,0.012958,0.015019,0.01587,0.014015,0.017057,0.016276,0.01655,0.016529,0.015336,0.017598,0.020499,0.022124,0.024811,0.02614,0.026838,0.02822,0.029549,0.028783,0.028494,0.028244,0.02622,0.027351,0.029826,0.027589,0.024666,0.020771,0.022361,0.024163,0.020862,0.01911,0.018568,0.016235,0.013184,0.0088849,0.0067747,0.0071725,0.0070335,0.0059345,0.0049582,0.0046975,0.0045516,0.0044253,0.0040014,0.0035439,0.0030609,0.0027474,0.0025782,0.0019611,0.0013551,0.0010457,0.00085968,0.00076048,0.00067025,0.00059065,0.00042374,0.00033565,0.00029752,0.00027271,0.00021893,0.00018538,0.00015631,0.00014236,0.00013693,0.00013169,0.0001209,0.00011071,0.00010105,0.00009164,0.000082888,0.000075087,0.000068216,0.000053753,0.000043314,0.000037399,0.000033776,0.000030164,0.000026309,0.00002287,0.00002016,0.000018031,0.000016316,0.000013585,0.000011443,9.7104e-6,8.3397e-6,7.2379e-6,4.0311e-6,-999,"C1",0,"C1",0,"C1",0,"C1",0,"C1",0,"C1",0,-999,-999,-999,-999,5,50,0.0083333,0.707,"v",0,0,-999,-999,-999,-999,118.1324056606
3224,174,"Chi-Chi, Taiwan-05",1999,922,14,"TTN001",1097,-999,6.2,"Mw",0.081,-999,-999,0.2,2.2387e25,165,70,100,2,24.4,247.3,63.7,91.1,23.81,121.08,10,-999,0,"M ~ 6",1,7.74,17.5,19.,332.4,18.8,0.7,26.9,9.,2.6,-999,-999,0,15.,0,-999,-999,66.08,66.83,58.74,-999,69.78,59.25,-20.78,"nu",-20.72,0.43,19.1,-999,0.13,45.2,-999,7.51,-999.,3.48,-999,7.88,0.1,0.25,-999,-999,-999,-20.78,"I","H","D","C","D",-999,"C",484.6,412.6,0,0.2,"C",-999,-999,"CWB",23.3178,121.4425,-999,-999,-999,-999,-999,-999,-999,-999,-999,-999,-999,-999,-999,-999,-999,-999,-999,-999,-999,-999,-999,-999,"CHICHI.05\TTN001N.AT2","CHICHI.05\TTN001W.AT2","CHICHI.05\TTN001V.AT2",0,270,"D","IDS","PEA","A",1,2.5,0.07,0.05,35.,35.,1.25,0.088,0.063,0.088,0.033129,4.3538,1.7041,0.03315,0.033282,0.033313,0.033476,0.033644,0.03361,0.033534,0.033964,0.034006,0.035163,0.036393,0.036431,0.036311,0.036058,0.036614,0.036801,0.03585,0.038452,0.038598,0.03796,0.037532,0.041652,0.044238,0.043944,0.046029,0.053011,0.057155,0.063037,0.070472,0.076862,0.079429,0.078724,0.077263,0.088911,0.085211,0.089906,0.097008,0.090215,0.094711,0.088498,0.086263,0.09631,0.11012,0.10009,0.088393,0.085231,0.084349,0.08749,0.093117,0.0976,0.093414,0.089961,0.10266,0.10469,0.10183,0.10728,0.11074,0.10096,0.06979,0.051689,0.052131,0.053183,0.051704,0.051527,0.039436,0.042248,0.041207,0.041706,0.040845,0.041579,0.033662,0.029151,0.02609,0.025439,0.024017,0.025862,0.025451,0.021634,0.018967,0.017737,0.017585,0.017492,0.016982,0.015476,0.014314,0.012328,0.011494,0.01063,0.0089824,0.007916,0.0068175,0.0068213,0.0064678,0.0062017,0.0060113,0.0044374,0.0034307,0.0029334,0.0024147,0.0020104,0.0017176,0.0014068,0.0011888,0.0010297,0.00089637,0.00075238,0.00064764,0.00056612,0.00049851,0.00043781,0.00022825,165.,"C1",0,"C1",0,"C2 - 0137",4.99,"C2 - 0137",4.99,"C2 - 0137",4.99,"C2 - 0137",4.99,72.441493,0.531,0.0899,-0.0322,5,50,-999,-999,-999,-999,0,-999,"D",0,-999,63.691493
10278,1016,9983429,2004,214,1243,"Santa Cruz Island 2",100286,"SCZ2",4.34,"ML",-999.,-999,-999,-999,3.6308e22,106,56,160,0,11.2,333.4,36.6,71.8,35.0174,-119.1492,9.557,-999,-999,-999,0,8.5504,1.9,1.5,2.8,-999.,-999.,-999.,-999.,-999.,-999.,-999,-999,-999.,-999,-999,-999.,121.84,122.21,121.9,122.29,-999.,122.29,122.24,-999,-999.,-999.,-999.,-999.,-999.,-999.,-999.,-999,-999,-999,-999,-999,-999,-999,-999,-999,-999,-999,"A,B",-999,-999,-999,-999.,-999,"D",313.,-999,0,0.1,-999,-999,-999,-999,33.9954,-119.6351,-999,-999.,-999,-999,-999,-999.,-999.,-999,3520,-999,3520,-999,-999,-999,-999,-999,-999.,-999.,-999.,-999.,-999.,-999.,"9983429\CSCZ2HHN.AT2","9983429\CSCZ2HHE.AT2","9983429\CSCZ2HHZ.AT2",0,90.,"D","HHN CMG-3ESPC Q330","PEA","A",1.,2.5,0.04,0.02,21,21.,1.25,0.05,0.025,0.05,0.0012164,0.094474,0.016536,0.0012306,0.0012186,0.0012206,0.0012231,0.0012273,0.0012283,0.0012305,0.0012363,0.0012358,0.0012387,0.0012428,0.0012462,0.0012471,0.0012497,0.0012555,0.0012577,0.0012782,0.0013108,0.0013135,0.0013364,0.0013545,0.0013889,0.0015026,0.0015572,0.0016157,0.0016806,0.0017404,0.00212,0.0028315,0.003148,0.0030935,0.0032793,0.0030174,0.0026999,0.0026247,0.0027815,0.0028339,0.0029863,0.0028633,0.0038859,0.00424,0.0042518,0.0035559,0.0035878,0.0032734,0.0026441,0.0024829,0.0024962,0.0026573,0.0028667,0.0029074,0.0029765,0.0030975,0.0031153,0.0031074,0.0029724,0.0027031,0.0026705,0.0024253,0.0020596,0.002151,0.0024735,0.002876,0.0024441,0.0020128,0.0015823,0.0015943,0.0015184,0.0011363,0.0011005,0.00098802,0.0008602,0.00081152,0.0006343,0.00056893,0.00048011,0.00038883,0.00036609,0.0003034,0.00022825,0.00019901,0.00017201,0.00014017,0.00010375,0.000091628,0.000080139,0.00007719,0.000073739,0.000064735,0.000058089,0.000052404,0.000045432,0.000042293,0.000038735,0.000035227,0.000027465,0.000021944,0.000018164,0.00001559,0.00001364,0.000011977,0.000010564,9.3581e-6,8.3261e-6,7.4218e-6,6.0033e-6,4.934e-6,4.1355e-6,3.5178e-6,3.0415e-6,1.6859e-6,-999,"C1",0,"C1",0,"C1",0,"C1",0,"C1",0,"C1",0,-999,-999,-999,-999,5,50,0.0083279,0.707,"v",0,0,-999,-999,-999,-999,-9.7692925317
14091,1079,21510121,2006,321,2141,"Two Rock",100447,"NTR",3.7,"Mw",-999.,-999,-999,-999,3.9811e21,139,89,-175,0,4.2,4.1,2.8,273.9,37.8077,-122.0707,11.554,-999,-999,-999,0,11.1211,1.,0.9,0.9,-999.,-999.,-999.,-999.,-999.,-999.,-999,-999,-999.,-999,-999,-999.,79.93,80.76,79.55,80.32,-999.,80.32,16.26,-999,-999.,-999.,-999.,-999.,-999.,-999.,-999.,-999,-999,-999,-999,-999,-999,-999,-999,-999,-999,-999,"I",-999,-999,-999,-999.,-999,"C",560.6,-999,"2a_4b",0.34,-999,-999,-999,-999,38.2404,-122.7984,-999,-999.,-999,-999,-999,-999.,-999.,-999,44,294,868,44.1,294.1,867.5,-999,-999,-999.,-999.,-999.,-999.,-999.,-999.,"51169283\NCNTRHNN.AT2","51169283\NCNTRHNE.AT2","51169283\NCNTRHNZ.AT2",0,90.,"D","HNN -999 -999","PEA","A",1.,2.5,0.4,0.58,50,50.,1.25,0.5,0.725,0.725,0.00024484,0.010801,0.00099367,0.00024945,0.00024638,0.00024793,0.00025002,0.00025897,0.00025923,0.0002643,0.00026646,0.00026866,0.0002758,0.00028754,0.00029684,0.00030304,0.00030805,0.00030194,0.00030274,0.00035448,0.00042172,0.00049044,0.00046842,0.00041842,0.0004772,0.00048552,0.00052682,0.00056259,0.00067786,0.00079212,0.00093628,0.00070997,0.00072503,0.00080094,0.00089128,0.00082911,0.0007637,0.00069449,0.00066545,0.00074358,0.00085205,0.00085095,0.00071721,0.00072727,0.00067539,0.00051857,0.00049464,0.00047301,0.00039555,0.00039435,0.00041285,0.00045035,0.00045556,0.00037866,0.00035395,0.0003467,0.00033955,0.00032114,0.00029698,0.00029779,0.00030159,0.00029721,0.00027322,0.00027625,0.00026738,0.00023419,0.00019614,0.00015931,0.00011665,0.000098236,0.000084667,0.000072204,0.000060965,0.000045855,0.000037771,0.000033225,0.000025984,0.000021382,0.000017229,0.000016779,0.000014705,0.000011988,9.7331e-6,9.3146e-6,8.0878e-6,5.4266e-6,5.4661e-6,4.5802e-6,4.1705e-6,3.9927e-6,3.6817e-6,3.1581e-6,2.713e-6,2.442e-6,2.2027e-6,1.9979e-6,1.8366e-6,1.6481e-6,1.3614e-6,1.1595e-6,9.622e-7,8.3673e-7,7.1705e-7,6.2752e-7,5.616e-7,5.0328e-7,4.5103e-7,4.0626e-7,3.3428e-7,2.8072e-7,2.3774e-7,2.0426e-7,1.7823e-7,9.9915e-8,-999,"C1",0,"C1",0,"C1",0,"C1f - 1051",8.46,"C1f - 1051",8.46,"C1f - 1051",8.46,-999,-999,-999,-999,5,50,223.9759,0.69709,"a",0,0,-999,-999,-999,-999,-78.1119186277
18318,1193,14551524,2009,1127,1957,"Springville 2",100438,"SPG2",3.47,"ML",-999.,-999,-999,-999,1.7989e21,325,35,178,0,34.4,176.1,36.4,296.4,36.3879,-117.8711,9.151,-999,-999,-999,0,8.8929,0.7,0.6,0.4,-999.,-999.,-999.,-999.,-999.,-999.,-999,-999,-999.,-999,-999,-999.,83.05,83.55,82.49,82.97,-999.,82.97,-77.22,-999,-999.,-999.,-999.,-999.,-999.,-999.,-999.,-999,-999,-999,-999,-999,-999,-999,-999,-999,-999,-999,"A,B",-999,-999,-999,-999.,-999,"B",924.,-999,0,0.1,-999,-999,-999,-999,36.2006,-118.7662,-999,-999.,-999,-999,-999,-999.,-999.,-999,15,-999,180,15,-999,-999,-999,-999,-999.,-999.,-999.,-999.,-999.,-999.,"14551524\CSPG2HNN.AT2","14551524\CSPG2HNE.AT2","14551524\CSPG2HNZ.AT2",0,90.,"D","HNN FBA ES-T-4G Q330-S","PEA","A",1.,2.5,0.48,0.45,0,0.,1.25,0.6,0.5625,0.6,0.0003368,0.0057299,0.00020925,0.00034783,0.00036191,0.00036652,0.00044433,0.00051819,0.00051223,0.00049615,0.00056675,0.00058142,0.0006019,0.00068599,0.00073868,0.00074459,0.00075502,0.00086469,0.0010179,0.0012134,0.0011482,0.00096463,0.00090879,0.00084891,0.00075683,0.00071536,0.00067754,0.00068225,0.00066987,0.00066045,0.00060365,0.00060862,0.00060707,0.0006125,0.00062206,0.00059513,0.00056472,0.00050059,0.00044625,0.00042727,0.00039288,0.00031021,0.00023862,0.00020177,0.00017817,0.00014949,0.00013804,0.00013044,0.00010947,0.000093849,0.000086622,0.00008117,0.000072657,0.000065319,0.000056732,0.000050181,0.000047019,0.000043918,0.00003903,0.000035681,0.000029902,0.000025939,0.00001959,0.000018781,0.00001662,0.000013627,0.000011828,0.000010563,9.1227e-6,8.336e-6,8.3568e-6,7.4397e-6,5.9048e-6,4.9169e-6,4.4992e-6,3.9068e-6,3.3591e-6,2.9121e-6,2.565e-6,2.3995e-6,2.2574e-6,1.9277e-6,1.6143e-6,1.4696e-6,1.3467e-6,1.1535e-6,9.9158e-7,8.5924e-7,7.5576e-7,7.111e-7,6.7019e-7,5.9816e-7,5.3838e-7,4.8834e-7,4.4545e-7,4.078e-7,3.7434e-7,3.4454e-7,2.8377e-7,2.3809e-7,2.027e-7,1.7458e-7,1.519e-7,1.3338e-7,1.1809e-7,1.0529e-7,9.4462e-8,8.522e-8,7.0379e-8,5.9107e-8,5.0351e-8,4.3413e-8,3.782e-8,2.1269e-8,-999,"C1",0,"C1",0,"C1",0,"C1",0,"C1",0,"C1",0,-999,-999,-999,-999,5,50,200,0.707,"a",0,0,-999,-999,-999,-999,29.0023567617
19421,1069,30225187,2002,1124,1454,"Hamilton Field",100347,"NHF",3.9,"Mw",-999,-999,-999,-999,7943282347242790000000,242,87,-17,0,14.09,196.2,9.76,288.68,37.7568,-121.9477,7.856,-999,-999,-999,0,7.2471,1.6,0.7,1.1,-999,-999,-999,-999,-999,-999,-999,-999,-999,-999,-999,-999,60.16,60.67,59.82,60.28,-999,60.28,52.51,-999,-999,-999,-999,-999,-999,-999,-999,-999,-999,-999,-999,-999,-999,-999,-999,-999,-999,-999,"I",-999,-999,-999,-999,-999,"C",760,-999,"2a_4b",0.34,-999,-999,-999,-999,38.0496,-122.5233,-999,-999,-999.,-999,-999,-999,-999,-999,0,264,865,0,264,865,-999,-999,-999,-999,-999,-999,-999,-999,"40138528/NHFHNN.AT2","40138528/NHFHNE.AT2",-999,0,90,"D",-999,"PEA","A",1,2.5,0.388,0.441,28.429,29.175,1.25,0.484,0.551,0.551,0.0012397,0.041738,0.0028501,0.0012613,0.0012563,0.0012589,0.0012626,0.0012777,0.0012827,0.0012856,0.0012986,0.0013024,0.0013218,0.0013182,0.0013474,0.0013686,0.0013814,0.0014111,0.0013874,0.0014479,0.0016521,0.0017413,0.0017836,0.0019034,0.0020539,0.002049,0.0022258,0.0024132,0.0026025,0.0026515,0.0029203,0.0031258,0.0029215,0.0031044,0.0032098,0.0035337,0.0044565,0.0049051,0.00517,0.0054816,0.0056404,0.0052193,0.0039346,0.0032314,0.0029483,0.0022431,0.002235,0.0022505,0.0022012,0.0021956,0.0020275,0.0019367,0.0017038,0.0014868,0.0011972,0.00093057,0.00091706,0.0008681,0.00074958,0.00069078,0.0005478,0.00047221,0.00035254,0.00035576,0.00032947,0.00022426,0.00017189,0.00015502,0.0001371,0.00013721,0.00013272,0.00012531,0.000094661,0.000076127,0.000053927,0.000041849,0.000040216,0.000033821,0.000029035,0.000028287,0.000025353,0.000020991,0.000016415,0.000014627,0.00001375,0.000011738,0.000010339,9.5894e-6,8.5677e-6,8.0591e-6,7.5375e-6,6.5257e-6,5.7228e-6,5.1499e-6,4.7254e-6,4.3591e-6,4.0142e-6,3.6758e-6,2.9659e-6,2.4905e-6,2.1382e-6,1.8325e-6,1.5701e-6,1.3669e-6,1.2098e-6,1.0815e-6,9.7175e-7,8.8297e-7,7.394e-7,6.2072e-7,5.2384e-7,4.5123e-7,3.9295e-7,2.1428e-7,-999,"C1",0,"C1",0,"C1",0,"C1",0,"C1",0,"C1",0,-999,-999,-999,-999,5,50,49.9901,0.7071,"a",-999,0,-999,-999,-999,-999,29.3326306794
