"Record Sequence Number","EQID","Earthquake Name","YEAR","MODY","HRMN","Station Name","Station Sequence Number","Station ID  No.","Earthquake Magnitude","Magnitude Type","Magnitude Uncertainty: Kagan Model","Magnitude Uncertainty: Statistical","Magnitude Sample Size","Magnitude Uncertainty: Study Class","Mo (dyne.cm)","Strike (deg)","Dip (deg)","Rake Angle (deg)","Mechanism Based on Rake Angle","P-plunge (deg)","P-trend (deg)","T-plunge (deg)","T-trend (deg)","Hypocenter Latitude (deg)","Hypocenter Longitude (deg)","Hypocenter Depth (km)","Coseismic Surface Rupture: 1=Yes; 0=No;    -999=Unknown","Coseismic Surface Rupture (Including Inferred)","Basis for Inference of Surface Rupture","Finite Rupture Model: 1=Yes;  0=No","Depth to Top Of Fault Rupture Model","Fault Rupture Length for Calculation of Ry (km)","Fault Rupture Width (km)","Fault Rupture Area (km^2)","Avg Fault Disp (cm)","Rise Time (s)","Avg Slip Velocity (cm/s)","Static Stress Drop (bars)","Preferred Rupture Velocity (km/s)","Average Vr/Vs","Percent of Moment Release in the Top 5 Km of Crust","Existence of Shallow Asperity: 0=No; 1=Yes","Depth to Top of Shallowest Asperity (km)","Earthquake in Extensional Regime: 1=Yes; 0=No","Fault Name","Slip Rate (mm/Yr)","EpiD (km)","HypD (km)","Joyner-Boore Dist. (km)","Campbell R Dist. (km)","RmsD (km)","ClstD (km)","Rx","FW/HW Indicator","Source to Site Azimuth (deg)","X","Theta.D (deg)","SSGA (Strike Slip)","Y","Phi.D (deg)","SSGA (Dip Slip)","s","d","ctildepr","Unused Column","D","Rfn.Hyp","Rfp.Hyp","Unused Column","Unused Column","Unused Column","T","GMX's C1","GMX's C2","GMX's C3","Campbell's GEOCODE","Bray and Rodriguez-Marek SGS","Depth","Preferred NEHRP Based on Vs30","Vs30 (m/s) selected for analysis","Column Not Used","Measured/Inferred Class","Sigma of Vs30 (in natural log Units)","NEHRP Classification from CGS's Site Condition Map","Geological Unit","Geology","Owner","Station Latitude","Station Longitude","STORIES","INSTLOC","Depth to Basement Rock","Site Visited","NGA Type","Age","Grain Size","Depositional History","Northern CA/Southern CA - H11 Z1 (m)","Northern CA/Southern CA - H11 Z1.5 (m)","Northern CA/Southern CA - H11 Z2.5 (m)","Northern CA/Southern CA - S4 Z1 (m)","Northern CA/Southern CA - S4 Z1.5 (m)","Northern CA/Southern CA - S4 Z2.5 (m)","Depth to Franciscan Rock (km)","Basin","h (m)","hnorm (m)","Rsbe (m)","Rcebe (m)","Rebe (m)","Rsbe1 (m)","File Name (Horizontal 1)","File Name (Horizontal 2)","File Name (Vertical)","H1 azimth (degrees)","H2 azimith (degrees)","Type of Recording","Instrument Model","PEA Processing Flag","Type of Filter","npass","nroll","HP-H1 (Hz)","HP-H2 (Hz)","LP-H1 (Hz)","LP-H2 (Hz)","Factor","Lowest Usable Freq - H1 (Hz)","Lowest Usable Freq - H2 (H2)","Lowest Usable Freq - Ave. Component (Hz)","PGA (g)","PGV (cm/sec)","PGD (cm)","T0.010S","T0.020S","T0.022S","T0.025S","T0.029S","T0.030S","T0.032S","T0.035S","T0.036S","T0.040S","T0.042S","T0.044S","T0.045S","T0.046S","T0.048S","T0.050S","T0.055S","T0.060S","T0.065S","T0.067S","T0.070S","T0.075S","T0.080S","T0.085S","T0.090S","T0.095S","T0.100S","T0.110S","T0.120S","T0.130S","T0.133S","T0.140S","T0.150S","T0.160S","T0.170S","T0.180S","T0.190S","T0.200S","T0.220S","T0.240S","T0.250S","T0.260S","T0.280S","T0.290S","T0.300S","T0.320S","T0.340S","T0.350S","T0.360S","T0.380S","T0.400S","T0.420S","T0.440S","T0.450S","T0.460S","T0.480S","T0.500S","T0.550S","T0.600S","T0.650S","T0.667S","T0.700S","T0.750S","T0.800S","T0.850S","T0.900S","T0.950S","T1.000S","T1.100S","T1.200S","T1.300S","T1.400S","T1.500S","T1.600S","T1.700S","T1.800S","T1.900S","T2.000S","T2.200S","T2.400S","T2.500S","T2.600S","T2.800S","T3.000S","T3.200S","T3.400S","T3.500S","T3.600S","T3.800S","T4.000S","T4.200S","T4.400S","T4.600S","T4.800S","T5.000S","T5.500S","T6.000S","T6.500S","T7.000S","T7.500S","T8.000S","T8.500S","T9.000S","T9.500S","T10.000S","T11.000S","T12.000S","T13.000S","T14.000S","T15.000S","T20.000S","Ave Strike (deg)","TYPE(CRjb = 0)","CRjb","TYPE (CRjb = 2)","CRjb","TYPE (CRjb = 5)","CRjb","TYPE (CRjb = 10)","CRjb","TYPE (CRjb = 20)","CRjb","TYPE (CRjb = 40)","CRjb","U","IDPv4","XCI","XCI1","Damping (%)","RotD percentile","Instrument Nat. Freq.","Instrument Damping","Instrument Type","Quality_Flag","Spectra Quality Flag","Late S-trigger","Late P-trigger","Idirectivity","Tp","Ry 2"
12007,1039,9140050,2000,221,1349,"Corona, E. 5th St. and Joy St.",3051,"crn",4.37,"ML",-999.,-999,-999,-999,4.0272e22,354,83,-169,0,12.7,218.6,2.7,128.,34.0559,-117.2442,15.833,-999,-999,-999,0,14.8134,2.,3.1,6.4,-999.,-999.,-999.,-999.,-999.,-999.,-999,-999,-999.,-999,-999,-999.,35.43,38.81,34.89,37.91,-999.,37.91,-31.07,-999,-999.,-999.,-999.,-999.,-999.,-999.,-999.,-999,-999,-999,-999,-999,-999,-999,-999,-999,-999,-999,"A",-999,"A",-999,-999.,-999,"C",392.7,-999,"2a_4b_4c",0.25,-999,-999,-999,"SCSN",33.876,-117.561,-999,-999.,-999,-999,-999,-999.,-999.,-999,60,-999,300,320,-999,2100,-999,-999,-999.,-999.,-999.,-999.,-999.,-999.,"9533089\CICRNHLN.AT2","9533089\CICRNHLE.AT2","9533089\CICRNHLZ.AT2",0,90.,"D","HLN FBA-D KINEMETRICS-K2","PEA","A",1.,2.5,0.31,0.32,13,41.,1.25,0.3875,0.4,0.4,0.008338,0.16298,0.006964,0.0084784,0.0086937,0.0090124,0.0097556,0.013647,0.013154,0.012851,0.013441,0.013406,0.016,0.015654,0.015728,0.01505,0.014173,0.014071,0.015326,0.020511,0.020116,0.019957,0.020596,0.02083,0.017107,0.017824,0.020141,0.020599,0.021686,0.021847,0.0212,0.016864,0.017058,0.016939,0.017245,0.017957,0.016784,0.016302,0.015691,0.015148,0.014588,0.01678,0.014256,0.01272,0.01047,0.0068562,0.0055683,0.0049678,0.0043,0.0036179,0.0034303,0.0030446,0.0025961,0.0022535,0.0019703,0.0018442,0.0019407,0.0020585,0.0020662,0.0018185,0.0016353,0.0018206,0.0014094,0.0013315,0.0011485,0.0010062,0.00091015,0.00080809,0.00069849,0.00060559,0.00052424,0.00040437,0.00034012,0.0002683,0.00021384,0.00017976,0.00015293,0.00013392,0.00011771,0.000099105,0.000093129,0.000075579,0.000057649,0.000052589,0.00004959,0.000042617,0.000037387,0.000032953,0.000028863,0.000026959,0.000024893,0.000021714,0.000019171,0.000017019,0.000015375,0.00001408,0.000012928,0.000011847,9.5875e-6,8.0345e-6,6.8833e-6,5.9313e-6,5.1338e-6,4.4796e-6,3.9484e-6,3.5137e-6,3.1519e-6,2.8453e-6,2.3529e-6,1.9762e-6,1.6822e-6,1.4488e-6,1.2608e-6,7.0724e-7,-999,"C1",0,"C1",0,"C1",0,"C1",0,"C1",0,"C1f - 0161",36.69,-999,-999,-999,-999,5,50,50.8,0.64,"a",0,0,-999,-999,-999,-999,-16.7705673798
9529,1011,10410337,2009,518,339,"Anaheim - Kraemer & La Palma",1652,13883,4.7,"ML",-999.,-999,-999,-999,1.2589e23,327,83,-158,0,20.4,192.6,10.2,98.8,33.9275,-118.3536,11.588,-999,-999,-999,0,10.1062,2.2,1.8,3.9,-999.,-999.,-999.,-999.,-999.,-999.,-999,-999,-999.,-999,-999,-999.,46.68,48.09,45.87,47.13,-999.,47.13,34.22,-999,-999.,-999.,-999.,-999.,-999.,-999.,-999.,-999,-999,-999,-999,-999,-999,-999,-999,-999,-999,-999,"A","H","D","A","D","D","D",283.5,-999,"2a_3a_4b_4c",0.25,"D","Qal, deep, LA basin",-999,"CDMG",33.853,-117.857,-999,-999.,-999,-999,-999,-999.,-999.,-999,920,-999,4120,460,-999,2740,-999,-999,-999.,-999.,-999.,-999.,-999.,-999.,"10410337B\13883360.AT2","10410337B\13883090.AT2","10410337B\13883-UP.AT2",0,90.,"D",-999.,"PEA","A",1.,2.5,0.14,0.17,37,38.,1.25,0.175,0.2125,0.2125,0.0091119,0.55055,0.061083,0.0091198,0.009161,0.0091532,0.0091878,0.0092178,0.0092395,0.0093337,0.0094035,0.0094103,0.0095729,0.0094442,0.0093881,0.0094061,0.009392,0.0095088,0.0095221,0.00999,0.011216,0.012509,0.012868,0.013597,0.014495,0.019281,0.020664,0.020898,0.02011,0.020489,0.022467,0.024431,0.02662,0.028738,0.033679,0.038231,0.031722,0.025208,0.024298,0.023494,0.023286,0.021594,0.025184,0.026487,0.025006,0.027527,0.026308,0.025095,0.025656,0.027659,0.028124,0.02785,0.026386,0.029368,0.029249,0.028892,0.027152,0.024947,0.021457,0.01948,0.017052,0.0137,0.014088,0.014136,0.012989,0.011009,0.0092384,0.0071106,0.008012,0.0075824,0.0069748,0.0057245,0.0042083,0.0029525,0.0029287,0.0024144,0.0019683,0.0015928,0.0013049,0.001176,0.0010497,0.001007,0.00086141,0.00071387,0.00055275,0.0004461,0.00036984,0.00031617,0.00027891,0.00027103,0.00026226,0.00025126,0.000228,0.00019723,0.00017359,0.00015199,0.00013509,0.00011636,0.000084715,0.000072042,0.000060039,0.000051065,0.000044896,0.000040616,0.000037135,0.000033816,0.000030545,0.000027459,0.000022223,0.000018254,0.00001528,0.00001302,0.000011258,6.2174e-6,-999,"C1",0,"C1",0,"C1",0,"C1",0,"C1",0,"C1",0,-999,-999,-999,-999,5,50,97.4,0.66,"a",0,0,-999,-999,-999,-999,-31.7884278199
20955,1021,21522424,2006,615,1224,"San Jose; Fire Station 10 Northwest; South Monroe St; 2-story; ground level",100007,1782,4.3,"Mw",-999,-999,-999,-999,31622776601683800000000,358,78,-155,0,26.06,222.49,8.35,128.37,37.0995,-121.4909,3.361,-999,-999,-999,0,2.585,1.6,1,1.6,-999,-999,-999,-999,-999,-999,-999,-999,-999,-999,-999,-999,46.94,47.06,46.3,46.37,-999,46.37,-39.07,-999,-999,-999,-999,-999,-999,-999,-999,-999,-999,-999,-999,-999,-999,-999,-999,-999,-999,-999,"A,B",-999,-999,-999,-999,-999,"D",337.58,-999,"2a_4b",0.34,-999,-999,-999,-999,37.3182,-121.9435,-999,-999,-999,-999,-999,-999,-999,-999,594,1394,1394,594,1394,1394,-999,-999,-999,-999,-999,-999,-999,-999,"51171759/1782HNN.AT2","51171759/1782HNE.AT2","51171759/1782HNZ.AT2",0,90,"D",-999,"PEA","A",1,2.5,0.127,0.231,21.948,32.356,1.25,0.159,0.289,0.289,0.0067066,0.30692,0.033665,0.0068102,0.0067391,0.0067494,0.0067597,0.0067951,0.0068036,0.0068071,0.0068345,0.0068494,0.0068721,0.006902,0.0069163,0.0069324,0.0069838,0.0070685,0.0070818,0.0072053,0.0073687,0.0075285,0.0075849,0.0076982,0.0080978,0.0086329,0.008743,0.009855,0.010636,0.011364,0.011248,0.014192,0.015577,0.015039,0.019156,0.023357,0.019468,0.019658,0.019304,0.01678,0.015399,0.017921,0.017429,0.01716,0.017971,0.020372,0.021955,0.023469,0.024444,0.021869,0.021783,0.022303,0.020859,0.017909,0.015674,0.013744,0.012801,0.011888,0.010233,0.0092632,0.0068404,0.0060049,0.0046127,0.0043751,0.0038768,0.0036584,0.00323,0.0025408,0.0024137,0.0024387,0.002503,0.0023354,0.0019292,0.0017203,0.0012904,0.00088759,0.0007847,0.0006663,0.00067552,0.00074237,0.00065266,0.00051127,0.00035918,0.00034667,0.00036471,0.00033231,0.0003389,0.00037604,0.00037585,0.00034422,0.00032151,0.00026513,0.00021152,0.00019035,0.00015525,0.00014461,0.00013219,0.00012754,0.00010101,0.000063131,0.000048571,0.000040069,0.00003203,0.000024027,0.000020641,0.000018624,0.000016682,0.000014793,0.000011853,9.7463e-6,8.1634e-6,6.9361e-6,5.9492e-6,3.3012e-6,-999,"C1",0,"C1",0,"C1",0,"C1",0,"C1",0,"C1",0,-999,-999,-999,-999,5,50,900.0912,0.7071,"a",-999,0,-999,-999,-999,-999,25.5677743426
17479,1163,10205997,2006,902,1629,"Beaumont, I-10 at 79",3039,"bbs",3.62,"ML",-999.,-999,-999,-999,3.02e21,149,87,-172,0,7.8,14.,3.5,283.6,33.9521,-116.3635,9.067,-999,-999,-999,0,8.5294,0.8,0.7,0.6,-999.,-999.,-999.,-999.,-999.,-999.,-999,-999,-999.,-999,-999,-999.,57.2,57.91,56.91,57.58,-999.,57.58,50.6,-999,-999.,-999.,-999.,-999.,-999.,-999.,-999.,-999,-999,-999,-999,-999,-999,-999,-999,-999,-999,-999,-999,-999,"A",-999,-999.,-999,"D",341.,-999,0,0.1,-999,-999,-999,"SCSN",33.921,-116.981,-999,-999.,-999,-999,-999,-999.,-999.,-999,80,-999,2440,-999,-999,-999,-999,-999,-999.,-999.,-999.,-999.,-999.,-999.,"10205997\CIBBSHHN.AT2","10205997\CIBBSHHE.AT2","10205997\CIBBSHHZ.AT2",0,90.,"D","HHN CMG-3ESPC Q330-S","PEA","A",1.,2.5,0.28,0.23,0,0.,1.25,0.35,0.2875,0.35,0.00056316,0.012826,0.00059566,0.00057529,0.00057118,0.00057564,0.00058705,0.00059537,0.00059775,0.00061421,0.0006351,0.00062956,0.00076225,0.00083144,0.00085759,0.00085812,0.00085118,0.00083365,0.00083086,0.00097216,0.0010518,0.0011731,0.0013087,0.0016185,0.0020175,0.0021047,0.0021012,0.0021502,0.0023891,0.0023727,0.0019719,0.0019645,0.0018428,0.0017303,0.0019215,0.0017248,0.0014918,0.0015578,0.0015242,0.0015097,0.0013497,0.00095099,0.00082483,0.00086079,0.00089153,0.00088319,0.00088322,0.00085091,0.00078532,0.00065451,0.00058827,0.00053403,0.0004566,0.00041043,0.00034333,0.00028943,0.00026778,0.00024408,0.00020689,0.00018719,0.00013409,0.0001195,0.000095704,0.000088775,0.000079686,0.000066504,0.000059545,0.000048505,0.000042627,0.000038821,0.000034554,0.000026017,0.000025912,0.000019852,0.000016643,0.000017083,0.000014894,0.000011568,0.000010204,9.0478e-6,7.8926e-6,8.3189e-6,7.5617e-6,7.5548e-6,7.0965e-6,5.664e-6,4.6449e-6,3.7077e-6,3.1505e-6,2.8401e-6,2.5852e-6,2.1794e-6,1.9243e-6,1.7523e-6,1.629e-6,1.4809e-6,1.3006e-6,1.1923e-6,9.0049e-7,7.103e-7,5.9609e-7,5.0849e-7,4.3994e-7,3.8478e-7,3.3968e-7,3.0272e-7,2.7149e-7,2.4469e-7,2.015e-7,1.69e-7,1.4399e-7,1.2412e-7,1.0792e-7,6.0494e-8,-999,"C1",0,"C1",0,"C1f - 1054",2.36,"C1f - 1054",2.36,"C1f - 1054",2.36,"C1f - 1054",2.36,-999,-999,-999,-999,5,50,0.0083279,0.707,"v",0,0,-999,-999,-999,-999,-26.3166379566
19509,1030,21262721,2003,107,2229,"Angel Island",100312,"CAG",4.3,"Mw",-999,-999,-999,-999,31622776601683800000000,152,83,-166,0,14.83,16.79,4.8,285.51,36.8059,-121.3902,7.258,-999,-999,-999,0,6.3648,1.6,1.8,2.8,-999,-999,-999,-999,-999,-999,-999,-999,-999,-999,-999,-999,148.29,148.46,147.64,147.81,-999,147.81,24.77,-999,-999,-999,-999,-999,-999,-999,-999,-999,-999,-999,-999,-999,-999,-999,-999,-999,-999,-999,"I",-999,"A",-999,-999,-999,"C",613.05,-999,"2a_4b",0.34,-999,-999,-999,-999,37.8573,-122.4227,-999,-999,-999.,-999,-999,-999,-999,-999,81,279,881,81,279,881,-999,-999,-999,-999,-999,-999,-999,-999,"40139808/CAGHNN.AT2","40139808/CAGHNE.AT2","40139808/CAGHNZ.AT2",0,90,"D",-999,"PEA","A",1,2.5,0.219,0.206,17.524,17.524,1.25,0.273,0.258,0.273,0.00045919,0.026281,0.0064638,0.00046531,0.00046007,0.00046112,0.00046269,0.00046577,0.0004662,0.00046697,0.00046964,0.00047028,0.00047303,0.0004755,0.00048078,0.00048231,0.00048293,0.00048472,0.00048877,0.00049906,0.00051533,0.00052978,0.00053643,0.00053499,0.00056271,0.00057566,0.00062002,0.00065986,0.00074546,0.00074968,0.00085556,0.00092489,0.00093426,0.00099975,0.0010481,0.0010633,0.0011857,0.0013185,0.0013965,0.0012932,0.0012971,0.0014542,0.0014303,0.0013493,0.0011836,0.0011509,0.0010371,0.0010032,0.0010205,0.0011792,0.0011415,0.0010687,0.0010602,0.0011558,0.0010676,0.001065,0.0010724,0.0010648,0.0010121,0.00088916,0.00084095,0.00068539,0.00064099,0.00057064,0.00048757,0.00042495,0.00037962,0.00032682,0.0002977,0.00026125,0.00022259,0.00020486,0.00020356,0.00016286,0.00013402,0.00011074,0.000087185,0.000075565,0.000067216,0.000055979,0.000045438,0.000036826,0.000029711,0.000025537,0.000023418,0.000022439,0.00002096,0.000017881,0.000015172,0.000012742,0.000011655,8.5823e-6,8.5158e-6,7.8996e-6,7.4669e-6,7.533e-6,7.7514e-6,7.2616e-6,4.3594e-6,3.3678e-6,2.9199e-6,2.6154e-6,2.1112e-6,1.7015e-6,1.5558e-6,1.5025e-6,1.3347e-6,1.1774e-6,9.336e-7,7.7733e-7,6.5848e-7,5.7522e-7,5.016e-7,2.6941e-7,-999,"C1",0,"C1",0,"C1",0,"C1",0,"C1",0,"C1",0,-999,-999,-999,-999,5,50,223.9758,0.6971,"a",-999,0,-999,-999,-999,-999,-146.034442768
2036,166,"Gilroy",2002,514,-999,"San Jose - Emory & Bellrose",1481,57600,4.9,"Mw",0.081,-999,-999,0.2,2.5119e23,301.8,84,-177,0,6.4,166.5,2.1,256.8,36.9667,-121.5987,10.12,-999,0,"M<6",0,7.865,2.4,3.7,9.1,-999,-999,-999,-999,-999,-999,-999,-999,-999,0,-999,-999,50.26,51.27,48.67,-999,50.81,49.45,18.75,"na",22.59,0.68,21.62,0.63,0.61,67.35,0.23,-999,-999,-999,-999,-999,-999.,-999.,-999,-999,-999,-999,"I","H","D","A","D","D","D",286.6,-999,"2a_3a_4b_4c",0.25,"D","Qal, deep (incl LA)",-999,"CDMG",37.329,-121.937,-999,-999,-999,-999,-999,-999,-999,-999,579,975,975,579,975,975,-999,-999,-999,-999,-999,-999,-999,-999,"GILROY2\57600090.AT2","GILROY2\57600360.AT2","GILROY2\57600-UP.AT2",90,0,"D",-999,"#","C",1,2.,0.3,0.3,40.,40.,1.3,0.39,0.39,0.39,0.02109,0.81902,0.094658,0.021381,0.021263,0.021292,0.021405,0.021426,0.021406,0.021602,0.021888,0.021945,0.022051,0.022127,0.022287,0.022359,0.022377,0.022298,0.022378,0.0229,0.024217,0.02449,0.02581,0.027184,0.027701,0.03006,0.034082,0.04002,0.040664,0.038678,0.038709,0.04136,0.051355,0.051772,0.049891,0.059253,0.069492,0.073112,0.068736,0.070059,0.066052,0.050998,0.065315,0.076394,0.086172,0.074746,0.064665,0.056998,0.051361,0.045907,0.044749,0.042682,0.035511,0.031942,0.027641,0.028116,0.026869,0.024816,0.021983,0.02207,0.018707,0.015128,0.01235,0.011655,0.0091006,0.0079399,0.0068978,0.0060436,0.0054813,0.0048395,0.0043421,0.0046077,0.0044158,0.0045516,0.0046808,0.0045475,0.0042203,0.003609,0.0030143,0.0028791,0.0023879,0.0020804,0.0016583,0.0014615,0.0013023,0.00088274,0.00066207,0.00054855,0.00043024,0.00038993,0.00036547,0.00033354,0.00029803,0.00026592,0.00023713,0.00022106,0.00020347,0.00018109,0.00014072,0.00011663,0.000098247,0.000083581,0.000072126,0.000062813,0.00005533,0.000049199,0.00004404,0.000039672,0.000032727,0.000027409,0.000023266,0.000019997,0.00001737,9.6551e-6,302,"C1",0,"C1",0,"C1",0,"C1",0,"C1",0,"C1",0,-999,-999,-999,-999,5,50,-999,-999,-999,-999,0,-999,-999,0,-999,46.2272389539
11999,1038,14077668,2004,724,1255,"Walnut",100377,"WLT",4.27,"ML",-999.,-999,-999,-999,2.851e22,254,23,80,2,22.3,171.6,67.4,2.6,34.3874,-119.4398,6.219,-999,-999,-999,0,5.798,1.7,1.5,2.5,-999.,-999.,-999.,-999.,-999.,-999.,-999,-999,-999.,-999,-999,-999.,143.5,143.64,142.12,142.24,-999.,142.24,-76.33,-999,-999.,-999.,-999.,-999.,-999.,-999.,-999.,-999,-999,-999,-999,-999,-999,-999,-999,-999,-999,-999,"A,B",-999,"A",-999,-999.,-999,"D",342.6,-999,"2a_4b",0.34,-999,-999,-999,-999,34.0095,-117.9508,-999,-999.,-999,-999,-999,-999.,-999.,-999,260,-999,2560,320,-999,3100,-999,-999,-999.,-999.,-999.,-999.,-999.,-999.,"14077668\CIWLTHHN.AT2","14077668\CIWLTHHE.AT2","14077668\CIWLTHHZ.AT2",0,90.,"D","HHN CMG-40T Q4120","PEA","A",1.,2.5,0.02,0.03,0,0.,1.25,0.025,0.0375,0.0375,0.00039605,0.025489,0.0029117,0.0004007,0.00039747,0.00039826,0.00039861,0.00039996,0.00040051,0.00040215,0.00040178,0.00040281,0.00040396,0.00040248,0.00040479,0.00040548,0.00040579,0.00040458,0.00040395,0.0004188,0.00042301,0.00042894,0.00043284,0.00043879,0.00045574,0.00046032,0.00048609,0.00051887,0.00056275,0.00062008,0.00064299,0.00083611,0.00088473,0.00094546,0.0010943,0.00093639,0.00091103,0.00091762,0.00094569,0.00087797,0.0008923,0.00085806,0.00098067,0.00095833,0.00086739,0.0010267,0.0010931,0.0011485,0.0010804,0.0010881,0.0010032,0.001008,0.0010206,0.0010304,0.0010177,0.0010409,0.0010433,0.001007,0.00094221,0.00095769,0.00080204,0.000677,0.00061283,0.00070332,0.00069621,0.00057585,0.00047261,0.00043245,0.00043031,0.00038746,0.0003486,0.00028494,0.00023903,0.00021971,0.00018411,0.00013901,0.00011639,0.00011206,0.00010458,0.000099102,0.000089525,0.000062733,0.000042404,0.000041542,0.000037663,0.000031876,0.000023199,0.0000204,0.000018764,0.000018821,0.000018722,0.000015121,0.000013629,0.000011475,9.7847e-6,9.2109e-6,8.2132e-6,7.3794e-6,5.9485e-6,4.7727e-6,4.4868e-6,4.2633e-6,3.2771e-6,2.7586e-6,2.3767e-6,2.0842e-6,1.9549e-6,1.7067e-6,1.234e-6,1.0508e-6,8.8224e-7,7.5195e-7,6.1399e-7,3.0459e-7,-999,"C1",0,"C1",0,"C1",0,"C1",0,"C1",0,"C1",0,-999,-999,-999,-999,5,50,0.0335368,0.707,"v",0,0,-999,-999,-999,-999,-120.1911443055
